<?xml version="1.0" encoding="UTF-8" standalone="no" ?>
<gpx xmlns="http://www.topografix.com/GPX/1/1" creator="http://nakarte.me" xmlns:xsi="http://www.w3.org/2001/XMLSchema-instance" xsi:schemaLocation="http://www.topografix.com/GPX/1/1 http://www.topografix.com/GPX/1/1/gpx.xsd" version="1.1">
	<metadata>
		<time>2022-06-30T13:24:19.443Z</time>
	</metadata>
	<wpt lat="58.877431" lon="30.468952">
		<name>Стоянка 1</name>
	</wpt>
	<wpt lat="58.898993" lon="30.610056">
		<name>СТоянка 2</name>
	</wpt>
	<wpt lat="58.887353" lon="30.501008">
		<name>Церковь Иоанна Предтечи</name>
	</wpt>
	<wpt lat="58.917388" lon="30.646834">
		<name>Церковь с. Климента папы римского</name>
	</wpt>
	<wpt lat="58.916149" lon="30.661868">
		<name>Часовня Ал. Невского</name>
	</wpt>
	<wpt lat="58.935197" lon="30.705070">
		<name>Усадьба Лютка</name>
	</wpt>
	<wpt lat="58.887622" lon="30.541386">
		<name>Обнажения у Ям-Тесово</name>
	</wpt>
	<wpt lat="58.868227" lon="30.459225">
		<name>Усадьба Надбелье</name>
	</wpt>
	<wpt lat="58.844595" lon="30.357413">
		<name>Борщевские пещеры</name>
	</wpt>
	<trk>
		<name>Оредежское кольцо чисто вел</name>
		<trkseg>
			<trkpt lat="58.848334" lon="30.320444"><time>1970-01-01T00:00:01.000Z</time></trkpt>
			<trkpt lat="58.848764" lon="30.321710"><time>1970-01-01T00:00:01.000Z</time></trkpt>
			<trkpt lat="58.849000" lon="30.322654"><time>1970-01-01T00:00:01.000Z</time></trkpt>
			<trkpt lat="58.849107" lon="30.323319"><time>1970-01-01T00:00:01.000Z</time></trkpt>
			<trkpt lat="58.849965" lon="30.323512"><time>1970-01-01T00:00:01.000Z</time></trkpt>
			<trkpt lat="58.850330" lon="30.323426"><time>1970-01-01T00:00:01.000Z</time></trkpt>
			<trkpt lat="58.850802" lon="30.324649"><time>1970-01-01T00:00:01.000Z</time></trkpt>
			<trkpt lat="58.851274" lon="30.325229"><time>1970-01-01T00:00:01.000Z</time></trkpt>
			<trkpt lat="58.852304" lon="30.325872"><time>1970-01-01T00:00:01.000Z</time></trkpt>
			<trkpt lat="58.853227" lon="30.326344"><time>1970-01-01T00:00:01.000Z</time></trkpt>
			<trkpt lat="58.855673" lon="30.327846"><time>1970-01-01T00:00:01.000Z</time></trkpt>
			<trkpt lat="58.856188" lon="30.328705"><time>1970-01-01T00:00:01.000Z</time></trkpt>
			<trkpt lat="58.856424" lon="30.330250"><time>1970-01-01T00:00:01.000Z</time></trkpt>
			<trkpt lat="58.856553" lon="30.332610"><time>1970-01-01T00:00:01.000Z</time></trkpt>
			<trkpt lat="58.857282" lon="30.337889"><time>1970-01-01T00:00:01.000Z</time></trkpt>
			<trkpt lat="58.857175" lon="30.339734"><time>1970-01-01T00:00:01.000Z</time></trkpt>
			<trkpt lat="58.856596" lon="30.341708"><time>1970-01-01T00:00:01.000Z</time></trkpt>
			<trkpt lat="58.855759" lon="30.344326"><time>1970-01-01T00:00:01.000Z</time></trkpt>
			<trkpt lat="58.854107" lon="30.348789"><time>1970-01-01T00:00:01.000Z</time></trkpt>
			<trkpt lat="58.853785" lon="30.352115"><time>1970-01-01T00:00:01.000Z</time></trkpt>
			<trkpt lat="58.853849" lon="30.353746"><time>1970-01-01T00:00:01.000Z</time></trkpt>
			<trkpt lat="58.854064" lon="30.355377"><time>1970-01-01T00:00:01.000Z</time></trkpt>
			<trkpt lat="58.854579" lon="30.356986"><time>1970-01-01T00:00:01.000Z</time></trkpt>
			<trkpt lat="58.854643" lon="30.357479"><time>1970-01-01T00:00:01.000Z</time></trkpt>
			<trkpt lat="58.854750" lon="30.359454"><time>1970-01-01T00:00:01.000Z</time></trkpt>
			<trkpt lat="58.854278" lon="30.362715"><time>1970-01-01T00:00:01.000Z</time></trkpt>
			<trkpt lat="58.854343" lon="30.363445"><time>1970-01-01T00:00:01.000Z</time></trkpt>
			<trkpt lat="58.854471" lon="30.364174"><time>1970-01-01T00:00:01.000Z</time></trkpt>
			<trkpt lat="58.854536" lon="30.365011"><time>1970-01-01T00:00:01.000Z</time></trkpt>
			<trkpt lat="58.854879" lon="30.366406"><time>1970-01-01T00:00:01.000Z</time></trkpt>
			<trkpt lat="58.855201" lon="30.368037"><time>1970-01-01T00:00:01.000Z</time></trkpt>
			<trkpt lat="58.855458" lon="30.369152"><time>1970-01-01T00:00:01.000Z</time></trkpt>
			<trkpt lat="58.855716" lon="30.369625"><time>1970-01-01T00:00:01.000Z</time></trkpt>
			<trkpt lat="58.856188" lon="30.370311"><time>1970-01-01T00:00:01.000Z</time></trkpt>
			<trkpt lat="58.856724" lon="30.370697"><time>1970-01-01T00:00:01.000Z</time></trkpt>
			<trkpt lat="58.856832" lon="30.370933"><time>1970-01-01T00:00:01.000Z</time></trkpt>
			<trkpt lat="58.856789" lon="30.371169"><time>1970-01-01T00:00:01.000Z</time></trkpt>
			<trkpt lat="58.856467" lon="30.371985"><time>1970-01-01T00:00:01.000Z</time></trkpt>
			<trkpt lat="58.856231" lon="30.373058"><time>1970-01-01T00:00:01.000Z</time></trkpt>
			<trkpt lat="58.856145" lon="30.373809"><time>1970-01-01T00:00:01.000Z</time></trkpt>
			<trkpt lat="58.856038" lon="30.374238"><time>1970-01-01T00:00:01.000Z</time></trkpt>
			<trkpt lat="58.856124" lon="30.374882"><time>1970-01-01T00:00:01.000Z</time></trkpt>
			<trkpt lat="58.856918" lon="30.377993"><time>1970-01-01T00:00:01.000Z</time></trkpt>
			<trkpt lat="58.857368" lon="30.380418"><time>1970-01-01T00:00:01.000Z</time></trkpt>
			<trkpt lat="58.857325" lon="30.381898"><time>1970-01-01T00:00:01.000Z</time></trkpt>
			<trkpt lat="58.857433" lon="30.384044"><time>1970-01-01T00:00:01.000Z</time></trkpt>
			<trkpt lat="58.858055" lon="30.386383"><time>1970-01-01T00:00:01.000Z</time></trkpt>
			<trkpt lat="58.858312" lon="30.387177"><time>1970-01-01T00:00:01.000Z</time></trkpt>
			<trkpt lat="58.858741" lon="30.388057"><time>1970-01-01T00:00:01.000Z</time></trkpt>
			<trkpt lat="58.858956" lon="30.389258"><time>1970-01-01T00:00:01.000Z</time></trkpt>
			<trkpt lat="58.858977" lon="30.389602"><time>1970-01-01T00:00:01.000Z</time></trkpt>
			<trkpt lat="58.858699" lon="30.390138"><time>1970-01-01T00:00:01.000Z</time></trkpt>
			<trkpt lat="58.858248" lon="30.391747"><time>1970-01-01T00:00:01.000Z</time></trkpt>
			<trkpt lat="58.857969" lon="30.392928"><time>1970-01-01T00:00:01.000Z</time></trkpt>
			<trkpt lat="58.858269" lon="30.394473"><time>1970-01-01T00:00:01.000Z</time></trkpt>
			<trkpt lat="58.858334" lon="30.396275"><time>1970-01-01T00:00:01.000Z</time></trkpt>
			<trkpt lat="58.858205" lon="30.396661"><time>1970-01-01T00:00:01.000Z</time></trkpt>
			<trkpt lat="58.858312" lon="30.396811"><time>1970-01-01T00:00:01.000Z</time></trkpt>
			<trkpt lat="58.858548" lon="30.396768"><time>1970-01-01T00:00:01.000Z</time></trkpt>
			<trkpt lat="58.859020" lon="30.396811"><time>1970-01-01T00:00:01.000Z</time></trkpt>
			<trkpt lat="58.859042" lon="30.397434"><time>1970-01-01T00:00:01.000Z</time></trkpt>
			<trkpt lat="58.859364" lon="30.400245"><time>1970-01-01T00:00:01.000Z</time></trkpt>
			<trkpt lat="58.859986" lon="30.400974"><time>1970-01-01T00:00:01.000Z</time></trkpt>
			<trkpt lat="58.861788" lon="30.402562"><time>1970-01-01T00:00:01.000Z</time></trkpt>
			<trkpt lat="58.862539" lon="30.403077"><time>1970-01-01T00:00:01.000Z</time></trkpt>
			<trkpt lat="58.862711" lon="30.403764"><time>1970-01-01T00:00:01.000Z</time></trkpt>
			<trkpt lat="58.862861" lon="30.404686"><time>1970-01-01T00:00:01.000Z</time></trkpt>
			<trkpt lat="58.863248" lon="30.409171"><time>1970-01-01T00:00:01.000Z</time></trkpt>
			<trkpt lat="58.863827" lon="30.411574"><time>1970-01-01T00:00:01.000Z</time></trkpt>
			<trkpt lat="58.863913" lon="30.412626"><time>1970-01-01T00:00:01.000Z</time></trkpt>
			<trkpt lat="58.864106" lon="30.413741"><time>1970-01-01T00:00:01.000Z</time></trkpt>
			<trkpt lat="58.864342" lon="30.414557"><time>1970-01-01T00:00:01.000Z</time></trkpt>
			<trkpt lat="58.864793" lon="30.415522"><time>1970-01-01T00:00:01.000Z</time></trkpt>
			<trkpt lat="58.866187" lon="30.417046"><time>1970-01-01T00:00:01.000Z</time></trkpt>
			<trkpt lat="58.866295" lon="30.417497"><time>1970-01-01T00:00:01.000Z</time></trkpt>
			<trkpt lat="58.866144" lon="30.417947"><time>1970-01-01T00:00:01.000Z</time></trkpt>
			<trkpt lat="58.866037" lon="30.419406"><time>1970-01-01T00:00:01.000Z</time></trkpt>
			<trkpt lat="58.866316" lon="30.420586"><time>1970-01-01T00:00:01.000Z</time></trkpt>
			<trkpt lat="58.867303" lon="30.421144"><time>1970-01-01T00:00:01.000Z</time></trkpt>
			<trkpt lat="58.867625" lon="30.423762"><time>1970-01-01T00:00:01.000Z</time></trkpt>
			<trkpt lat="58.867818" lon="30.426058"><time>1970-01-01T00:00:01.000Z</time></trkpt>
			<trkpt lat="58.867947" lon="30.426530"><time>1970-01-01T00:00:01.000Z</time></trkpt>
			<trkpt lat="58.868161" lon="30.426702"><time>1970-01-01T00:00:01.000Z</time></trkpt>
			<trkpt lat="58.870243" lon="30.432453"><time>1970-01-01T00:00:01.000Z</time></trkpt>
			<trkpt lat="58.879040" lon="30.455090"><time>1970-01-01T00:00:01.000Z</time></trkpt>
			<trkpt lat="58.878332" lon="30.456228"><time>1970-01-01T00:00:01.000Z</time></trkpt>
			<trkpt lat="58.878332" lon="30.457172"><time>1970-01-01T00:00:01.000Z</time></trkpt>
			<trkpt lat="58.878761" lon="30.458717"><time>1970-01-01T00:00:01.000Z</time></trkpt>
			<trkpt lat="58.878740" lon="30.459790"><time>1970-01-01T00:00:01.000Z</time></trkpt>
			<trkpt lat="58.878997" lon="30.461077"><time>1970-01-01T00:00:01.000Z</time></trkpt>
			<trkpt lat="58.879276" lon="30.466270"><time>1970-01-01T00:00:01.000Z</time></trkpt>
			<trkpt lat="58.879405" lon="30.467171"><time>1970-01-01T00:00:01.000Z</time></trkpt>
			<trkpt lat="58.879384" lon="30.468008"><time>1970-01-01T00:00:01.000Z</time></trkpt>
			<trkpt lat="58.878976" lon="30.468137"><time>1970-01-01T00:00:01.000Z</time></trkpt>
			<trkpt lat="58.877517" lon="30.469038"><time>1970-01-01T00:00:01.000Z</time></trkpt>
			<trkpt lat="58.878847" lon="30.468308"><time>1970-01-01T00:00:01.000Z</time></trkpt>
			<trkpt lat="58.879341" lon="30.468158"><time>1970-01-01T00:00:01.000Z</time></trkpt>
			<trkpt lat="58.879856" lon="30.467643"><time>1970-01-01T00:00:01.000Z</time></trkpt>
			<trkpt lat="58.880414" lon="30.467965"><time>1970-01-01T00:00:01.000Z</time></trkpt>
			<trkpt lat="58.881015" lon="30.467879"><time>1970-01-01T00:00:01.000Z</time></trkpt>
			<trkpt lat="58.881379" lon="30.468158"><time>1970-01-01T00:00:01.000Z</time></trkpt>
			<trkpt lat="58.881787" lon="30.469295"><time>1970-01-01T00:00:01.000Z</time></trkpt>
			<trkpt lat="58.882044" lon="30.471291"><time>1970-01-01T00:00:01.000Z</time></trkpt>
			<trkpt lat="58.882281" lon="30.471785"><time>1970-01-01T00:00:01.000Z</time></trkpt>
			<trkpt lat="58.882345" lon="30.474767"><time>1970-01-01T00:00:01.000Z</time></trkpt>
			<trkpt lat="58.882474" lon="30.476505"><time>1970-01-01T00:00:01.000Z</time></trkpt>
			<trkpt lat="58.882602" lon="30.479488"><time>1970-01-01T00:00:01.000Z</time></trkpt>
			<trkpt lat="58.883675" lon="30.482535"><time>1970-01-01T00:00:01.000Z</time></trkpt>
			<trkpt lat="58.884040" lon="30.483457"><time>1970-01-01T00:00:01.000Z</time></trkpt>
			<trkpt lat="58.884512" lon="30.484316"><time>1970-01-01T00:00:01.000Z</time></trkpt>
			<trkpt lat="58.884748" lon="30.484938"><time>1970-01-01T00:00:01.000Z</time></trkpt>
			<trkpt lat="58.885070" lon="30.485260"><time>1970-01-01T00:00:01.000Z</time></trkpt>
			<trkpt lat="58.885220" lon="30.485839"><time>1970-01-01T00:00:01.000Z</time></trkpt>
			<trkpt lat="58.885456" lon="30.486161"><time>1970-01-01T00:00:01.000Z</time></trkpt>
			<trkpt lat="58.885628" lon="30.486333"><time>1970-01-01T00:00:01.000Z</time></trkpt>
			<trkpt lat="58.885864" lon="30.486934"><time>1970-01-01T00:00:01.000Z</time></trkpt>
			<trkpt lat="58.886315" lon="30.487105"><time>1970-01-01T00:00:01.000Z</time></trkpt>
			<trkpt lat="58.887345" lon="30.488157"><time>1970-01-01T00:00:01.000Z</time></trkpt>
			<trkpt lat="58.888246" lon="30.488800"><time>1970-01-01T00:00:01.000Z</time></trkpt>
			<trkpt lat="58.888375" lon="30.489487"><time>1970-01-01T00:00:01.000Z</time></trkpt>
			<trkpt lat="58.888267" lon="30.489959"><time>1970-01-01T00:00:01.000Z</time></trkpt>
			<trkpt lat="58.888396" lon="30.492062"><time>1970-01-01T00:00:01.000Z</time></trkpt>
			<trkpt lat="58.888375" lon="30.492684"><time>1970-01-01T00:00:01.000Z</time></trkpt>
			<trkpt lat="58.888417" lon="30.493392"><time>1970-01-01T00:00:01.000Z</time></trkpt>
			<trkpt lat="58.887637" lon="30.493167"><time>1970-01-01T00:00:01.000Z</time></trkpt>
			<trkpt lat="58.886704" lon="30.493240"><time>1970-01-01T00:00:01.000Z</time></trkpt>
			<trkpt lat="58.886890" lon="30.496167"><time>1970-01-01T00:00:01.000Z</time></trkpt>
			<trkpt lat="58.887036" lon="30.498905"><time>1970-01-01T00:00:01.000Z</time></trkpt>
			<trkpt lat="58.887127" lon="30.501227"><time>1970-01-01T00:00:01.000Z</time></trkpt>
			<trkpt lat="58.887247" lon="30.499098"><time>1970-01-01T00:00:01.000Z</time></trkpt>
			<trkpt lat="58.889962" lon="30.499358"><time>1970-01-01T00:00:01.000Z</time></trkpt>
			<trkpt lat="58.890585" lon="30.499916"><time>1970-01-01T00:00:01.000Z</time></trkpt>
			<trkpt lat="58.891143" lon="30.500624"><time>1970-01-01T00:00:01.000Z</time></trkpt>
			<trkpt lat="58.891722" lon="30.501439"><time>1970-01-01T00:00:01.000Z</time></trkpt>
			<trkpt lat="58.892065" lon="30.502254"><time>1970-01-01T00:00:01.000Z</time></trkpt>
			<trkpt lat="58.892623" lon="30.504100"><time>1970-01-01T00:00:01.000Z</time></trkpt>
			<trkpt lat="58.892687" lon="30.504658"><time>1970-01-01T00:00:01.000Z</time></trkpt>
			<trkpt lat="58.892666" lon="30.506009"><time>1970-01-01T00:00:01.000Z</time></trkpt>
			<trkpt lat="58.892516" lon="30.508069"><time>1970-01-01T00:00:01.000Z</time></trkpt>
			<trkpt lat="58.892323" lon="30.509056"><time>1970-01-01T00:00:01.000Z</time></trkpt>
			<trkpt lat="58.891722" lon="30.510966"><time>1970-01-01T00:00:01.000Z</time></trkpt>
			<trkpt lat="58.891572" lon="30.511760"><time>1970-01-01T00:00:01.000Z</time></trkpt>
			<trkpt lat="58.891379" lon="30.514614"><time>1970-01-01T00:00:01.000Z</time></trkpt>
			<trkpt lat="58.891207" lon="30.518176"><time>1970-01-01T00:00:01.000Z</time></trkpt>
			<trkpt lat="58.891357" lon="30.520193"><time>1970-01-01T00:00:01.000Z</time></trkpt>
			<trkpt lat="58.891572" lon="30.522167"><time>1970-01-01T00:00:01.000Z</time></trkpt>
			<trkpt lat="58.892173" lon="30.524957"><time>1970-01-01T00:00:01.000Z</time></trkpt>
			<trkpt lat="58.893632" lon="30.529978"><time>1970-01-01T00:00:01.000Z</time></trkpt>
			<trkpt lat="58.894297" lon="30.531480"><time>1970-01-01T00:00:01.000Z</time></trkpt>
			<trkpt lat="58.894769" lon="30.531952"><time>1970-01-01T00:00:01.000Z</time></trkpt>
			<trkpt lat="58.895262" lon="30.532209"><time>1970-01-01T00:00:01.000Z</time></trkpt>
			<trkpt lat="58.896507" lon="30.532553"><time>1970-01-01T00:00:01.000Z</time></trkpt>
			<trkpt lat="58.896786" lon="30.533025"><time>1970-01-01T00:00:01.000Z</time></trkpt>
			<trkpt lat="58.897365" lon="30.534956"><time>1970-01-01T00:00:01.000Z</time></trkpt>
			<trkpt lat="58.897537" lon="30.535879"><time>1970-01-01T00:00:01.000Z</time></trkpt>
			<trkpt lat="58.897086" lon="30.544912"><time>1970-01-01T00:00:01.000Z</time></trkpt>
			<trkpt lat="58.897000" lon="30.546007"><time>1970-01-01T00:00:01.000Z</time></trkpt>
			<trkpt lat="58.897022" lon="30.548775"><time>1970-01-01T00:00:01.000Z</time></trkpt>
			<trkpt lat="58.897108" lon="30.551221"><time>1970-01-01T00:00:01.000Z</time></trkpt>
			<trkpt lat="58.897194" lon="30.551757"><time>1970-01-01T00:00:01.000Z</time></trkpt>
			<trkpt lat="58.898030" lon="30.551886"><time>1970-01-01T00:00:01.000Z</time></trkpt>
			<trkpt lat="58.899554" lon="30.552422"><time>1970-01-01T00:00:01.000Z</time></trkpt>
			<trkpt lat="58.900176" lon="30.552573"><time>1970-01-01T00:00:01.000Z</time></trkpt>
			<trkpt lat="58.900627" lon="30.555341"><time>1970-01-01T00:00:01.000Z</time></trkpt>
			<trkpt lat="58.901271" lon="30.557744"><time>1970-01-01T00:00:01.000Z</time></trkpt>
			<trkpt lat="58.901807" lon="30.560405"><time>1970-01-01T00:00:01.000Z</time></trkpt>
			<trkpt lat="58.901743" lon="30.562400"><time>1970-01-01T00:00:01.000Z</time></trkpt>
			<trkpt lat="58.902472" lon="30.563194"><time>1970-01-01T00:00:01.000Z</time></trkpt>
			<trkpt lat="58.903202" lon="30.563795"><time>1970-01-01T00:00:01.000Z</time></trkpt>
			<trkpt lat="58.903695" lon="30.563945"><time>1970-01-01T00:00:01.000Z</time></trkpt>
			<trkpt lat="58.904597" lon="30.564353"><time>1970-01-01T00:00:01.000Z</time></trkpt>
			<trkpt lat="58.906120" lon="30.565533"><time>1970-01-01T00:00:01.000Z</time></trkpt>
			<trkpt lat="58.908952" lon="30.568065"><time>1970-01-01T00:00:01.000Z</time></trkpt>
			<trkpt lat="58.911098" lon="30.569889"><time>1970-01-01T00:00:01.000Z</time></trkpt>
			<trkpt lat="58.912643" lon="30.572249"><time>1970-01-01T00:00:01.000Z</time></trkpt>
			<trkpt lat="58.913866" lon="30.573966"><time>1970-01-01T00:00:01.000Z</time></trkpt>
			<trkpt lat="58.914596" lon="30.575146"><time>1970-01-01T00:00:01.000Z</time></trkpt>
			<trkpt lat="58.914210" lon="30.576305"><time>1970-01-01T00:00:01.000Z</time></trkpt>
			<trkpt lat="58.914167" lon="30.578043"><time>1970-01-01T00:00:01.000Z</time></trkpt>
			<trkpt lat="58.914016" lon="30.578536"><time>1970-01-01T00:00:01.000Z</time></trkpt>
			<trkpt lat="58.912300" lon="30.582141"><time>1970-01-01T00:00:01.000Z</time></trkpt>
			<trkpt lat="58.910412" lon="30.586626"><time>1970-01-01T00:00:01.000Z</time></trkpt>
			<trkpt lat="58.909188" lon="30.588815"><time>1970-01-01T00:00:01.000Z</time></trkpt>
			<trkpt lat="58.908373" lon="30.590596"><time>1970-01-01T00:00:01.000Z</time></trkpt>
			<trkpt lat="58.907837" lon="30.592570"><time>1970-01-01T00:00:01.000Z</time></trkpt>
			<trkpt lat="58.907751" lon="30.594866"><time>1970-01-01T00:00:01.000Z</time></trkpt>
			<trkpt lat="58.908287" lon="30.597054"><time>1970-01-01T00:00:01.000Z</time></trkpt>
			<trkpt lat="58.912193" lon="30.603620"><time>1970-01-01T00:00:01.000Z</time></trkpt>
			<trkpt lat="58.912579" lon="30.605680"><time>1970-01-01T00:00:01.000Z</time></trkpt>
			<trkpt lat="58.913695" lon="30.612611"><time>1970-01-01T00:00:01.000Z</time></trkpt>
			<trkpt lat="58.914403" lon="30.617310"><time>1970-01-01T00:00:01.000Z</time></trkpt>
			<trkpt lat="58.915647" lon="30.624992"><time>1970-01-01T00:00:01.000Z</time></trkpt>
			<trkpt lat="58.916720" lon="30.629091"><time>1970-01-01T00:00:01.000Z</time></trkpt>
			<trkpt lat="58.917621" lon="30.632009"><time>1970-01-01T00:00:01.000Z</time></trkpt>
			<trkpt lat="58.918909" lon="30.635571"><time>1970-01-01T00:00:01.000Z</time></trkpt>
			<trkpt lat="58.919359" lon="30.636322"><time>1970-01-01T00:00:01.000Z</time></trkpt>
			<trkpt lat="58.918458" lon="30.639519"><time>1970-01-01T00:00:01.000Z</time></trkpt>
			<trkpt lat="58.917664" lon="30.642137"><time>1970-01-01T00:00:01.000Z</time></trkpt>
			<trkpt lat="58.917450" lon="30.643596"><time>1970-01-01T00:00:01.000Z</time></trkpt>
			<trkpt lat="58.917385" lon="30.644476"><time>1970-01-01T00:00:01.000Z</time></trkpt>
			<trkpt lat="58.917943" lon="30.648252"><time>1970-01-01T00:00:01.000Z</time></trkpt>
			<trkpt lat="58.917750" lon="30.648918"><time>1970-01-01T00:00:01.000Z</time></trkpt>
			<trkpt lat="58.917042" lon="30.648961"><time>1970-01-01T00:00:01.000Z</time></trkpt>
			<trkpt lat="58.916613" lon="30.648789"><time>1970-01-01T00:00:01.000Z</time></trkpt>
			<trkpt lat="58.913673" lon="30.648360"><time>1970-01-01T00:00:01.000Z</time></trkpt>
			<trkpt lat="58.912665" lon="30.648081"><time>1970-01-01T00:00:01.000Z</time></trkpt>
			<trkpt lat="58.913501" lon="30.655291"><time>1970-01-01T00:00:01.000Z</time></trkpt>
			<trkpt lat="58.915240" lon="30.658209"><time>1970-01-01T00:00:01.000Z</time></trkpt>
			<trkpt lat="58.916076" lon="30.663187"><time>1970-01-01T00:00:01.000Z</time></trkpt>
			<trkpt lat="58.915905" lon="30.666663"><time>1970-01-01T00:00:01.000Z</time></trkpt>
			<trkpt lat="58.916784" lon="30.672972"><time>1970-01-01T00:00:01.000Z</time></trkpt>
			<trkpt lat="58.919359" lon="30.678293"><time>1970-01-01T00:00:01.000Z</time></trkpt>
			<trkpt lat="58.922599" lon="30.687134"><time>1970-01-01T00:00:01.000Z</time></trkpt>
			<trkpt lat="58.923887" lon="30.690138"><time>1970-01-01T00:00:01.000Z</time></trkpt>
			<trkpt lat="58.927814" lon="30.701553"><time>1970-01-01T00:00:01.000Z</time></trkpt>
			<trkpt lat="58.928178" lon="30.706617"><time>1970-01-01T00:00:01.000Z</time></trkpt>
			<trkpt lat="58.929928" lon="30.711439"><time>1970-01-01T00:00:01.000Z</time></trkpt>
			<trkpt lat="58.930783" lon="30.708555"><time>1970-01-01T00:00:01.000Z</time></trkpt>
			<trkpt lat="58.931383" lon="30.709774"><time>1970-01-01T00:00:01.000Z</time></trkpt>
			<trkpt lat="58.933235" lon="30.707405"><time>1970-01-01T00:00:01.000Z</time></trkpt>
			<trkpt lat="58.934012" lon="30.707946"><time>1970-01-01T00:00:01.000Z</time></trkpt>
			<trkpt lat="58.935628" lon="30.708997"><time>1970-01-01T00:00:01.000Z</time></trkpt>
			<trkpt lat="58.936025" lon="30.708366"><time>1970-01-01T00:00:01.000Z</time></trkpt>
			<trkpt lat="58.935823" lon="30.706740"><time>1970-01-01T00:00:01.000Z</time></trkpt>
			<trkpt lat="58.935219" lon="30.705156"><time>1970-01-01T00:00:01.000Z</time></trkpt>
			<trkpt lat="58.935717" lon="30.706873"><time>1970-01-01T00:00:01.000Z</time></trkpt>
			<trkpt lat="58.936078" lon="30.708384"><time>1970-01-01T00:00:01.000Z</time></trkpt>
			<trkpt lat="58.935728" lon="30.709126"><time>1970-01-01T00:00:01.000Z</time></trkpt>
			<trkpt lat="58.934637" lon="30.708162"><time>1970-01-01T00:00:01.000Z</time></trkpt>
			<trkpt lat="58.933181" lon="30.707663"><time>1970-01-01T00:00:01.000Z</time></trkpt>
			<trkpt lat="58.931504" lon="30.709621"><time>1970-01-01T00:00:01.000Z</time></trkpt>
			<trkpt lat="58.930839" lon="30.708076"><time>1970-01-01T00:00:01.000Z</time></trkpt>
			<trkpt lat="58.929895" lon="30.711252"><time>1970-01-01T00:00:01.000Z</time></trkpt>
			<trkpt lat="58.928672" lon="30.706446"><time>1970-01-01T00:00:01.000Z</time></trkpt>
			<trkpt lat="58.928436" lon="30.701982"><time>1970-01-01T00:00:01.000Z</time></trkpt>
			<trkpt lat="58.924595" lon="30.689709"><time>1970-01-01T00:00:01.000Z</time></trkpt>
			<trkpt lat="58.922857" lon="30.686190"><time>1970-01-01T00:00:01.000Z</time></trkpt>
			<trkpt lat="58.919724" lon="30.677349"><time>1970-01-01T00:00:01.000Z</time></trkpt>
			<trkpt lat="58.917149" lon="30.672199"><time>1970-01-01T00:00:01.000Z</time></trkpt>
			<trkpt lat="58.916162" lon="30.667307"><time>1970-01-01T00:00:01.000Z</time></trkpt>
			<trkpt lat="58.916484" lon="30.663444"><time>1970-01-01T00:00:01.000Z</time></trkpt>
			<trkpt lat="58.915647" lon="30.657694"><time>1970-01-01T00:00:01.000Z</time></trkpt>
			<trkpt lat="58.913909" lon="30.654604"><time>1970-01-01T00:00:01.000Z</time></trkpt>
			<trkpt lat="58.912257" lon="30.647823"><time>1970-01-01T00:00:01.000Z</time></trkpt>
			<trkpt lat="58.911806" lon="30.646150"><time>1970-01-01T00:00:01.000Z</time></trkpt>
			<trkpt lat="58.911141" lon="30.641193"><time>1970-01-01T00:00:01.000Z</time></trkpt>
			<trkpt lat="58.910369" lon="30.637137"><time>1970-01-01T00:00:01.000Z</time></trkpt>
			<trkpt lat="58.907236" lon="30.629520"><time>1970-01-01T00:00:01.000Z</time></trkpt>
			<trkpt lat="58.906184" lon="30.627267"><time>1970-01-01T00:00:01.000Z</time></trkpt>
			<trkpt lat="58.904983" lon="30.625679"><time>1970-01-01T00:00:01.000Z</time></trkpt>
			<trkpt lat="58.904511" lon="30.624048"><time>1970-01-01T00:00:01.000Z</time></trkpt>
			<trkpt lat="58.904017" lon="30.621645"><time>1970-01-01T00:00:01.000Z</time></trkpt>
			<trkpt lat="58.903545" lon="30.619757"><time>1970-01-01T00:00:01.000Z</time></trkpt>
			<trkpt lat="58.901550" lon="30.614650"><time>1970-01-01T00:00:01.000Z</time></trkpt>
			<trkpt lat="58.900627" lon="30.612461"><time>1970-01-01T00:00:01.000Z</time></trkpt>
			<trkpt lat="58.900047" lon="30.610916"><time>1970-01-01T00:00:01.000Z</time></trkpt>
			<trkpt lat="58.899468" lon="30.609543"><time>1970-01-01T00:00:01.000Z</time></trkpt>
			<trkpt lat="58.897000" lon="30.611410"><time>1970-01-01T00:00:01.000Z</time></trkpt>
			<trkpt lat="58.895842" lon="30.607032"><time>1970-01-01T00:00:01.000Z</time></trkpt>
			<trkpt lat="58.893953" lon="30.597956"><time>1970-01-01T00:00:01.000Z</time></trkpt>
			<trkpt lat="58.891164" lon="30.585424"><time>1970-01-01T00:00:01.000Z</time></trkpt>
			<trkpt lat="58.890563" lon="30.582420"><time>1970-01-01T00:00:01.000Z</time></trkpt>
			<trkpt lat="58.889984" lon="30.578558"><time>1970-01-01T00:00:01.000Z</time></trkpt>
			<trkpt lat="58.889812" lon="30.576369"><time>1970-01-01T00:00:01.000Z</time></trkpt>
			<trkpt lat="58.889447" lon="30.572936"><time>1970-01-01T00:00:01.000Z</time></trkpt>
			<trkpt lat="58.888825" lon="30.568430"><time>1970-01-01T00:00:01.000Z</time></trkpt>
			<trkpt lat="58.887688" lon="30.562765"><time>1970-01-01T00:00:01.000Z</time></trkpt>
			<trkpt lat="58.887280" lon="30.558001"><time>1970-01-01T00:00:01.000Z</time></trkpt>
			<trkpt lat="58.886830" lon="30.555212"><time>1970-01-01T00:00:01.000Z</time></trkpt>
			<trkpt lat="58.886315" lon="30.549762"><time>1970-01-01T00:00:01.000Z</time></trkpt>
			<trkpt lat="58.885921" lon="30.547168"><time>1970-01-01T00:00:01.000Z</time></trkpt>
			<trkpt lat="58.885342" lon="30.542219"><time>1970-01-01T00:00:01.000Z</time></trkpt>
			<trkpt lat="58.887059" lon="30.541256"><time>1970-01-01T00:00:01.000Z</time></trkpt>
			<trkpt lat="58.887634" lon="30.541303"><time>1970-01-01T00:00:01.000Z</time></trkpt>
			<trkpt lat="58.887097" lon="30.541153"><time>1970-01-01T00:00:01.000Z</time></trkpt>
			<trkpt lat="58.885309" lon="30.542133"><time>1970-01-01T00:00:01.000Z</time></trkpt>
			<trkpt lat="58.884941" lon="30.539011"><time>1970-01-01T00:00:01.000Z</time></trkpt>
			<trkpt lat="58.884469" lon="30.534484"><time>1970-01-01T00:00:01.000Z</time></trkpt>
			<trkpt lat="58.882881" lon="30.521116"><time>1970-01-01T00:00:01.000Z</time></trkpt>
			<trkpt lat="58.882366" lon="30.516481"><time>1970-01-01T00:00:01.000Z</time></trkpt>
			<trkpt lat="58.882431" lon="30.514721"><time>1970-01-01T00:00:01.000Z</time></trkpt>
			<trkpt lat="58.881401" lon="30.507876"><time>1970-01-01T00:00:01.000Z</time></trkpt>
			<trkpt lat="58.880199" lon="30.504078"><time>1970-01-01T00:00:01.000Z</time></trkpt>
			<trkpt lat="58.879620" lon="30.501911"><time>1970-01-01T00:00:01.000Z</time></trkpt>
			<trkpt lat="58.877839" lon="30.499808"><time>1970-01-01T00:00:01.000Z</time></trkpt>
			<trkpt lat="58.876809" lon="30.498650"><time>1970-01-01T00:00:01.000Z</time></trkpt>
			<trkpt lat="58.875629" lon="30.497190"><time>1970-01-01T00:00:01.000Z</time></trkpt>
			<trkpt lat="58.875264" lon="30.496826"><time>1970-01-01T00:00:01.000Z</time></trkpt>
			<trkpt lat="58.874556" lon="30.497062"><time>1970-01-01T00:00:01.000Z</time></trkpt>
			<trkpt lat="58.872968" lon="30.489401"><time>1970-01-01T00:00:01.000Z</time></trkpt>
			<trkpt lat="58.870586" lon="30.484530"><time>1970-01-01T00:00:01.000Z</time></trkpt>
			<trkpt lat="58.868934" lon="30.480732"><time>1970-01-01T00:00:01.000Z</time></trkpt>
			<trkpt lat="58.868419" lon="30.479359"><time>1970-01-01T00:00:01.000Z</time></trkpt>
			<trkpt lat="58.864256" lon="30.469918"><time>1970-01-01T00:00:01.000Z</time></trkpt>
			<trkpt lat="58.862368" lon="30.465347"><time>1970-01-01T00:00:01.000Z</time></trkpt>
			<trkpt lat="58.867861" lon="30.459167"><time>1970-01-01T00:00:01.000Z</time></trkpt>
			<trkpt lat="58.864750" lon="30.448396"><time>1970-01-01T00:00:01.000Z</time></trkpt>
			<trkpt lat="58.863054" lon="30.441873"><time>1970-01-01T00:00:01.000Z</time></trkpt>
			<trkpt lat="58.861424" lon="30.437323"><time>1970-01-01T00:00:01.000Z</time></trkpt>
			<trkpt lat="58.859535" lon="30.433547"><time>1970-01-01T00:00:01.000Z</time></trkpt>
			<trkpt lat="58.859171" lon="30.431358"><time>1970-01-01T00:00:01.000Z</time></trkpt>
			<trkpt lat="58.858269" lon="30.428483"><time>1970-01-01T00:00:01.000Z</time></trkpt>
			<trkpt lat="58.857475" lon="30.426423"><time>1970-01-01T00:00:01.000Z</time></trkpt>
			<trkpt lat="58.856424" lon="30.423998"><time>1970-01-01T00:00:01.000Z</time></trkpt>
			<trkpt lat="58.855480" lon="30.421595"><time>1970-01-01T00:00:01.000Z</time></trkpt>
			<trkpt lat="58.852991" lon="30.416445"><time>1970-01-01T00:00:01.000Z</time></trkpt>
			<trkpt lat="58.851489" lon="30.411832"><time>1970-01-01T00:00:01.000Z</time></trkpt>
			<trkpt lat="58.850158" lon="30.408484"><time>1970-01-01T00:00:01.000Z</time></trkpt>
			<trkpt lat="58.849686" lon="30.403914"><time>1970-01-01T00:00:01.000Z</time></trkpt>
			<trkpt lat="58.848528" lon="30.393786"><time>1970-01-01T00:00:01.000Z</time></trkpt>
			<trkpt lat="58.843292" lon="30.377800"><time>1970-01-01T00:00:01.000Z</time></trkpt>
			<trkpt lat="58.840545" lon="30.366878"><time>1970-01-01T00:00:01.000Z</time></trkpt>
			<trkpt lat="58.839777" lon="30.360417"><time>1970-01-01T00:00:01.000Z</time></trkpt>
			<trkpt lat="58.840954" lon="30.360503"><time>1970-01-01T00:00:01.000Z</time></trkpt>
			<trkpt lat="58.842486" lon="30.357499"><time>1970-01-01T00:00:01.000Z</time></trkpt>
			<trkpt lat="58.843663" lon="30.356083"><time>1970-01-01T00:00:01.000Z</time></trkpt>
			<trkpt lat="58.844671" lon="30.356323"><time>1970-01-01T00:00:01.000Z</time></trkpt>
			<trkpt lat="58.843574" lon="30.355868"><time>1970-01-01T00:00:01.000Z</time></trkpt>
			<trkpt lat="58.842708" lon="30.357413"><time>1970-01-01T00:00:01.000Z</time></trkpt>
			<trkpt lat="58.840643" lon="30.360460"><time>1970-01-01T00:00:01.000Z</time></trkpt>
			<trkpt lat="58.839472" lon="30.359110"><time>1970-01-01T00:00:01.000Z</time></trkpt>
			<trkpt lat="58.836812" lon="30.348811"><time>1970-01-01T00:00:01.000Z</time></trkpt>
			<trkpt lat="58.835717" lon="30.346343"><time>1970-01-01T00:00:01.000Z</time></trkpt>
			<trkpt lat="58.834473" lon="30.345377"><time>1970-01-01T00:00:01.000Z</time></trkpt>
			<trkpt lat="58.831211" lon="30.341064"><time>1970-01-01T00:00:01.000Z</time></trkpt>
			<trkpt lat="58.827392" lon="30.334026"><time>1970-01-01T00:00:01.000Z</time></trkpt>
			<trkpt lat="58.826362" lon="30.335228"><time>1970-01-01T00:00:01.000Z</time></trkpt>
			<trkpt lat="58.819560" lon="30.332310"><time>1970-01-01T00:00:01.000Z</time></trkpt>
			<trkpt lat="58.818809" lon="30.331365"><time>1970-01-01T00:00:01.000Z</time></trkpt>
			<trkpt lat="58.817071" lon="30.331537"><time>1970-01-01T00:00:01.000Z</time></trkpt>
			<trkpt lat="58.814689" lon="30.331516"><time>1970-01-01T00:00:01.000Z</time></trkpt>
		</trkseg>
	</trk>
</gpx>