<?xml version="1.0" encoding="UTF-8" standalone="no" ?>
<gpx xmlns="http://www.topografix.com/GPX/1/1" creator="http://nakarte.me" xmlns:xsi="http://www.w3.org/2001/XMLSchema-instance" xsi:schemaLocation="http://www.topografix.com/GPX/1/1 http://www.topografix.com/GPX/1/1/gpx.xsd" version="1.1">
	<metadata>
		<time>2022-09-04T14:24:06.653Z</time>
	</metadata>
	<wpt lat="60.481336" lon="28.541519">
		<name>Автостоянка</name>
	</wpt>
	<wpt lat="60.480300" lon="28.544094">
		<name>Начало тропы</name>
	</wpt>
	<trk>
		<name>Тропа Киперорт</name>
		<trkseg>
			<trkpt lat="60.490913" lon="28.536447"><time>1970-01-01T00:00:01.000Z</time></trkpt>
			<trkpt lat="60.491061" lon="28.536661"><time>1970-01-01T00:00:01.000Z</time></trkpt>
			<trkpt lat="60.491294" lon="28.537090"><time>1970-01-01T00:00:01.000Z</time></trkpt>
			<trkpt lat="60.491716" lon="28.537949"><time>1970-01-01T00:00:01.000Z</time></trkpt>
			<trkpt lat="60.491759" lon="28.539107"><time>1970-01-01T00:00:01.000Z</time></trkpt>
			<trkpt lat="60.491695" lon="28.540395"><time>1970-01-01T00:00:01.000Z</time></trkpt>
			<trkpt lat="60.491446" lon="28.541837"><time>1970-01-01T00:00:01.000Z</time></trkpt>
			<trkpt lat="60.491547" lon="28.542798"><time>1970-01-01T00:00:01.000Z</time></trkpt>
			<trkpt lat="60.491251" lon="28.543356"><time>1970-01-01T00:00:01.000Z</time></trkpt>
			<trkpt lat="60.490659" lon="28.544257"><time>1970-01-01T00:00:01.000Z</time></trkpt>
			<trkpt lat="60.490279" lon="28.545115"><time>1970-01-01T00:00:01.000Z</time></trkpt>
			<trkpt lat="60.489328" lon="28.546575"><time>1970-01-01T00:00:01.000Z</time></trkpt>
			<trkpt lat="60.488706" lon="28.547373"><time>1970-01-01T00:00:01.000Z</time></trkpt>
			<trkpt lat="60.487861" lon="28.548446"><time>1970-01-01T00:00:01.000Z</time></trkpt>
			<trkpt lat="60.487163" lon="28.548918"><time>1970-01-01T00:00:01.000Z</time></trkpt>
			<trkpt lat="60.486334" lon="28.549441"><time>1970-01-01T00:00:01.000Z</time></trkpt>
			<trkpt lat="60.485002" lon="28.550729"><time>1970-01-01T00:00:01.000Z</time></trkpt>
			<trkpt lat="60.484157" lon="28.552102"><time>1970-01-01T00:00:01.000Z</time></trkpt>
			<trkpt lat="60.483797" lon="28.553390"><time>1970-01-01T00:00:01.000Z</time></trkpt>
			<trkpt lat="60.483120" lon="28.554677"><time>1970-01-01T00:00:01.000Z</time></trkpt>
			<trkpt lat="60.482571" lon="28.556823"><time>1970-01-01T00:00:01.000Z</time></trkpt>
			<trkpt lat="60.482042" lon="28.559140"><time>1970-01-01T00:00:01.000Z</time></trkpt>
			<trkpt lat="60.481640" lon="28.558668"><time>1970-01-01T00:00:01.000Z</time></trkpt>
			<trkpt lat="60.480795" lon="28.556823"><time>1970-01-01T00:00:01.000Z</time></trkpt>
			<trkpt lat="60.480710" lon="28.555836"><time>1970-01-01T00:00:01.000Z</time></trkpt>
			<trkpt lat="60.480520" lon="28.554505"><time>1970-01-01T00:00:01.000Z</time></trkpt>
			<trkpt lat="60.480114" lon="28.553338"><time>1970-01-01T00:00:01.000Z</time></trkpt>
			<trkpt lat="60.479949" lon="28.550385"><time>1970-01-01T00:00:01.000Z</time></trkpt>
			<trkpt lat="60.479716" lon="28.548454"><time>1970-01-01T00:00:01.000Z</time></trkpt>
			<trkpt lat="60.479526" lon="28.546952"><time>1970-01-01T00:00:01.000Z</time></trkpt>
			<trkpt lat="60.479699" lon="28.545227"><time>1970-01-01T00:00:01.000Z</time></trkpt>
			<trkpt lat="60.479995" lon="28.544068"><time>1970-01-01T00:00:01.000Z</time></trkpt>
			<trkpt lat="60.481158" lon="28.541751"><time>1970-01-01T00:00:01.000Z</time></trkpt>
			<trkpt lat="60.480587" lon="28.542738"><time>1970-01-01T00:00:01.000Z</time></trkpt>
			<trkpt lat="60.480317" lon="28.543553"><time>1970-01-01T00:00:01.000Z</time></trkpt>
			<trkpt lat="60.480609" lon="28.543768"><time>1970-01-01T00:00:01.000Z</time></trkpt>
			<trkpt lat="60.481750" lon="28.543339"><time>1970-01-01T00:00:01.000Z</time></trkpt>
			<trkpt lat="60.482520" lon="28.542931"><time>1970-01-01T00:00:01.000Z</time></trkpt>
			<trkpt lat="60.482425" lon="28.541772"><time>1970-01-01T00:00:01.000Z</time></trkpt>
			<trkpt lat="60.482309" lon="28.540828"><time>1970-01-01T00:00:01.000Z</time></trkpt>
			<trkpt lat="60.482213" lon="28.539841"><time>1970-01-01T00:00:01.000Z</time></trkpt>
			<trkpt lat="60.482034" lon="28.539090"><time>1970-01-01T00:00:01.000Z</time></trkpt>
			<trkpt lat="60.481791" lon="28.538554"><time>1970-01-01T00:00:01.000Z</time></trkpt>
			<trkpt lat="60.481399" lon="28.537824"><time>1970-01-01T00:00:01.000Z</time></trkpt>
			<trkpt lat="60.481029" lon="28.537760"><time>1970-01-01T00:00:01.000Z</time></trkpt>
			<trkpt lat="60.480776" lon="28.537760"><time>1970-01-01T00:00:01.000Z</time></trkpt>
			<trkpt lat="60.480564" lon="28.537009"><time>1970-01-01T00:00:01.000Z</time></trkpt>
			<trkpt lat="60.480332" lon="28.536322"><time>1970-01-01T00:00:01.000Z</time></trkpt>
			<trkpt lat="60.479892" lon="28.535056"><time>1970-01-01T00:00:01.000Z</time></trkpt>
			<trkpt lat="60.479684" lon="28.534339"><time>1970-01-01T00:00:01.000Z</time></trkpt>
			<trkpt lat="60.479515" lon="28.532580"><time>1970-01-01T00:00:01.000Z</time></trkpt>
			<trkpt lat="60.479549" lon="28.530803"><time>1970-01-01T00:00:01.000Z</time></trkpt>
			<trkpt lat="60.479591" lon="28.530074"><time>1970-01-01T00:00:01.000Z</time></trkpt>
			<trkpt lat="60.479665" lon="28.529344"><time>1970-01-01T00:00:01.000Z</time></trkpt>
			<trkpt lat="60.479676" lon="28.528314"><time>1970-01-01T00:00:01.000Z</time></trkpt>
			<trkpt lat="60.479697" lon="28.527713"><time>1970-01-01T00:00:01.000Z</time></trkpt>
			<trkpt lat="60.479761" lon="28.526769"><time>1970-01-01T00:00:01.000Z</time></trkpt>
			<trkpt lat="60.479856" lon="28.526211"><time>1970-01-01T00:00:01.000Z</time></trkpt>
			<trkpt lat="60.480268" lon="28.525632"><time>1970-01-01T00:00:01.000Z</time></trkpt>
			<trkpt lat="60.480638" lon="28.524924"><time>1970-01-01T00:00:01.000Z</time></trkpt>
			<trkpt lat="60.480998" lon="28.524452"><time>1970-01-01T00:00:01.000Z</time></trkpt>
			<trkpt lat="60.481537" lon="28.524430"><time>1970-01-01T00:00:01.000Z</time></trkpt>
			<trkpt lat="60.482013" lon="28.524344"><time>1970-01-01T00:00:01.000Z</time></trkpt>
			<trkpt lat="60.482368" lon="28.525271"><time>1970-01-01T00:00:01.000Z</time></trkpt>
			<trkpt lat="60.482812" lon="28.525572"><time>1970-01-01T00:00:01.000Z</time></trkpt>
			<trkpt lat="60.483488" lon="28.524928"><time>1970-01-01T00:00:01.000Z</time></trkpt>
			<trkpt lat="60.484017" lon="28.524070"><time>1970-01-01T00:00:01.000Z</time></trkpt>
			<trkpt lat="60.484482" lon="28.522868"><time>1970-01-01T00:00:01.000Z</time></trkpt>
			<trkpt lat="60.484926" lon="28.522353"><time>1970-01-01T00:00:01.000Z</time></trkpt>
			<trkpt lat="60.485772" lon="28.521323"><time>1970-01-01T00:00:01.000Z</time></trkpt>
			<trkpt lat="60.487061" lon="28.520207"><time>1970-01-01T00:00:01.000Z</time></trkpt>
			<trkpt lat="60.487674" lon="28.519950"><time>1970-01-01T00:00:01.000Z</time></trkpt>
			<trkpt lat="60.488245" lon="28.521152"><time>1970-01-01T00:00:01.000Z</time></trkpt>
			<trkpt lat="60.488964" lon="28.521795"><time>1970-01-01T00:00:01.000Z</time></trkpt>
			<trkpt lat="60.489450" lon="28.522654"><time>1970-01-01T00:00:01.000Z</time></trkpt>
			<trkpt lat="60.490254" lon="28.522696"><time>1970-01-01T00:00:01.000Z</time></trkpt>
			<trkpt lat="60.490867" lon="28.522525"><time>1970-01-01T00:00:01.000Z</time></trkpt>
			<trkpt lat="60.491670" lon="28.522525"><time>1970-01-01T00:00:01.000Z</time></trkpt>
			<trkpt lat="60.492456" lon="28.522010"><time>1970-01-01T00:00:01.000Z</time></trkpt>
			<trkpt lat="60.492942" lon="28.522010"><time>1970-01-01T00:00:01.000Z</time></trkpt>
			<trkpt lat="60.493534" lon="28.522139"><time>1970-01-01T00:00:01.000Z</time></trkpt>
			<trkpt lat="60.493893" lon="28.522525"><time>1970-01-01T00:00:01.000Z</time></trkpt>
		</trkseg>
		<trkseg>
			<trkpt lat="60.482013" lon="28.524344"><time>1970-01-01T00:00:01.000Z</time></trkpt>
			<trkpt lat="60.481791" lon="28.523057"><time>1970-01-01T00:00:01.000Z</time></trkpt>
			<trkpt lat="60.481607" lon="28.521967"><time>1970-01-01T00:00:01.000Z</time></trkpt>
			<trkpt lat="60.481427" lon="28.520980"><time>1970-01-01T00:00:01.000Z</time></trkpt>
			<trkpt lat="60.480782" lon="28.519843"><time>1970-01-01T00:00:01.000Z</time></trkpt>
			<trkpt lat="60.480370" lon="28.518941"><time>1970-01-01T00:00:01.000Z</time></trkpt>
			<trkpt lat="60.480126" lon="28.518405"><time>1970-01-01T00:00:01.000Z</time></trkpt>
			<trkpt lat="60.479270" lon="28.517053"><time>1970-01-01T00:00:01.000Z</time></trkpt>
			<trkpt lat="60.478636" lon="28.516173"><time>1970-01-01T00:00:01.000Z</time></trkpt>
			<trkpt lat="60.478583" lon="28.515637"><time>1970-01-01T00:00:01.000Z</time></trkpt>
			<trkpt lat="60.478488" lon="28.514886"><time>1970-01-01T00:00:01.000Z</time></trkpt>
			<trkpt lat="60.478266" lon="28.514371"><time>1970-01-01T00:00:01.000Z</time></trkpt>
			<trkpt lat="60.478044" lon="28.513298"><time>1970-01-01T00:00:01.000Z</time></trkpt>
			<trkpt lat="60.477853" lon="28.512247"><time>1970-01-01T00:00:01.000Z</time></trkpt>
			<trkpt lat="60.477547" lon="28.511689"><time>1970-01-01T00:00:01.000Z</time></trkpt>
			<trkpt lat="60.477272" lon="28.511066"><time>1970-01-01T00:00:01.000Z</time></trkpt>
			<trkpt lat="60.476838" lon="28.510873"><time>1970-01-01T00:00:01.000Z</time></trkpt>
			<trkpt lat="60.476510" lon="28.510401"><time>1970-01-01T00:00:01.000Z</time></trkpt>
			<trkpt lat="60.476246" lon="28.509822"><time>1970-01-01T00:00:01.000Z</time></trkpt>
			<trkpt lat="60.476214" lon="28.509221"><time>1970-01-01T00:00:01.000Z</time></trkpt>
			<trkpt lat="60.476669" lon="28.507290"><time>1970-01-01T00:00:01.000Z</time></trkpt>
			<trkpt lat="60.477430" lon="28.506732"><time>1970-01-01T00:00:01.000Z</time></trkpt>
			<trkpt lat="60.477726" lon="28.506238"><time>1970-01-01T00:00:01.000Z</time></trkpt>
			<trkpt lat="60.477938" lon="28.506432"><time>1970-01-01T00:00:01.000Z</time></trkpt>
			<trkpt lat="60.478287" lon="28.506196"><time>1970-01-01T00:00:01.000Z</time></trkpt>
			<trkpt lat="60.479407" lon="28.505058"><time>1970-01-01T00:00:01.000Z</time></trkpt>
			<trkpt lat="60.480101" lon="28.504333"><time>1970-01-01T00:00:01.000Z</time></trkpt>
			<trkpt lat="60.480630" lon="28.503174"><time>1970-01-01T00:00:01.000Z</time></trkpt>
			<trkpt lat="60.481211" lon="28.502359"><time>1970-01-01T00:00:01.000Z</time></trkpt>
			<trkpt lat="60.481761" lon="28.501179"><time>1970-01-01T00:00:01.000Z</time></trkpt>
			<trkpt lat="60.482469" lon="28.499934"><time>1970-01-01T00:00:01.000Z</time></trkpt>
			<trkpt lat="60.483118" lon="28.499823"><time>1970-01-01T00:00:01.000Z</time></trkpt>
			<trkpt lat="60.483584" lon="28.499608"><time>1970-01-01T00:00:01.000Z</time></trkpt>
			<trkpt lat="60.483837" lon="28.499608"><time>1970-01-01T00:00:01.000Z</time></trkpt>
			<trkpt lat="60.484641" lon="28.499887"><time>1970-01-01T00:00:01.000Z</time></trkpt>
			<trkpt lat="60.485338" lon="28.500338"><time>1970-01-01T00:00:01.000Z</time></trkpt>
			<trkpt lat="60.485994" lon="28.500853"><time>1970-01-01T00:00:01.000Z</time></trkpt>
			<trkpt lat="60.486966" lon="28.501303"><time>1970-01-01T00:00:01.000Z</time></trkpt>
			<trkpt lat="60.487093" lon="28.501260"><time>1970-01-01T00:00:01.000Z</time></trkpt>
			<trkpt lat="60.488573" lon="28.500102"><time>1970-01-01T00:00:01.000Z</time></trkpt>
			<trkpt lat="60.489059" lon="28.499522"><time>1970-01-01T00:00:01.000Z</time></trkpt>
			<trkpt lat="60.489799" lon="28.498707"><time>1970-01-01T00:00:01.000Z</time></trkpt>
			<trkpt lat="60.489915" lon="28.498256"><time>1970-01-01T00:00:01.000Z</time></trkpt>
			<trkpt lat="60.490264" lon="28.497999"><time>1970-01-01T00:00:01.000Z</time></trkpt>
			<trkpt lat="60.490475" lon="28.497484"><time>1970-01-01T00:00:01.000Z</time></trkpt>
			<trkpt lat="60.491575" lon="28.497140"><time>1970-01-01T00:00:01.000Z</time></trkpt>
			<trkpt lat="60.492388" lon="28.496840"><time>1970-01-01T00:00:01.000Z</time></trkpt>
			<trkpt lat="60.493403" lon="28.496711"><time>1970-01-01T00:00:01.000Z</time></trkpt>
			<trkpt lat="60.494692" lon="28.495531"><time>1970-01-01T00:00:01.000Z</time></trkpt>
			<trkpt lat="60.495073" lon="28.495595"><time>1970-01-01T00:00:01.000Z</time></trkpt>
			<trkpt lat="60.495200" lon="28.495853"><time>1970-01-01T00:00:01.000Z</time></trkpt>
			<trkpt lat="60.495633" lon="28.495939"><time>1970-01-01T00:00:01.000Z</time></trkpt>
			<trkpt lat="60.495749" lon="28.495746"><time>1970-01-01T00:00:01.000Z</time></trkpt>
			<trkpt lat="60.495855" lon="28.495317"><time>1970-01-01T00:00:01.000Z</time></trkpt>
			<trkpt lat="60.496299" lon="28.494716"><time>1970-01-01T00:00:01.000Z</time></trkpt>
			<trkpt lat="60.496256" lon="28.494222"><time>1970-01-01T00:00:01.000Z</time></trkpt>
			<trkpt lat="60.497461" lon="28.491986"><time>1970-01-01T00:00:01.000Z</time></trkpt>
			<trkpt lat="60.497715" lon="28.491922"><time>1970-01-01T00:00:01.000Z</time></trkpt>
			<trkpt lat="60.498000" lon="28.491343"><time>1970-01-01T00:00:01.000Z</time></trkpt>
			<trkpt lat="60.498602" lon="28.491107"><time>1970-01-01T00:00:01.000Z</time></trkpt>
			<trkpt lat="60.499627" lon="28.489952"><time>1970-01-01T00:00:01.000Z</time></trkpt>
			<trkpt lat="60.501159" lon="28.488879"><time>1970-01-01T00:00:01.000Z</time></trkpt>
			<trkpt lat="60.501688" lon="28.488300"><time>1970-01-01T00:00:01.000Z</time></trkpt>
			<trkpt lat="60.502628" lon="28.487656"><time>1970-01-01T00:00:01.000Z</time></trkpt>
			<trkpt lat="60.502998" lon="28.486905"><time>1970-01-01T00:00:01.000Z</time></trkpt>
			<trkpt lat="60.503177" lon="28.487098"><time>1970-01-01T00:00:01.000Z</time></trkpt>
			<trkpt lat="60.503346" lon="28.486841"><time>1970-01-01T00:00:01.000Z</time></trkpt>
			<trkpt lat="60.503461" lon="28.486394"><time>1970-01-01T00:00:01.000Z</time></trkpt>
			<trkpt lat="60.504020" lon="28.486030"><time>1970-01-01T00:00:01.000Z</time></trkpt>
			<trkpt lat="60.504253" lon="28.485515"><time>1970-01-01T00:00:01.000Z</time></trkpt>
			<trkpt lat="60.504760" lon="28.484785"><time>1970-01-01T00:00:01.000Z</time></trkpt>
			<trkpt lat="60.504918" lon="28.484742"><time>1970-01-01T00:00:01.000Z</time></trkpt>
			<trkpt lat="60.505195" lon="28.484287"><time>1970-01-01T00:00:01.000Z</time></trkpt>
			<trkpt lat="60.505829" lon="28.483644"><time>1970-01-01T00:00:01.000Z</time></trkpt>
			<trkpt lat="60.506653" lon="28.482592"><time>1970-01-01T00:00:01.000Z</time></trkpt>
			<trkpt lat="60.507308" lon="28.481863"><time>1970-01-01T00:00:01.000Z</time></trkpt>
			<trkpt lat="60.507572" lon="28.481755"><time>1970-01-01T00:00:01.000Z</time></trkpt>
			<trkpt lat="60.507841" lon="28.481163"><time>1970-01-01T00:00:01.000Z</time></trkpt>
			<trkpt lat="60.508094" lon="28.480691"><time>1970-01-01T00:00:01.000Z</time></trkpt>
			<trkpt lat="60.508157" lon="28.480004"><time>1970-01-01T00:00:01.000Z</time></trkpt>
			<trkpt lat="60.508432" lon="28.479446"><time>1970-01-01T00:00:01.000Z</time></trkpt>
			<trkpt lat="60.508643" lon="28.479017"><time>1970-01-01T00:00:01.000Z</time></trkpt>
			<trkpt lat="60.509425" lon="28.477601"><time>1970-01-01T00:00:01.000Z</time></trkpt>
			<trkpt lat="60.509510" lon="28.477086"><time>1970-01-01T00:00:01.000Z</time></trkpt>
			<trkpt lat="60.509911" lon="28.476399"><time>1970-01-01T00:00:01.000Z</time></trkpt>
			<trkpt lat="60.510228" lon="28.475369"><time>1970-01-01T00:00:01.000Z</time></trkpt>
			<trkpt lat="60.510300" lon="28.474374"><time>1970-01-01T00:00:01.000Z</time></trkpt>
			<trkpt lat="60.510439" lon="28.473739"><time>1970-01-01T00:00:01.000Z</time></trkpt>
			<trkpt lat="60.510693" lon="28.473395"><time>1970-01-01T00:00:01.000Z</time></trkpt>
			<trkpt lat="60.511073" lon="28.473481"><time>1970-01-01T00:00:01.000Z</time></trkpt>
			<trkpt lat="60.511601" lon="28.473481"><time>1970-01-01T00:00:01.000Z</time></trkpt>
			<trkpt lat="60.511833" lon="28.473910"><time>1970-01-01T00:00:01.000Z</time></trkpt>
			<trkpt lat="60.511981" lon="28.474683"><time>1970-01-01T00:00:01.000Z</time></trkpt>
			<trkpt lat="60.512129" lon="28.475112"><time>1970-01-01T00:00:01.000Z</time></trkpt>
			<trkpt lat="60.512298" lon="28.475455"><time>1970-01-01T00:00:01.000Z</time></trkpt>
			<trkpt lat="60.512530" lon="28.475884"><time>1970-01-01T00:00:01.000Z</time></trkpt>
			<trkpt lat="60.512911" lon="28.476013"><time>1970-01-01T00:00:01.000Z</time></trkpt>
			<trkpt lat="60.513037" lon="28.477086"><time>1970-01-01T00:00:01.000Z</time></trkpt>
			<trkpt lat="60.513059" lon="28.477987"><time>1970-01-01T00:00:01.000Z</time></trkpt>
			<trkpt lat="60.513016" lon="28.478974"><time>1970-01-01T00:00:01.000Z</time></trkpt>
			<trkpt lat="60.513037" lon="28.479532"><time>1970-01-01T00:00:01.000Z</time></trkpt>
			<trkpt lat="60.512911" lon="28.479790"><time>1970-01-01T00:00:01.000Z</time></trkpt>
			<trkpt lat="60.512763" lon="28.480433"><time>1970-01-01T00:00:01.000Z</time></trkpt>
			<trkpt lat="60.512598" lon="28.481549"><time>1970-01-01T00:00:01.000Z</time></trkpt>
			<trkpt lat="60.512509" lon="28.482064"><time>1970-01-01T00:00:01.000Z</time></trkpt>
			<trkpt lat="60.512425" lon="28.482708"><time>1970-01-01T00:00:01.000Z</time></trkpt>
			<trkpt lat="60.512404" lon="28.483438"><time>1970-01-01T00:00:01.000Z</time></trkpt>
			<trkpt lat="60.512425" lon="28.484296"><time>1970-01-01T00:00:01.000Z</time></trkpt>
			<trkpt lat="60.512488" lon="28.485326"><time>1970-01-01T00:00:01.000Z</time></trkpt>
			<trkpt lat="60.512612" lon="28.486186"><time>1970-01-01T00:00:01.000Z</time></trkpt>
			<trkpt lat="60.512760" lon="28.486761"><time>1970-01-01T00:00:01.000Z</time></trkpt>
			<trkpt lat="60.512826" lon="28.487386"><time>1970-01-01T00:00:01.000Z</time></trkpt>
			<trkpt lat="60.512849" lon="28.487658"><time>1970-01-01T00:00:01.000Z</time></trkpt>
			<trkpt lat="60.512786" lon="28.488152"><time>1970-01-01T00:00:01.000Z</time></trkpt>
			<trkpt lat="60.512765" lon="28.488720"><time>1970-01-01T00:00:01.000Z</time></trkpt>
			<trkpt lat="60.512790" lon="28.489105"><time>1970-01-01T00:00:01.000Z</time></trkpt>
			<trkpt lat="60.512891" lon="28.489544"><time>1970-01-01T00:00:01.000Z</time></trkpt>
			<trkpt lat="60.513002" lon="28.489705"><time>1970-01-01T00:00:01.000Z</time></trkpt>
			<trkpt lat="60.513202" lon="28.489974"><time>1970-01-01T00:00:01.000Z</time></trkpt>
			<trkpt lat="60.513419" lon="28.490210"><time>1970-01-01T00:00:01.000Z</time></trkpt>
			<trkpt lat="60.513614" lon="28.490531"><time>1970-01-01T00:00:01.000Z</time></trkpt>
			<trkpt lat="60.513725" lon="28.490843"><time>1970-01-01T00:00:01.000Z</time></trkpt>
			<trkpt lat="60.513725" lon="28.491154"><time>1970-01-01T00:00:01.000Z</time></trkpt>
			<trkpt lat="60.513741" lon="28.491443"><time>1970-01-01T00:00:01.000Z</time></trkpt>
			<trkpt lat="60.513836" lon="28.491969"><time>1970-01-01T00:00:01.000Z</time></trkpt>
			<trkpt lat="60.513984" lon="28.492216"><time>1970-01-01T00:00:01.000Z</time></trkpt>
			<trkpt lat="60.514042" lon="28.492452"><time>1970-01-01T00:00:01.000Z</time></trkpt>
			<trkpt lat="60.514016" lon="28.492752"><time>1970-01-01T00:00:01.000Z</time></trkpt>
			<trkpt lat="60.514063" lon="28.493214"><time>1970-01-01T00:00:01.000Z</time></trkpt>
			<trkpt lat="60.514105" lon="28.493750"><time>1970-01-01T00:00:01.000Z</time></trkpt>
			<trkpt lat="60.514163" lon="28.493932"><time>1970-01-01T00:00:01.000Z</time></trkpt>
			<trkpt lat="60.514348" lon="28.494480"><time>1970-01-01T00:00:01.000Z</time></trkpt>
			<trkpt lat="60.514225" lon="28.494733"><time>1970-01-01T00:00:01.000Z</time></trkpt>
			<trkpt lat="60.514114" lon="28.494894"><time>1970-01-01T00:00:01.000Z</time></trkpt>
			<trkpt lat="60.514029" lon="28.494990"><time>1970-01-01T00:00:01.000Z</time></trkpt>
			<trkpt lat="60.513945" lon="28.495141"><time>1970-01-01T00:00:01.000Z</time></trkpt>
			<trkpt lat="60.513881" lon="28.495259"><time>1970-01-01T00:00:01.000Z</time></trkpt>
			<trkpt lat="60.513755" lon="28.495398"><time>1970-01-01T00:00:01.000Z</time></trkpt>
			<trkpt lat="60.513607" lon="28.495602"><time>1970-01-01T00:00:01.000Z</time></trkpt>
			<trkpt lat="60.513484" lon="28.495613"><time>1970-01-01T00:00:01.000Z</time></trkpt>
			<trkpt lat="60.513401" lon="28.495709"><time>1970-01-01T00:00:01.000Z</time></trkpt>
			<trkpt lat="60.513205" lon="28.495859"><time>1970-01-01T00:00:01.000Z</time></trkpt>
			<trkpt lat="60.512962" lon="28.496053"><time>1970-01-01T00:00:01.000Z</time></trkpt>
			<trkpt lat="60.512788" lon="28.496246"><time>1970-01-01T00:00:01.000Z</time></trkpt>
			<trkpt lat="60.512430" lon="28.496831"><time>1970-01-01T00:00:01.000Z</time></trkpt>
			<trkpt lat="60.512314" lon="28.497110"><time>1970-01-01T00:00:01.000Z</time></trkpt>
			<trkpt lat="60.512108" lon="28.497625"><time>1970-01-01T00:00:01.000Z</time></trkpt>
			<trkpt lat="60.511820" lon="28.498522"><time>1970-01-01T00:00:01.000Z</time></trkpt>
			<trkpt lat="60.511706" lon="28.498831"><time>1970-01-01T00:00:01.000Z</time></trkpt>
			<trkpt lat="60.511431" lon="28.499303"><time>1970-01-01T00:00:01.000Z</time></trkpt>
			<trkpt lat="60.511051" lon="28.500097"><time>1970-01-01T00:00:01.000Z</time></trkpt>
			<trkpt lat="60.510903" lon="28.500344"><time>1970-01-01T00:00:01.000Z</time></trkpt>
			<trkpt lat="60.510554" lon="28.500833"><time>1970-01-01T00:00:01.000Z</time></trkpt>
			<trkpt lat="60.510269" lon="28.501209"><time>1970-01-01T00:00:01.000Z</time></trkpt>
			<trkpt lat="60.510058" lon="28.501445"><time>1970-01-01T00:00:01.000Z</time></trkpt>
			<trkpt lat="60.509825" lon="28.501724"><time>1970-01-01T00:00:01.000Z</time></trkpt>
			<trkpt lat="60.509350" lon="28.502496"><time>1970-01-01T00:00:01.000Z</time></trkpt>
			<trkpt lat="60.507942" lon="28.503410"><time>1970-01-01T00:00:01.000Z</time></trkpt>
			<trkpt lat="60.507401" lon="28.504071"><time>1970-01-01T00:00:01.000Z</time></trkpt>
			<trkpt lat="60.506209" lon="28.504998"><time>1970-01-01T00:00:01.000Z</time></trkpt>
			<trkpt lat="60.505639" lon="28.505599"><time>1970-01-01T00:00:01.000Z</time></trkpt>
			<trkpt lat="60.505111" lon="28.506114"><time>1970-01-01T00:00:01.000Z</time></trkpt>
			<trkpt lat="60.504456" lon="28.506414"><time>1970-01-01T00:00:01.000Z</time></trkpt>
			<trkpt lat="60.503906" lon="28.506801"><time>1970-01-01T00:00:01.000Z</time></trkpt>
			<trkpt lat="60.503611" lon="28.507144"><time>1970-01-01T00:00:01.000Z</time></trkpt>
			<trkpt lat="60.503103" lon="28.508088"><time>1970-01-01T00:00:01.000Z</time></trkpt>
			<trkpt lat="60.502989" lon="28.508843"><time>1970-01-01T00:00:01.000Z</time></trkpt>
			<trkpt lat="60.502956" lon="28.509848"><time>1970-01-01T00:00:01.000Z</time></trkpt>
			<trkpt lat="60.502744" lon="28.510663"><time>1970-01-01T00:00:01.000Z</time></trkpt>
			<trkpt lat="60.502491" lon="28.511650"><time>1970-01-01T00:00:01.000Z</time></trkpt>
			<trkpt lat="60.502279" lon="28.512079"><time>1970-01-01T00:00:01.000Z</time></trkpt>
			<trkpt lat="60.501920" lon="28.512423"><time>1970-01-01T00:00:01.000Z</time></trkpt>
			<trkpt lat="60.501138" lon="28.512895"><time>1970-01-01T00:00:01.000Z</time></trkpt>
			<trkpt lat="60.500610" lon="28.513109"><time>1970-01-01T00:00:01.000Z</time></trkpt>
			<trkpt lat="60.499955" lon="28.513538"><time>1970-01-01T00:00:01.000Z</time></trkpt>
			<trkpt lat="60.499490" lon="28.513710"><time>1970-01-01T00:00:01.000Z</time></trkpt>
			<trkpt lat="60.499194" lon="28.513667"><time>1970-01-01T00:00:01.000Z</time></trkpt>
			<trkpt lat="60.498645" lon="28.515229"><time>1970-01-01T00:00:01.000Z</time></trkpt>
			<trkpt lat="60.498497" lon="28.516173"><time>1970-01-01T00:00:01.000Z</time></trkpt>
			<trkpt lat="60.498264" lon="28.517632"><time>1970-01-01T00:00:01.000Z</time></trkpt>
			<trkpt lat="60.498137" lon="28.518834"><time>1970-01-01T00:00:01.000Z</time></trkpt>
			<trkpt lat="60.498011" lon="28.519607"><time>1970-01-01T00:00:01.000Z</time></trkpt>
			<trkpt lat="60.497377" lon="28.519993"><time>1970-01-01T00:00:01.000Z</time></trkpt>
			<trkpt lat="60.496806" lon="28.519950"><time>1970-01-01T00:00:01.000Z</time></trkpt>
			<trkpt lat="60.496299" lon="28.520164"><time>1970-01-01T00:00:01.000Z</time></trkpt>
			<trkpt lat="60.495791" lon="28.520164"><time>1970-01-01T00:00:01.000Z</time></trkpt>
			<trkpt lat="60.495326" lon="28.520508"><time>1970-01-01T00:00:01.000Z</time></trkpt>
			<trkpt lat="60.495052" lon="28.520851"><time>1970-01-01T00:00:01.000Z</time></trkpt>
			<trkpt lat="60.494840" lon="28.521023"><time>1970-01-01T00:00:01.000Z</time></trkpt>
			<trkpt lat="60.494629" lon="28.521194"><time>1970-01-01T00:00:01.000Z</time></trkpt>
			<trkpt lat="60.494439" lon="28.521409"><time>1970-01-01T00:00:01.000Z</time></trkpt>
			<trkpt lat="60.494101" lon="28.521624"><time>1970-01-01T00:00:01.000Z</time></trkpt>
			<trkpt lat="60.494016" lon="28.522053"><time>1970-01-01T00:00:01.000Z</time></trkpt>
			<trkpt lat="60.493910" lon="28.522396"><time>1970-01-01T00:00:01.000Z</time></trkpt>
			<trkpt lat="60.493720" lon="28.522911"><time>1970-01-01T00:00:01.000Z</time></trkpt>
			<trkpt lat="60.493636" lon="28.523469"><time>1970-01-01T00:00:01.000Z</time></trkpt>
			<trkpt lat="60.493636" lon="28.524113"><time>1970-01-01T00:00:01.000Z</time></trkpt>
			<trkpt lat="60.493171" lon="28.525211"><time>1970-01-01T00:00:01.000Z</time></trkpt>
			<trkpt lat="60.493044" lon="28.525941"><time>1970-01-01T00:00:01.000Z</time></trkpt>
			<trkpt lat="60.493023" lon="28.527143"><time>1970-01-01T00:00:01.000Z</time></trkpt>
			<trkpt lat="60.492832" lon="28.528687"><time>1970-01-01T00:00:01.000Z</time></trkpt>
			<trkpt lat="60.492769" lon="28.530104"><time>1970-01-01T00:00:01.000Z</time></trkpt>
			<trkpt lat="60.492769" lon="28.531262"><time>1970-01-01T00:00:01.000Z</time></trkpt>
			<trkpt lat="60.492621" lon="28.532464"><time>1970-01-01T00:00:01.000Z</time></trkpt>
			<trkpt lat="60.492431" lon="28.533494"><time>1970-01-01T00:00:01.000Z</time></trkpt>
			<trkpt lat="60.492114" lon="28.534224"><time>1970-01-01T00:00:01.000Z</time></trkpt>
			<trkpt lat="60.491860" lon="28.534524"><time>1970-01-01T00:00:01.000Z</time></trkpt>
			<trkpt lat="60.491395" lon="28.535211"><time>1970-01-01T00:00:01.000Z</time></trkpt>
			<trkpt lat="60.491057" lon="28.535769"><time>1970-01-01T00:00:01.000Z</time></trkpt>
			<trkpt lat="60.490782" lon="28.536069"><time>1970-01-01T00:00:01.000Z</time></trkpt>
			<trkpt lat="60.490402" lon="28.536283"><time>1970-01-01T00:00:01.000Z</time></trkpt>
			<trkpt lat="60.489641" lon="28.537442"><time>1970-01-01T00:00:01.000Z</time></trkpt>
			<trkpt lat="60.489091" lon="28.537786"><time>1970-01-01T00:00:01.000Z</time></trkpt>
			<trkpt lat="60.488605" lon="28.538129"><time>1970-01-01T00:00:01.000Z</time></trkpt>
			<trkpt lat="60.488393" lon="28.538815"><time>1970-01-01T00:00:01.000Z</time></trkpt>
			<trkpt lat="60.487797" lon="28.539777"><time>1970-01-01T00:00:01.000Z</time></trkpt>
			<trkpt lat="60.487286" lon="28.540395"><time>1970-01-01T00:00:01.000Z</time></trkpt>
			<trkpt lat="60.486592" lon="28.540592"><time>1970-01-01T00:00:01.000Z</time></trkpt>
			<trkpt lat="60.485916" lon="28.541107"><time>1970-01-01T00:00:01.000Z</time></trkpt>
			<trkpt lat="60.485239" lon="28.541193"><time>1970-01-01T00:00:01.000Z</time></trkpt>
			<trkpt lat="60.484288" lon="28.541365"><time>1970-01-01T00:00:01.000Z</time></trkpt>
			<trkpt lat="60.483738" lon="28.541665"><time>1970-01-01T00:00:01.000Z</time></trkpt>
			<trkpt lat="60.483167" lon="28.542137"><time>1970-01-01T00:00:01.000Z</time></trkpt>
		</trkseg>
	</trk>
</gpx>