<?xml version="1.0" encoding="UTF-8" standalone="no" ?>
<gpx xmlns="http://www.topografix.com/GPX/1/1" creator="http://nakarte.me" xmlns:xsi="http://www.w3.org/2001/XMLSchema-instance" xsi:schemaLocation="http://www.topografix.com/GPX/1/1 http://www.topografix.com/GPX/1/1/gpx.xsd" version="1.1">
	<metadata>
		<time>2023-11-06T15:12:41.368Z</time>
	</metadata>
	<trk>
		<name>6 озер для всех ресурсов общая</name>
		<trkseg>
			<trkpt lat="60.278172" lon="29.760745"><time>1970-01-01T00:00:01.000Z</time></trkpt>
			<trkpt lat="60.278164" lon="29.761046"><time>1970-01-01T00:00:01.000Z</time></trkpt>
			<trkpt lat="60.278276" lon="29.761153"><time>1970-01-01T00:00:01.000Z</time></trkpt>
			<trkpt lat="60.278324" lon="29.761346"><time>1970-01-01T00:00:01.000Z</time></trkpt>
			<trkpt lat="60.278229" lon="29.761880"><time>1970-01-01T00:00:01.000Z</time></trkpt>
			<trkpt lat="60.278038" lon="29.762228"><time>1970-01-01T00:00:01.000Z</time></trkpt>
			<trkpt lat="60.277764" lon="29.762534"><time>1970-01-01T00:00:01.000Z</time></trkpt>
			<trkpt lat="60.277636" lon="29.762738"><time>1970-01-01T00:00:01.000Z</time></trkpt>
			<trkpt lat="60.277352" lon="29.763838"><time>1970-01-01T00:00:01.000Z</time></trkpt>
			<trkpt lat="60.277407" lon="29.764170"><time>1970-01-01T00:00:01.000Z</time></trkpt>
			<trkpt lat="60.277312" lon="29.764380"><time>1970-01-01T00:00:01.000Z</time></trkpt>
			<trkpt lat="60.277191" lon="29.764393"><time>1970-01-01T00:00:01.000Z</time></trkpt>
			<trkpt lat="60.276887" lon="29.764790"><time>1970-01-01T00:00:01.000Z</time></trkpt>
			<trkpt lat="60.276709" lon="29.764811"><time>1970-01-01T00:00:01.000Z</time></trkpt>
			<trkpt lat="60.276627" lon="29.764956"><time>1970-01-01T00:00:01.000Z</time></trkpt>
			<trkpt lat="60.276361" lon="29.765058"><time>1970-01-01T00:00:01.000Z</time></trkpt>
			<trkpt lat="60.276039" lon="29.765439"><time>1970-01-01T00:00:01.000Z</time></trkpt>
			<trkpt lat="60.276036" lon="29.765573"><time>1970-01-01T00:00:01.000Z</time></trkpt>
			<trkpt lat="60.276082" lon="29.765638"><time>1970-01-01T00:00:01.000Z</time></trkpt>
			<trkpt lat="60.276012" lon="29.765707"><time>1970-01-01T00:00:01.000Z</time></trkpt>
			<trkpt lat="60.276004" lon="29.765841"><time>1970-01-01T00:00:01.000Z</time></trkpt>
			<trkpt lat="60.275486" lon="29.766710"><time>1970-01-01T00:00:01.000Z</time></trkpt>
			<trkpt lat="60.275441" lon="29.767005"><time>1970-01-01T00:00:01.000Z</time></trkpt>
			<trkpt lat="60.275342" lon="29.767145"><time>1970-01-01T00:00:01.000Z</time></trkpt>
			<trkpt lat="60.275236" lon="29.767622"><time>1970-01-01T00:00:01.000Z</time></trkpt>
			<trkpt lat="60.275300" lon="29.767976"><time>1970-01-01T00:00:01.000Z</time></trkpt>
			<trkpt lat="60.275355" lon="29.768749"><time>1970-01-01T00:00:01.000Z</time></trkpt>
			<trkpt lat="60.275214" lon="29.769489"><time>1970-01-01T00:00:01.000Z</time></trkpt>
			<trkpt lat="60.274951" lon="29.769999"><time>1970-01-01T00:00:01.000Z</time></trkpt>
			<trkpt lat="60.274885" lon="29.770750"><time>1970-01-01T00:00:01.000Z</time></trkpt>
			<trkpt lat="60.274669" lon="29.771168"><time>1970-01-01T00:00:01.000Z</time></trkpt>
			<trkpt lat="60.274361" lon="29.771308"><time>1970-01-01T00:00:01.000Z</time></trkpt>
			<trkpt lat="60.274238" lon="29.771259"><time>1970-01-01T00:00:01.000Z</time></trkpt>
			<trkpt lat="60.273847" lon="29.771758"><time>1970-01-01T00:00:01.000Z</time></trkpt>
			<trkpt lat="60.273806" lon="29.771943"><time>1970-01-01T00:00:01.000Z</time></trkpt>
			<trkpt lat="60.273694" lon="29.771933"><time>1970-01-01T00:00:01.000Z</time></trkpt>
			<trkpt lat="60.273366" lon="29.772488"><time>1970-01-01T00:00:01.000Z</time></trkpt>
			<trkpt lat="60.273106" lon="29.772839"><time>1970-01-01T00:00:01.000Z</time></trkpt>
			<trkpt lat="60.273037" lon="29.772807"><time>1970-01-01T00:00:01.000Z</time></trkpt>
			<trkpt lat="60.272531" lon="29.774081"><time>1970-01-01T00:00:01.000Z</time></trkpt>
			<trkpt lat="60.272382" lon="29.774226"><time>1970-01-01T00:00:01.000Z</time></trkpt>
			<trkpt lat="60.272161" lon="29.774789"><time>1970-01-01T00:00:01.000Z</time></trkpt>
			<trkpt lat="60.271794" lon="29.775310"><time>1970-01-01T00:00:01.000Z</time></trkpt>
			<trkpt lat="60.271544" lon="29.775009"><time>1970-01-01T00:00:01.000Z</time></trkpt>
			<trkpt lat="60.271094" lon="29.774784"><time>1970-01-01T00:00:01.000Z</time></trkpt>
			<trkpt lat="60.269490" lon="29.774521"><time>1970-01-01T00:00:01.000Z</time></trkpt>
			<trkpt lat="60.269293" lon="29.774542"><time>1970-01-01T00:00:01.000Z</time></trkpt>
			<trkpt lat="60.268585" lon="29.775615"><time>1970-01-01T00:00:01.000Z</time></trkpt>
			<trkpt lat="60.268479" lon="29.775980"><time>1970-01-01T00:00:01.000Z</time></trkpt>
			<trkpt lat="60.268341" lon="29.775766"><time>1970-01-01T00:00:01.000Z</time></trkpt>
		</trkseg>
		<trkseg>
			<trkpt lat="60.275454" lon="29.766871"><time>1970-01-01T00:00:01.000Z</time></trkpt>
			<trkpt lat="60.275353" lon="29.766453"><time>1970-01-01T00:00:01.000Z</time></trkpt>
			<trkpt lat="60.275089" lon="29.766743"><time>1970-01-01T00:00:01.000Z</time></trkpt>
			<trkpt lat="60.274871" lon="29.767547"><time>1970-01-01T00:00:01.000Z</time></trkpt>
			<trkpt lat="60.274547" lon="29.767858"><time>1970-01-01T00:00:01.000Z</time></trkpt>
			<trkpt lat="60.274206" lon="29.767617"><time>1970-01-01T00:00:01.000Z</time></trkpt>
			<trkpt lat="60.274145" lon="29.767440"><time>1970-01-01T00:00:01.000Z</time></trkpt>
			<trkpt lat="60.274023" lon="29.767622"><time>1970-01-01T00:00:01.000Z</time></trkpt>
			<trkpt lat="60.273773" lon="29.767370"><time>1970-01-01T00:00:01.000Z</time></trkpt>
			<trkpt lat="60.273759" lon="29.766034"><time>1970-01-01T00:00:01.000Z</time></trkpt>
			<trkpt lat="60.273645" lon="29.765820"><time>1970-01-01T00:00:01.000Z</time></trkpt>
			<trkpt lat="60.273100" lon="29.766051"><time>1970-01-01T00:00:01.000Z</time></trkpt>
			<trkpt lat="60.272738" lon="29.766024"><time>1970-01-01T00:00:01.000Z</time></trkpt>
			<trkpt lat="60.272656" lon="29.765798"><time>1970-01-01T00:00:01.000Z</time></trkpt>
			<trkpt lat="60.272685" lon="29.765493"><time>1970-01-01T00:00:01.000Z</time></trkpt>
			<trkpt lat="60.273020" lon="29.765112"><time>1970-01-01T00:00:01.000Z</time></trkpt>
			<trkpt lat="60.273031" lon="29.764774"><time>1970-01-01T00:00:01.000Z</time></trkpt>
			<trkpt lat="60.272914" lon="29.764500"><time>1970-01-01T00:00:01.000Z</time></trkpt>
			<trkpt lat="60.272751" lon="29.764543"><time>1970-01-01T00:00:01.000Z</time></trkpt>
			<trkpt lat="60.272703" lon="29.764844"><time>1970-01-01T00:00:01.000Z</time></trkpt>
			<trkpt lat="60.272541" lon="29.764817"><time>1970-01-01T00:00:01.000Z</time></trkpt>
			<trkpt lat="60.272358" lon="29.764978"><time>1970-01-01T00:00:01.000Z</time></trkpt>
			<trkpt lat="60.272275" lon="29.764988"><time>1970-01-01T00:00:01.000Z</time></trkpt>
			<trkpt lat="60.272116" lon="29.765106"><time>1970-01-01T00:00:01.000Z</time></trkpt>
			<trkpt lat="60.271961" lon="29.765069"><time>1970-01-01T00:00:01.000Z</time></trkpt>
			<trkpt lat="60.271698" lon="29.765096"><time>1970-01-01T00:00:01.000Z</time></trkpt>
			<trkpt lat="60.271634" lon="29.765005"><time>1970-01-01T00:00:01.000Z</time></trkpt>
			<trkpt lat="60.271456" lon="29.765058"><time>1970-01-01T00:00:01.000Z</time></trkpt>
			<trkpt lat="60.271177" lon="29.765042"><time>1970-01-01T00:00:01.000Z</time></trkpt>
			<trkpt lat="60.270788" lon="29.764876"><time>1970-01-01T00:00:01.000Z</time></trkpt>
			<trkpt lat="60.270852" lon="29.764731"><time>1970-01-01T00:00:01.000Z</time></trkpt>
			<trkpt lat="60.271408" lon="29.764130"><time>1970-01-01T00:00:01.000Z</time></trkpt>
			<trkpt lat="60.271770" lon="29.763304"><time>1970-01-01T00:00:01.000Z</time></trkpt>
			<trkpt lat="60.271839" lon="29.763030"><time>1970-01-01T00:00:01.000Z</time></trkpt>
			<trkpt lat="60.271881" lon="29.762287"><time>1970-01-01T00:00:01.000Z</time></trkpt>
			<trkpt lat="60.272049" lon="29.761909"><time>1970-01-01T00:00:01.000Z</time></trkpt>
			<trkpt lat="60.272158" lon="29.761528"><time>1970-01-01T00:00:01.000Z</time></trkpt>
			<trkpt lat="60.272258" lon="29.760659"><time>1970-01-01T00:00:01.000Z</time></trkpt>
			<trkpt lat="60.272481" lon="29.760005"><time>1970-01-01T00:00:01.000Z</time></trkpt>
			<trkpt lat="60.272617" lon="29.759345"><time>1970-01-01T00:00:01.000Z</time></trkpt>
			<trkpt lat="60.272593" lon="29.759130"><time>1970-01-01T00:00:01.000Z</time></trkpt>
			<trkpt lat="60.272493" lon="29.758902"><time>1970-01-01T00:00:01.000Z</time></trkpt>
			<trkpt lat="60.272773" lon="29.758583"><time>1970-01-01T00:00:01.000Z</time></trkpt>
			<trkpt lat="60.273031" lon="29.758519"><time>1970-01-01T00:00:01.000Z</time></trkpt>
			<trkpt lat="60.273459" lon="29.758294"><time>1970-01-01T00:00:01.000Z</time></trkpt>
			<trkpt lat="60.273789" lon="29.758009"><time>1970-01-01T00:00:01.000Z</time></trkpt>
			<trkpt lat="60.274377" lon="29.757081"><time>1970-01-01T00:00:01.000Z</time></trkpt>
			<trkpt lat="60.274948" lon="29.757001"><time>1970-01-01T00:00:01.000Z</time></trkpt>
			<trkpt lat="60.275081" lon="29.757242"><time>1970-01-01T00:00:01.000Z</time></trkpt>
			<trkpt lat="60.275305" lon="29.757451"><time>1970-01-01T00:00:01.000Z</time></trkpt>
			<trkpt lat="60.275544" lon="29.757484"><time>1970-01-01T00:00:01.000Z</time></trkpt>
			<trkpt lat="60.276152" lon="29.757674"><time>1970-01-01T00:00:01.000Z</time></trkpt>
			<trkpt lat="60.276556" lon="29.757594"><time>1970-01-01T00:00:01.000Z</time></trkpt>
			<trkpt lat="60.276938" lon="29.757237"><time>1970-01-01T00:00:01.000Z</time></trkpt>
			<trkpt lat="60.277036" lon="29.757205"><time>1970-01-01T00:00:01.000Z</time></trkpt>
			<trkpt lat="60.277180" lon="29.757382"><time>1970-01-01T00:00:01.000Z</time></trkpt>
			<trkpt lat="60.277382" lon="29.757730"><time>1970-01-01T00:00:01.000Z</time></trkpt>
			<trkpt lat="60.277643" lon="29.758009"><time>1970-01-01T00:00:01.000Z</time></trkpt>
			<trkpt lat="60.277675" lon="29.758138"><time>1970-01-01T00:00:01.000Z</time></trkpt>
			<trkpt lat="60.277997" lon="29.758492"><time>1970-01-01T00:00:01.000Z</time></trkpt>
			<trkpt lat="60.278068" lon="29.758664"><time>1970-01-01T00:00:01.000Z</time></trkpt>
			<trkpt lat="60.278153" lon="29.758750"><time>1970-01-01T00:00:01.000Z</time></trkpt>
			<trkpt lat="60.278247" lon="29.758723"><time>1970-01-01T00:00:01.000Z</time></trkpt>
			<trkpt lat="60.278260" lon="29.758964"><time>1970-01-01T00:00:01.000Z</time></trkpt>
			<trkpt lat="60.278204" lon="29.759447"><time>1970-01-01T00:00:01.000Z</time></trkpt>
			<trkpt lat="60.278031" lon="29.760053"><time>1970-01-01T00:00:01.000Z</time></trkpt>
			<trkpt lat="60.278064" lon="29.760439"><time>1970-01-01T00:00:01.000Z</time></trkpt>
			<trkpt lat="60.278172" lon="29.760745"><time>1970-01-01T00:00:01.000Z</time></trkpt>
			<trkpt lat="60.278276" lon="29.760295"><time>1970-01-01T00:00:01.000Z</time></trkpt>
			<trkpt lat="60.278260" lon="29.760016"><time>1970-01-01T00:00:01.000Z</time></trkpt>
			<trkpt lat="60.278739" lon="29.759152"><time>1970-01-01T00:00:01.000Z</time></trkpt>
			<trkpt lat="60.278784" lon="29.758653"><time>1970-01-01T00:00:01.000Z</time></trkpt>
			<trkpt lat="60.278983" lon="29.758385"><time>1970-01-01T00:00:01.000Z</time></trkpt>
			<trkpt lat="60.278848" lon="29.757457"><time>1970-01-01T00:00:01.000Z</time></trkpt>
			<trkpt lat="60.278890" lon="29.757017"><time>1970-01-01T00:00:01.000Z</time></trkpt>
			<trkpt lat="60.278763" lon="29.756196"><time>1970-01-01T00:00:01.000Z</time></trkpt>
			<trkpt lat="60.279023" lon="29.754817"><time>1970-01-01T00:00:01.000Z</time></trkpt>
			<trkpt lat="60.279409" lon="29.753723"><time>1970-01-01T00:00:01.000Z</time></trkpt>
			<trkpt lat="60.279414" lon="29.753476"><time>1970-01-01T00:00:01.000Z</time></trkpt>
			<trkpt lat="60.279994" lon="29.752597"><time>1970-01-01T00:00:01.000Z</time></trkpt>
			<trkpt lat="60.280122" lon="29.752076"><time>1970-01-01T00:00:01.000Z</time></trkpt>
			<trkpt lat="60.280395" lon="29.751652"><time>1970-01-01T00:00:01.000Z</time></trkpt>
			<trkpt lat="60.280427" lon="29.751481"><time>1970-01-01T00:00:01.000Z</time></trkpt>
			<trkpt lat="60.280691" lon="29.750923"><time>1970-01-01T00:00:01.000Z</time></trkpt>
			<trkpt lat="60.281084" lon="29.750349"><time>1970-01-01T00:00:01.000Z</time></trkpt>
			<trkpt lat="60.281074" lon="29.750059"><time>1970-01-01T00:00:01.000Z</time></trkpt>
			<trkpt lat="60.281244" lon="29.749866"><time>1970-01-01T00:00:01.000Z</time></trkpt>
			<trkpt lat="60.281438" lon="29.749823"><time>1970-01-01T00:00:01.000Z</time></trkpt>
			<trkpt lat="60.281539" lon="29.749630"><time>1970-01-01T00:00:01.000Z</time></trkpt>
			<trkpt lat="60.281901" lon="29.749222"><time>1970-01-01T00:00:01.000Z</time></trkpt>
			<trkpt lat="60.281972" lon="29.749061"><time>1970-01-01T00:00:01.000Z</time></trkpt>
			<trkpt lat="60.282068" lon="29.748943"><time>1970-01-01T00:00:01.000Z</time></trkpt>
			<trkpt lat="60.282196" lon="29.747913"><time>1970-01-01T00:00:01.000Z</time></trkpt>
			<trkpt lat="60.282600" lon="29.747533"><time>1970-01-01T00:00:01.000Z</time></trkpt>
			<trkpt lat="60.283060" lon="29.747012"><time>1970-01-01T00:00:01.000Z</time></trkpt>
			<trkpt lat="60.283182" lon="29.747012"><time>1970-01-01T00:00:01.000Z</time></trkpt>
			<trkpt lat="60.283353" lon="29.746851"><time>1970-01-01T00:00:01.000Z</time></trkpt>
			<trkpt lat="60.283353" lon="29.746658"><time>1970-01-01T00:00:01.000Z</time></trkpt>
			<trkpt lat="60.283666" lon="29.746658"><time>1970-01-01T00:00:01.000Z</time></trkpt>
			<trkpt lat="60.283714" lon="29.746213"><time>1970-01-01T00:00:01.000Z</time></trkpt>
			<trkpt lat="60.283805" lon="29.745832"><time>1970-01-01T00:00:01.000Z</time></trkpt>
			<trkpt lat="60.284145" lon="29.745027"><time>1970-01-01T00:00:01.000Z</time></trkpt>
			<trkpt lat="60.284533" lon="29.744770"><time>1970-01-01T00:00:01.000Z</time></trkpt>
			<trkpt lat="60.284860" lon="29.744148"><time>1970-01-01T00:00:01.000Z</time></trkpt>
			<trkpt lat="60.284940" lon="29.744132"><time>1970-01-01T00:00:01.000Z</time></trkpt>
			<trkpt lat="60.285169" lon="29.743992"><time>1970-01-01T00:00:01.000Z</time></trkpt>
			<trkpt lat="60.285560" lon="29.743547"><time>1970-01-01T00:00:01.000Z</time></trkpt>
			<trkpt lat="60.285748" lon="29.743997"><time>1970-01-01T00:00:01.000Z</time></trkpt>
			<trkpt lat="60.285975" lon="29.745145"><time>1970-01-01T00:00:01.000Z</time></trkpt>
			<trkpt lat="60.286073" lon="29.746234"><time>1970-01-01T00:00:01.000Z</time></trkpt>
			<trkpt lat="60.286195" lon="29.748434"><time>1970-01-01T00:00:01.000Z</time></trkpt>
			<trkpt lat="60.286118" lon="29.748643"><time>1970-01-01T00:00:01.000Z</time></trkpt>
			<trkpt lat="60.285743" lon="29.748643"><time>1970-01-01T00:00:01.000Z</time></trkpt>
			<trkpt lat="60.285658" lon="29.748836"><time>1970-01-01T00:00:01.000Z</time></trkpt>
			<trkpt lat="60.285441" lon="29.749764"><time>1970-01-01T00:00:01.000Z</time></trkpt>
			<trkpt lat="60.285427" lon="29.750177"><time>1970-01-01T00:00:01.000Z</time></trkpt>
			<trkpt lat="60.285507" lon="29.750478"><time>1970-01-01T00:00:01.000Z</time></trkpt>
			<trkpt lat="60.285501" lon="29.750853"><time>1970-01-01T00:00:01.000Z</time></trkpt>
			<trkpt lat="60.285382" lon="29.751374"><time>1970-01-01T00:00:01.000Z</time></trkpt>
			<trkpt lat="60.285227" lon="29.751593"><time>1970-01-01T00:00:01.000Z</time></trkpt>
			<trkpt lat="60.285028" lon="29.751701"><time>1970-01-01T00:00:01.000Z</time></trkpt>
			<trkpt lat="60.284440" lon="29.752226"><time>1970-01-01T00:00:01.000Z</time></trkpt>
			<trkpt lat="60.284318" lon="29.752371"><time>1970-01-01T00:00:01.000Z</time></trkpt>
			<trkpt lat="60.284063" lon="29.752854"><time>1970-01-01T00:00:01.000Z</time></trkpt>
			<trkpt lat="60.283954" lon="29.752876"><time>1970-01-01T00:00:01.000Z</time></trkpt>
			<trkpt lat="60.283601" lon="29.752822"><time>1970-01-01T00:00:01.000Z</time></trkpt>
			<trkpt lat="60.283439" lon="29.752886"><time>1970-01-01T00:00:01.000Z</time></trkpt>
			<trkpt lat="60.283226" lon="29.753085"><time>1970-01-01T00:00:01.000Z</time></trkpt>
			<trkpt lat="60.282952" lon="29.753487"><time>1970-01-01T00:00:01.000Z</time></trkpt>
			<trkpt lat="60.282825" lon="29.753948"><time>1970-01-01T00:00:01.000Z</time></trkpt>
			<trkpt lat="60.282810" lon="29.754227"><time>1970-01-01T00:00:01.000Z</time></trkpt>
			<trkpt lat="60.282496" lon="29.755193"><time>1970-01-01T00:00:01.000Z</time></trkpt>
			<trkpt lat="60.282425" lon="29.755531"><time>1970-01-01T00:00:01.000Z</time></trkpt>
			<trkpt lat="60.282379" lon="29.756051"><time>1970-01-01T00:00:01.000Z</time></trkpt>
			<trkpt lat="60.282377" lon="29.756298"><time>1970-01-01T00:00:01.000Z</time></trkpt>
			<trkpt lat="60.282552" lon="29.756931"><time>1970-01-01T00:00:01.000Z</time></trkpt>
			<trkpt lat="60.282736" lon="29.757339"><time>1970-01-01T00:00:01.000Z</time></trkpt>
			<trkpt lat="60.282882" lon="29.757779"><time>1970-01-01T00:00:01.000Z</time></trkpt>
			<trkpt lat="60.282869" lon="29.758374"><time>1970-01-01T00:00:01.000Z</time></trkpt>
			<trkpt lat="60.282619" lon="29.759034"><time>1970-01-01T00:00:01.000Z</time></trkpt>
			<trkpt lat="60.281821" lon="29.760316"><time>1970-01-01T00:00:01.000Z</time></trkpt>
			<trkpt lat="60.281693" lon="29.760799"><time>1970-01-01T00:00:01.000Z</time></trkpt>
			<trkpt lat="60.281324" lon="29.762746"><time>1970-01-01T00:00:01.000Z</time></trkpt>
			<trkpt lat="60.281220" lon="29.763041"><time>1970-01-01T00:00:01.000Z</time></trkpt>
			<trkpt lat="60.280377" lon="29.764125"><time>1970-01-01T00:00:01.000Z</time></trkpt>
			<trkpt lat="60.280167" lon="29.764313"><time>1970-01-01T00:00:01.000Z</time></trkpt>
			<trkpt lat="60.280010" lon="29.764527"><time>1970-01-01T00:00:01.000Z</time></trkpt>
			<trkpt lat="60.279752" lon="29.764779"><time>1970-01-01T00:00:01.000Z</time></trkpt>
			<trkpt lat="60.279523" lon="29.764924"><time>1970-01-01T00:00:01.000Z</time></trkpt>
			<trkpt lat="60.279433" lon="29.764946"><time>1970-01-01T00:00:01.000Z</time></trkpt>
			<trkpt lat="60.279028" lon="29.764935"><time>1970-01-01T00:00:01.000Z</time></trkpt>
			<trkpt lat="60.278901" lon="29.765117"><time>1970-01-01T00:00:01.000Z</time></trkpt>
			<trkpt lat="60.278853" lon="29.765562"><time>1970-01-01T00:00:01.000Z</time></trkpt>
			<trkpt lat="60.278842" lon="29.766812"><time>1970-01-01T00:00:01.000Z</time></trkpt>
			<trkpt lat="60.278778" lon="29.767263"><time>1970-01-01T00:00:01.000Z</time></trkpt>
			<trkpt lat="60.278776" lon="29.767864"><time>1970-01-01T00:00:01.000Z</time></trkpt>
			<trkpt lat="60.278858" lon="29.768368"><time>1970-01-01T00:00:01.000Z</time></trkpt>
			<trkpt lat="60.278773" lon="29.770455"><time>1970-01-01T00:00:01.000Z</time></trkpt>
			<trkpt lat="60.278728" lon="29.770664"><time>1970-01-01T00:00:01.000Z</time></trkpt>
			<trkpt lat="60.278393" lon="29.771608"><time>1970-01-01T00:00:01.000Z</time></trkpt>
			<trkpt lat="60.278146" lon="29.772096"><time>1970-01-01T00:00:01.000Z</time></trkpt>
			<trkpt lat="60.277805" lon="29.772660"><time>1970-01-01T00:00:01.000Z</time></trkpt>
			<trkpt lat="60.277175" lon="29.774982"><time>1970-01-01T00:00:01.000Z</time></trkpt>
			<trkpt lat="60.276792" lon="29.775621"><time>1970-01-01T00:00:01.000Z</time></trkpt>
			<trkpt lat="60.276390" lon="29.775873"><time>1970-01-01T00:00:01.000Z</time></trkpt>
			<trkpt lat="60.275917" lon="29.776243"><time>1970-01-01T00:00:01.000Z</time></trkpt>
			<trkpt lat="60.275488" lon="29.776635"><time>1970-01-01T00:00:01.000Z</time></trkpt>
			<trkpt lat="60.275206" lon="29.776790"><time>1970-01-01T00:00:01.000Z</time></trkpt>
			<trkpt lat="60.274933" lon="29.776855"><time>1970-01-01T00:00:01.000Z</time></trkpt>
			<trkpt lat="60.274557" lon="29.776812"><time>1970-01-01T00:00:01.000Z</time></trkpt>
			<trkpt lat="60.274209" lon="29.777289"><time>1970-01-01T00:00:01.000Z</time></trkpt>
			<trkpt lat="60.273430" lon="29.779204"><time>1970-01-01T00:00:01.000Z</time></trkpt>
			<trkpt lat="60.273182" lon="29.779977"><time>1970-01-01T00:00:01.000Z</time></trkpt>
			<trkpt lat="60.272759" lon="29.780803"><time>1970-01-01T00:00:01.000Z</time></trkpt>
			<trkpt lat="60.272629" lon="29.780974"><time>1970-01-01T00:00:01.000Z</time></trkpt>
			<trkpt lat="60.271852" lon="29.781741"><time>1970-01-01T00:00:01.000Z</time></trkpt>
			<trkpt lat="60.271762" lon="29.781760"><time>1970-01-01T00:00:01.000Z</time></trkpt>
			<trkpt lat="60.271565" lon="29.781715"><time>1970-01-01T00:00:01.000Z</time></trkpt>
			<trkpt lat="60.271452" lon="29.781642"><time>1970-01-01T00:00:01.000Z</time></trkpt>
			<trkpt lat="60.271137" lon="29.781312"><time>1970-01-01T00:00:01.000Z</time></trkpt>
			<trkpt lat="60.271038" lon="29.781264"><time>1970-01-01T00:00:01.000Z</time></trkpt>
			<trkpt lat="60.270958" lon="29.781312"><time>1970-01-01T00:00:01.000Z</time></trkpt>
			<trkpt lat="60.270801" lon="29.781495"><time>1970-01-01T00:00:01.000Z</time></trkpt>
			<trkpt lat="60.270150" lon="29.782707"><time>1970-01-01T00:00:01.000Z</time></trkpt>
			<trkpt lat="60.270027" lon="29.783265"><time>1970-01-01T00:00:01.000Z</time></trkpt>
			<trkpt lat="60.269993" lon="29.783678"><time>1970-01-01T00:00:01.000Z</time></trkpt>
			<trkpt lat="60.269998" lon="29.784333"><time>1970-01-01T00:00:01.000Z</time></trkpt>
			<trkpt lat="60.269932" lon="29.784813"><time>1970-01-01T00:00:01.000Z</time></trkpt>
			<trkpt lat="60.269756" lon="29.785440"><time>1970-01-01T00:00:01.000Z</time></trkpt>
			<trkpt lat="60.269596" lon="29.785719"><time>1970-01-01T00:00:01.000Z</time></trkpt>
			<trkpt lat="60.269514" lon="29.785971"><time>1970-01-01T00:00:01.000Z</time></trkpt>
			<trkpt lat="60.269580" lon="29.787044"><time>1970-01-01T00:00:01.000Z</time></trkpt>
			<trkpt lat="60.269628" lon="29.787152"><time>1970-01-01T00:00:01.000Z</time></trkpt>
			<trkpt lat="60.269759" lon="29.787253"><time>1970-01-01T00:00:01.000Z</time></trkpt>
			<trkpt lat="60.270011" lon="29.787650"><time>1970-01-01T00:00:01.000Z</time></trkpt>
			<trkpt lat="60.270134" lon="29.788176"><time>1970-01-01T00:00:01.000Z</time></trkpt>
			<trkpt lat="60.270168" lon="29.788477"><time>1970-01-01T00:00:01.000Z</time></trkpt>
			<trkpt lat="60.270171" lon="29.789126"><time>1970-01-01T00:00:01.000Z</time></trkpt>
			<trkpt lat="60.269967" lon="29.790759"><time>1970-01-01T00:00:01.000Z</time></trkpt>
			<trkpt lat="60.270082" lon="29.791741"><time>1970-01-01T00:00:01.000Z</time></trkpt>
			<trkpt lat="60.270312" lon="29.792025"><time>1970-01-01T00:00:01.000Z</time></trkpt>
			<trkpt lat="60.270820" lon="29.792508"><time>1970-01-01T00:00:01.000Z</time></trkpt>
			<trkpt lat="60.270940" lon="29.792899"><time>1970-01-01T00:00:01.000Z</time></trkpt>
			<trkpt lat="60.270985" lon="29.793436"><time>1970-01-01T00:00:01.000Z</time></trkpt>
			<trkpt lat="60.269317" lon="29.795786"><time>1970-01-01T00:00:01.000Z</time></trkpt>
			<trkpt lat="60.269357" lon="29.795914"><time>1970-01-01T00:00:01.000Z</time></trkpt>
			<trkpt lat="60.269461" lon="29.796000"><time>1970-01-01T00:00:01.000Z</time></trkpt>
			<trkpt lat="60.269596" lon="29.796247"><time>1970-01-01T00:00:01.000Z</time></trkpt>
			<trkpt lat="60.269756" lon="29.796397"><time>1970-01-01T00:00:01.000Z</time></trkpt>
			<trkpt lat="60.269852" lon="29.796574"><time>1970-01-01T00:00:01.000Z</time></trkpt>
			<trkpt lat="60.269884" lon="29.796805"><time>1970-01-01T00:00:01.000Z</time></trkpt>
			<trkpt lat="60.269759" lon="29.797186"><time>1970-01-01T00:00:01.000Z</time></trkpt>
			<trkpt lat="60.269285" lon="29.797899"><time>1970-01-01T00:00:01.000Z</time></trkpt>
			<trkpt lat="60.269116" lon="29.798495"><time>1970-01-01T00:00:01.000Z</time></trkpt>
			<trkpt lat="60.268792" lon="29.798908"><time>1970-01-01T00:00:01.000Z</time></trkpt>
			<trkpt lat="60.268651" lon="29.799015"><time>1970-01-01T00:00:01.000Z</time></trkpt>
			<trkpt lat="60.268408" lon="29.799348"><time>1970-01-01T00:00:01.000Z</time></trkpt>
			<trkpt lat="60.268209" lon="29.799868"><time>1970-01-01T00:00:01.000Z</time></trkpt>
			<trkpt lat="60.268089" lon="29.800372"><time>1970-01-01T00:00:01.000Z</time></trkpt>
			<trkpt lat="60.267899" lon="29.800919"><time>1970-01-01T00:00:01.000Z</time></trkpt>
			<trkpt lat="60.267330" lon="29.803446"><time>1970-01-01T00:00:01.000Z</time></trkpt>
			<trkpt lat="60.267335" lon="29.803709"><time>1970-01-01T00:00:01.000Z</time></trkpt>
			<trkpt lat="60.267146" lon="29.804513"><time>1970-01-01T00:00:01.000Z</time></trkpt>
			<trkpt lat="60.266811" lon="29.804868"><time>1970-01-01T00:00:01.000Z</time></trkpt>
			<trkpt lat="60.266625" lon="29.805227"><time>1970-01-01T00:00:01.000Z</time></trkpt>
			<trkpt lat="60.266627" lon="29.805881"><time>1970-01-01T00:00:01.000Z</time></trkpt>
			<trkpt lat="60.266172" lon="29.806544"><time>1970-01-01T00:00:01.000Z</time></trkpt>
			<trkpt lat="60.265914" lon="29.807021"><time>1970-01-01T00:00:01.000Z</time></trkpt>
			<trkpt lat="60.265116" lon="29.807802"><time>1970-01-01T00:00:01.000Z</time></trkpt>
			<trkpt lat="60.264706" lon="29.808322"><time>1970-01-01T00:00:01.000Z</time></trkpt>
			<trkpt lat="60.264603" lon="29.808488"><time>1970-01-01T00:00:01.000Z</time></trkpt>
			<trkpt lat="60.264293" lon="29.809264"><time>1970-01-01T00:00:01.000Z</time></trkpt>
			<trkpt lat="60.264255" lon="29.809591"><time>1970-01-01T00:00:01.000Z</time></trkpt>
			<trkpt lat="60.264412" lon="29.809902"><time>1970-01-01T00:00:01.000Z</time></trkpt>
			<trkpt lat="60.264372" lon="29.810916"><time>1970-01-01T00:00:01.000Z</time></trkpt>
			<trkpt lat="60.264549" lon="29.812050"><time>1970-01-01T00:00:01.000Z</time></trkpt>
			<trkpt lat="60.264547" lon="29.812319"><time>1970-01-01T00:00:01.000Z</time></trkpt>
			<trkpt lat="60.264440" lon="29.812694"><time>1970-01-01T00:00:01.000Z</time></trkpt>
			<trkpt lat="60.264491" lon="29.813059"><time>1970-01-01T00:00:01.000Z</time></trkpt>
			<trkpt lat="60.264443" lon="29.813730"><time>1970-01-01T00:00:01.000Z</time></trkpt>
			<trkpt lat="60.264179" lon="29.813805"><time>1970-01-01T00:00:01.000Z</time></trkpt>
			<trkpt lat="60.262908" lon="29.815942"><time>1970-01-01T00:00:01.000Z</time></trkpt>
			<trkpt lat="60.262828" lon="29.816645"><time>1970-01-01T00:00:01.000Z</time></trkpt>
			<trkpt lat="60.262675" lon="29.815966"><time>1970-01-01T00:00:01.000Z</time></trkpt>
			<trkpt lat="60.262587" lon="29.815108"><time>1970-01-01T00:00:01.000Z</time></trkpt>
			<trkpt lat="60.262497" lon="29.814953"><time>1970-01-01T00:00:01.000Z</time></trkpt>
			<trkpt lat="60.261877" lon="29.814534"><time>1970-01-01T00:00:01.000Z</time></trkpt>
			<trkpt lat="60.261712" lon="29.814363"><time>1970-01-01T00:00:01.000Z</time></trkpt>
			<trkpt lat="60.261629" lon="29.814384"><time>1970-01-01T00:00:01.000Z</time></trkpt>
			<trkpt lat="60.261457" lon="29.814582"><time>1970-01-01T00:00:01.000Z</time></trkpt>
			<trkpt lat="60.261354" lon="29.814529"><time>1970-01-01T00:00:01.000Z</time></trkpt>
			<trkpt lat="60.261268" lon="29.814432"><time>1970-01-01T00:00:01.000Z</time></trkpt>
			<trkpt lat="60.261197" lon="29.814089"><time>1970-01-01T00:00:01.000Z</time></trkpt>
			<trkpt lat="60.261119" lon="29.814003"><time>1970-01-01T00:00:01.000Z</time></trkpt>
			<trkpt lat="60.261061" lon="29.813681"><time>1970-01-01T00:00:01.000Z</time></trkpt>
			<trkpt lat="60.261072" lon="29.813375"><time>1970-01-01T00:00:01.000Z</time></trkpt>
			<trkpt lat="60.261032" lon="29.812984"><time>1970-01-01T00:00:01.000Z</time></trkpt>
			<trkpt lat="60.261053" lon="29.812694"><time>1970-01-01T00:00:01.000Z</time></trkpt>
			<trkpt lat="60.260933" lon="29.811498"><time>1970-01-01T00:00:01.000Z</time></trkpt>
			<trkpt lat="60.260861" lon="29.811267"><time>1970-01-01T00:00:01.000Z</time></trkpt>
			<trkpt lat="60.260640" lon="29.811047"><time>1970-01-01T00:00:01.000Z</time></trkpt>
			<trkpt lat="60.259887" lon="29.810913"><time>1970-01-01T00:00:01.000Z</time></trkpt>
			<trkpt lat="60.259709" lon="29.811042"><time>1970-01-01T00:00:01.000Z</time></trkpt>
			<trkpt lat="60.259470" lon="29.810956"><time>1970-01-01T00:00:01.000Z</time></trkpt>
			<trkpt lat="60.259008" lon="29.811195"><time>1970-01-01T00:00:01.000Z</time></trkpt>
			<trkpt lat="60.258868" lon="29.811358"><time>1970-01-01T00:00:01.000Z</time></trkpt>
			<trkpt lat="60.258552" lon="29.811873"><time>1970-01-01T00:00:01.000Z</time></trkpt>
			<trkpt lat="60.258477" lon="29.812072"><time>1970-01-01T00:00:01.000Z</time></trkpt>
			<trkpt lat="60.258240" lon="29.813032"><time>1970-01-01T00:00:01.000Z</time></trkpt>
			<trkpt lat="60.258174" lon="29.814041"><time>1970-01-01T00:00:01.000Z</time></trkpt>
			<trkpt lat="60.257979" lon="29.814754"><time>1970-01-01T00:00:01.000Z</time></trkpt>
			<trkpt lat="60.257660" lon="29.813660"><time>1970-01-01T00:00:01.000Z</time></trkpt>
			<trkpt lat="60.257466" lon="29.813333"><time>1970-01-01T00:00:01.000Z</time></trkpt>
			<trkpt lat="60.257261" lon="29.813097"><time>1970-01-01T00:00:01.000Z</time></trkpt>
			<trkpt lat="60.256917" lon="29.812909"><time>1970-01-01T00:00:01.000Z</time></trkpt>
			<trkpt lat="60.256529" lon="29.812818"><time>1970-01-01T00:00:01.000Z</time></trkpt>
			<trkpt lat="60.256162" lon="29.812227"><time>1970-01-01T00:00:01.000Z</time></trkpt>
			<trkpt lat="60.255909" lon="29.812008"><time>1970-01-01T00:00:01.000Z</time></trkpt>
			<trkpt lat="60.255651" lon="29.811691"><time>1970-01-01T00:00:01.000Z</time></trkpt>
			<trkpt lat="60.254579" lon="29.810935"><time>1970-01-01T00:00:01.000Z</time></trkpt>
			<trkpt lat="60.254343" lon="29.810725"><time>1970-01-01T00:00:01.000Z</time></trkpt>
			<trkpt lat="60.253833" lon="29.810401"><time>1970-01-01T00:00:01.000Z</time></trkpt>
			<trkpt lat="60.253159" lon="29.809856"><time>1970-01-01T00:00:01.000Z</time></trkpt>
			<trkpt lat="60.252199" lon="29.809164"><time>1970-01-01T00:00:01.000Z</time></trkpt>
			<trkpt lat="60.251341" lon="29.808810"><time>1970-01-01T00:00:01.000Z</time></trkpt>
			<trkpt lat="60.250306" lon="29.808435"><time>1970-01-01T00:00:01.000Z</time></trkpt>
			<trkpt lat="60.249649" lon="29.807255"><time>1970-01-01T00:00:01.000Z</time></trkpt>
			<trkpt lat="60.249442" lon="29.806724"><time>1970-01-01T00:00:01.000Z</time></trkpt>
			<trkpt lat="60.248142" lon="29.803961"><time>1970-01-01T00:00:01.000Z</time></trkpt>
			<trkpt lat="60.247253" lon="29.801386"><time>1970-01-01T00:00:01.000Z</time></trkpt>
			<trkpt lat="60.246768" lon="29.800115"><time>1970-01-01T00:00:01.000Z</time></trkpt>
			<trkpt lat="60.246349" lon="29.800058"><time>1970-01-01T00:00:01.000Z</time></trkpt>
			<trkpt lat="60.246123" lon="29.800187"><time>1970-01-01T00:00:01.000Z</time></trkpt>
			<trkpt lat="60.245792" lon="29.800262"><time>1970-01-01T00:00:01.000Z</time></trkpt>
			<trkpt lat="60.244994" lon="29.800745"><time>1970-01-01T00:00:01.000Z</time></trkpt>
			<trkpt lat="60.244789" lon="29.800825"><time>1970-01-01T00:00:01.000Z</time></trkpt>
			<trkpt lat="60.243918" lon="29.801335"><time>1970-01-01T00:00:01.000Z</time></trkpt>
			<trkpt lat="60.242732" lon="29.801939"><time>1970-01-01T00:00:01.000Z</time></trkpt>
			<trkpt lat="60.241896" lon="29.802244"><time>1970-01-01T00:00:01.000Z</time></trkpt>
			<trkpt lat="60.241534" lon="29.802336"><time>1970-01-01T00:00:01.000Z</time></trkpt>
			<trkpt lat="60.240780" lon="29.802657"><time>1970-01-01T00:00:01.000Z</time></trkpt>
			<trkpt lat="60.240378" lon="29.802947"><time>1970-01-01T00:00:01.000Z</time></trkpt>
			<trkpt lat="60.239641" lon="29.803247"><time>1970-01-01T00:00:01.000Z</time></trkpt>
			<trkpt lat="60.238597" lon="29.803811"><time>1970-01-01T00:00:01.000Z</time></trkpt>
			<trkpt lat="60.237713" lon="29.804240"><time>1970-01-01T00:00:01.000Z</time></trkpt>
			<trkpt lat="60.237484" lon="29.804315"><time>1970-01-01T00:00:01.000Z</time></trkpt>
			<trkpt lat="60.237311" lon="29.804015"><time>1970-01-01T00:00:01.000Z</time></trkpt>
			<trkpt lat="60.237186" lon="29.804084"><time>1970-01-01T00:00:01.000Z</time></trkpt>
			<trkpt lat="60.236989" lon="29.804428"><time>1970-01-01T00:00:01.000Z</time></trkpt>
			<trkpt lat="60.236741" lon="29.804530"><time>1970-01-01T00:00:01.000Z</time></trkpt>
			<trkpt lat="60.236488" lon="29.804766"><time>1970-01-01T00:00:01.000Z</time></trkpt>
			<trkpt lat="60.236421" lon="29.805179"><time>1970-01-01T00:00:01.000Z</time></trkpt>
			<trkpt lat="60.236119" lon="29.805340"><time>1970-01-01T00:00:01.000Z</time></trkpt>
			<trkpt lat="60.235762" lon="29.805291"><time>1970-01-01T00:00:01.000Z</time></trkpt>
			<trkpt lat="60.235682" lon="29.805232"><time>1970-01-01T00:00:01.000Z</time></trkpt>
			<trkpt lat="60.235613" lon="29.805120"><time>1970-01-01T00:00:01.000Z</time></trkpt>
			<trkpt lat="60.235440" lon="29.804218"><time>1970-01-01T00:00:01.000Z</time></trkpt>
			<trkpt lat="60.235440" lon="29.804068"><time>1970-01-01T00:00:01.000Z</time></trkpt>
			<trkpt lat="60.235247" lon="29.804141"><time>1970-01-01T00:00:01.000Z</time></trkpt>
			<trkpt lat="60.234911" lon="29.804540"><time>1970-01-01T00:00:01.000Z</time></trkpt>
			<trkpt lat="60.234805" lon="29.804594"><time>1970-01-01T00:00:01.000Z</time></trkpt>
			<trkpt lat="60.234645" lon="29.804358"><time>1970-01-01T00:00:01.000Z</time></trkpt>
			<trkpt lat="60.234459" lon="29.804412"><time>1970-01-01T00:00:01.000Z</time></trkpt>
			<trkpt lat="60.234160" lon="29.804685"><time>1970-01-01T00:00:01.000Z</time></trkpt>
			<trkpt lat="60.233987" lon="29.804733"><time>1970-01-01T00:00:01.000Z</time></trkpt>
			<trkpt lat="60.233889" lon="29.804685"><time>1970-01-01T00:00:01.000Z</time></trkpt>
			<trkpt lat="60.233612" lon="29.804932"><time>1970-01-01T00:00:01.000Z</time></trkpt>
			<trkpt lat="60.233327" lon="29.805002"><time>1970-01-01T00:00:01.000Z</time></trkpt>
			<trkpt lat="60.232839" lon="29.805570"><time>1970-01-01T00:00:01.000Z</time></trkpt>
			<trkpt lat="60.232624" lon="29.806203"><time>1970-01-01T00:00:01.000Z</time></trkpt>
			<trkpt lat="60.232221" lon="29.806852"><time>1970-01-01T00:00:01.000Z</time></trkpt>
			<trkpt lat="60.231092" lon="29.807464"><time>1970-01-01T00:00:01.000Z</time></trkpt>
			<trkpt lat="60.230460" lon="29.807976"><time>1970-01-01T00:00:01.000Z</time></trkpt>
			<trkpt lat="60.230092" lon="29.808440"><time>1970-01-01T00:00:01.000Z</time></trkpt>
			<trkpt lat="60.229230" lon="29.809213"><time>1970-01-01T00:00:01.000Z</time></trkpt>
			<trkpt lat="60.227563" lon="29.810860"><time>1970-01-01T00:00:01.000Z</time></trkpt>
			<trkpt lat="60.227307" lon="29.811171"><time>1970-01-01T00:00:01.000Z</time></trkpt>
			<trkpt lat="60.226945" lon="29.811455"><time>1970-01-01T00:00:01.000Z</time></trkpt>
			<trkpt lat="60.226404" lon="29.811991"><time>1970-01-01T00:00:01.000Z</time></trkpt>
			<trkpt lat="60.226219" lon="29.812128"><time>1970-01-01T00:00:01.000Z</time></trkpt>
			<trkpt lat="60.225896" lon="29.812519"><time>1970-01-01T00:00:01.000Z</time></trkpt>
			<trkpt lat="60.225531" lon="29.813120"><time>1970-01-01T00:00:01.000Z</time></trkpt>
			<trkpt lat="60.225381" lon="29.813184"><time>1970-01-01T00:00:01.000Z</time></trkpt>
			<trkpt lat="60.225209" lon="29.813120"><time>1970-01-01T00:00:01.000Z</time></trkpt>
			<trkpt lat="60.224072" lon="29.811704"><time>1970-01-01T00:00:01.000Z</time></trkpt>
			<trkpt lat="60.223449" lon="29.810759"><time>1970-01-01T00:00:01.000Z</time></trkpt>
			<trkpt lat="60.222720" lon="29.809751"><time>1970-01-01T00:00:01.000Z</time></trkpt>
			<trkpt lat="60.222548" lon="29.809601"><time>1970-01-01T00:00:01.000Z</time></trkpt>
			<trkpt lat="60.222055" lon="29.809000"><time>1970-01-01T00:00:01.000Z</time></trkpt>
			<trkpt lat="60.221475" lon="29.808549"><time>1970-01-01T00:00:01.000Z</time></trkpt>
			<trkpt lat="60.221390" lon="29.808678"><time>1970-01-01T00:00:01.000Z</time></trkpt>
			<trkpt lat="60.221325" lon="29.808635"><time>1970-01-01T00:00:01.000Z</time></trkpt>
			<trkpt lat="60.221025" lon="29.807584"><time>1970-01-01T00:00:01.000Z</time></trkpt>
			<trkpt lat="60.221003" lon="29.806940"><time>1970-01-01T00:00:01.000Z</time></trkpt>
			<trkpt lat="60.221046" lon="29.803421"><time>1970-01-01T00:00:01.000Z</time></trkpt>
			<trkpt lat="60.221175" lon="29.802091"><time>1970-01-01T00:00:01.000Z</time></trkpt>
			<trkpt lat="60.221282" lon="29.801897"><time>1970-01-01T00:00:01.000Z</time></trkpt>
			<trkpt lat="60.221390" lon="29.801983"><time>1970-01-01T00:00:01.000Z</time></trkpt>
			<trkpt lat="60.221733" lon="29.801940"><time>1970-01-01T00:00:01.000Z</time></trkpt>
			<trkpt lat="60.222076" lon="29.802262"><time>1970-01-01T00:00:01.000Z</time></trkpt>
			<trkpt lat="60.222355" lon="29.802219"><time>1970-01-01T00:00:01.000Z</time></trkpt>
			<trkpt lat="60.222870" lon="29.801919"><time>1970-01-01T00:00:01.000Z</time></trkpt>
			<trkpt lat="60.223020" lon="29.801618"><time>1970-01-01T00:00:01.000Z</time></trkpt>
			<trkpt lat="60.223171" lon="29.801425"><time>1970-01-01T00:00:01.000Z</time></trkpt>
			<trkpt lat="60.223407" lon="29.801447"><time>1970-01-01T00:00:01.000Z</time></trkpt>
			<trkpt lat="60.223728" lon="29.801919"><time>1970-01-01T00:00:01.000Z</time></trkpt>
			<trkpt lat="60.223836" lon="29.802005"><time>1970-01-01T00:00:01.000Z</time></trkpt>
			<trkpt lat="60.223964" lon="29.801983"><time>1970-01-01T00:00:01.000Z</time></trkpt>
			<trkpt lat="60.224222" lon="29.802284"><time>1970-01-01T00:00:01.000Z</time></trkpt>
			<trkpt lat="60.224222" lon="29.802434"><time>1970-01-01T00:00:01.000Z</time></trkpt>
			<trkpt lat="60.224351" lon="29.802627"><time>1970-01-01T00:00:01.000Z</time></trkpt>
			<trkpt lat="60.224458" lon="29.802369"><time>1970-01-01T00:00:01.000Z</time></trkpt>
			<trkpt lat="60.224565" lon="29.802305"><time>1970-01-01T00:00:01.000Z</time></trkpt>
			<trkpt lat="60.224930" lon="29.802284"><time>1970-01-01T00:00:01.000Z</time></trkpt>
			<trkpt lat="60.225316" lon="29.802026"><time>1970-01-01T00:00:01.000Z</time></trkpt>
			<trkpt lat="60.225595" lon="29.801597"><time>1970-01-01T00:00:01.000Z</time></trkpt>
			<trkpt lat="60.225853" lon="29.800846"><time>1970-01-01T00:00:01.000Z</time></trkpt>
			<trkpt lat="60.225917" lon="29.800395"><time>1970-01-01T00:00:01.000Z</time></trkpt>
			<trkpt lat="60.225896" lon="29.800052"><time>1970-01-01T00:00:01.000Z</time></trkpt>
			<trkpt lat="60.225402" lon="29.798142"><time>1970-01-01T00:00:01.000Z</time></trkpt>
			<trkpt lat="60.225617" lon="29.797327"><time>1970-01-01T00:00:01.000Z</time></trkpt>
			<trkpt lat="60.225617" lon="29.796619"><time>1970-01-01T00:00:01.000Z</time></trkpt>
			<trkpt lat="60.225552" lon="29.796404"><time>1970-01-01T00:00:01.000Z</time></trkpt>
			<trkpt lat="60.225359" lon="29.796297"><time>1970-01-01T00:00:01.000Z</time></trkpt>
			<trkpt lat="60.225295" lon="29.796125"><time>1970-01-01T00:00:01.000Z</time></trkpt>
			<trkpt lat="60.225209" lon="29.796190"><time>1970-01-01T00:00:01.000Z</time></trkpt>
			<trkpt lat="60.225102" lon="29.795868"><time>1970-01-01T00:00:01.000Z</time></trkpt>
			<trkpt lat="60.225188" lon="29.795160"><time>1970-01-01T00:00:01.000Z</time></trkpt>
			<trkpt lat="60.225295" lon="29.795031"><time>1970-01-01T00:00:01.000Z</time></trkpt>
			<trkpt lat="60.225402" lon="29.795203"><time>1970-01-01T00:00:01.000Z</time></trkpt>
			<trkpt lat="60.225552" lon="29.795095"><time>1970-01-01T00:00:01.000Z</time></trkpt>
			<trkpt lat="60.225617" lon="29.794967"><time>1970-01-01T00:00:01.000Z</time></trkpt>
			<trkpt lat="60.225595" lon="29.794752"><time>1970-01-01T00:00:01.000Z</time></trkpt>
			<trkpt lat="60.225338" lon="29.794280"><time>1970-01-01T00:00:01.000Z</time></trkpt>
			<trkpt lat="60.225252" lon="29.794280"><time>1970-01-01T00:00:01.000Z</time></trkpt>
			<trkpt lat="60.224973" lon="29.794452"><time>1970-01-01T00:00:01.000Z</time></trkpt>
			<trkpt lat="60.224630" lon="29.793572"><time>1970-01-01T00:00:01.000Z</time></trkpt>
			<trkpt lat="60.224286" lon="29.793550"><time>1970-01-01T00:00:01.000Z</time></trkpt>
			<trkpt lat="60.224286" lon="29.793379"><time>1970-01-01T00:00:01.000Z</time></trkpt>
			<trkpt lat="60.224179" lon="29.793164"><time>1970-01-01T00:00:01.000Z</time></trkpt>
			<trkpt lat="60.224115" lon="29.792885"><time>1970-01-01T00:00:01.000Z</time></trkpt>
			<trkpt lat="60.223879" lon="29.791083"><time>1970-01-01T00:00:01.000Z</time></trkpt>
			<trkpt lat="60.223728" lon="29.790718"><time>1970-01-01T00:00:01.000Z</time></trkpt>
			<trkpt lat="60.223321" lon="29.790332"><time>1970-01-01T00:00:01.000Z</time></trkpt>
			<trkpt lat="60.222913" lon="29.790439"><time>1970-01-01T00:00:01.000Z</time></trkpt>
			<trkpt lat="60.222183" lon="29.790761"><time>1970-01-01T00:00:01.000Z</time></trkpt>
			<trkpt lat="60.221304" lon="29.791018"><time>1970-01-01T00:00:01.000Z</time></trkpt>
			<trkpt lat="60.220939" lon="29.791018"><time>1970-01-01T00:00:01.000Z</time></trkpt>
			<trkpt lat="60.220445" lon="29.790396"><time>1970-01-01T00:00:01.000Z</time></trkpt>
			<trkpt lat="60.219008" lon="29.787328"><time>1970-01-01T00:00:01.000Z</time></trkpt>
			<trkpt lat="60.218471" lon="29.786383"><time>1970-01-01T00:00:01.000Z</time></trkpt>
			<trkpt lat="60.217999" lon="29.784796"><time>1970-01-01T00:00:01.000Z</time></trkpt>
			<trkpt lat="60.217870" lon="29.784495"><time>1970-01-01T00:00:01.000Z</time></trkpt>
			<trkpt lat="60.217634" lon="29.784495"><time>1970-01-01T00:00:01.000Z</time></trkpt>
			<trkpt lat="60.217377" lon="29.784066"><time>1970-01-01T00:00:01.000Z</time></trkpt>
			<trkpt lat="60.217227" lon="29.783487"><time>1970-01-01T00:00:01.000Z</time></trkpt>
			<trkpt lat="60.217184" lon="29.782628"><time>1970-01-01T00:00:01.000Z</time></trkpt>
			<trkpt lat="60.216991" lon="29.781813"><time>1970-01-01T00:00:01.000Z</time></trkpt>
			<trkpt lat="60.216647" lon="29.781105"><time>1970-01-01T00:00:01.000Z</time></trkpt>
			<trkpt lat="60.216540" lon="29.780268"><time>1970-01-01T00:00:01.000Z</time></trkpt>
			<trkpt lat="60.216283" lon="29.779732"><time>1970-01-01T00:00:01.000Z</time></trkpt>
			<trkpt lat="60.216283" lon="29.779088"><time>1970-01-01T00:00:01.000Z</time></trkpt>
			<trkpt lat="60.216583" lon="29.777886"><time>1970-01-01T00:00:01.000Z</time></trkpt>
			<trkpt lat="60.216776" lon="29.776663"><time>1970-01-01T00:00:01.000Z</time></trkpt>
			<trkpt lat="60.217012" lon="29.774861"><time>1970-01-01T00:00:01.000Z</time></trkpt>
			<trkpt lat="60.217119" lon="29.773616"><time>1970-01-01T00:00:01.000Z</time></trkpt>
			<trkpt lat="60.216819" lon="29.772415"><time>1970-01-01T00:00:01.000Z</time></trkpt>
			<trkpt lat="60.216519" lon="29.771792"><time>1970-01-01T00:00:01.000Z</time></trkpt>
			<trkpt lat="60.216240" lon="29.771363"><time>1970-01-01T00:00:01.000Z</time></trkpt>
			<trkpt lat="60.216068" lon="29.771363"><time>1970-01-01T00:00:01.000Z</time></trkpt>
			<trkpt lat="60.215403" lon="29.771642"><time>1970-01-01T00:00:01.000Z</time></trkpt>
			<trkpt lat="60.215296" lon="29.771578"><time>1970-01-01T00:00:01.000Z</time></trkpt>
			<trkpt lat="60.215231" lon="29.771599"><time>1970-01-01T00:00:01.000Z</time></trkpt>
			<trkpt lat="60.215102" lon="29.771470"><time>1970-01-01T00:00:01.000Z</time></trkpt>
			<trkpt lat="60.214781" lon="29.771320"><time>1970-01-01T00:00:01.000Z</time></trkpt>
			<trkpt lat="60.214630" lon="29.771084"><time>1970-01-01T00:00:01.000Z</time></trkpt>
			<trkpt lat="60.214309" lon="29.770848"><time>1970-01-01T00:00:01.000Z</time></trkpt>
			<trkpt lat="60.213965" lon="29.770655"><time>1970-01-01T00:00:01.000Z</time></trkpt>
			<trkpt lat="60.213815" lon="29.770612"><time>1970-01-01T00:00:01.000Z</time></trkpt>
			<trkpt lat="60.213557" lon="29.770569"><time>1970-01-01T00:00:01.000Z</time></trkpt>
			<trkpt lat="60.213085" lon="29.770827"><time>1970-01-01T00:00:01.000Z</time></trkpt>
			<trkpt lat="60.212892" lon="29.772071"><time>1970-01-01T00:00:01.000Z</time></trkpt>
			<trkpt lat="60.212914" lon="29.772500"><time>1970-01-01T00:00:01.000Z</time></trkpt>
			<trkpt lat="60.213021" lon="29.773037"><time>1970-01-01T00:00:01.000Z</time></trkpt>
			<trkpt lat="60.212935" lon="29.774560"><time>1970-01-01T00:00:01.000Z</time></trkpt>
			<trkpt lat="60.212978" lon="29.775226"><time>1970-01-01T00:00:01.000Z</time></trkpt>
			<trkpt lat="60.212957" lon="29.775762"><time>1970-01-01T00:00:01.000Z</time></trkpt>
			<trkpt lat="60.212764" lon="29.776663"><time>1970-01-01T00:00:01.000Z</time></trkpt>
			<trkpt lat="60.212613" lon="29.777114"><time>1970-01-01T00:00:01.000Z</time></trkpt>
			<trkpt lat="60.212528" lon="29.777178"><time>1970-01-01T00:00:01.000Z</time></trkpt>
			<trkpt lat="60.212270" lon="29.777758"><time>1970-01-01T00:00:01.000Z</time></trkpt>
			<trkpt lat="60.211605" lon="29.778315"><time>1970-01-01T00:00:01.000Z</time></trkpt>
			<trkpt lat="60.211433" lon="29.778702"><time>1970-01-01T00:00:01.000Z</time></trkpt>
			<trkpt lat="60.211133" lon="29.779581"><time>1970-01-01T00:00:01.000Z</time></trkpt>
			<trkpt lat="60.211025" lon="29.780118"><time>1970-01-01T00:00:01.000Z</time></trkpt>
			<trkpt lat="60.210940" lon="29.780998"><time>1970-01-01T00:00:01.000Z</time></trkpt>
			<trkpt lat="60.210811" lon="29.781577"><time>1970-01-01T00:00:01.000Z</time></trkpt>
			<trkpt lat="60.210296" lon="29.782199"><time>1970-01-01T00:00:01.000Z</time></trkpt>
			<trkpt lat="60.209910" lon="29.781062"><time>1970-01-01T00:00:01.000Z</time></trkpt>
			<trkpt lat="60.209609" lon="29.780633"><time>1970-01-01T00:00:01.000Z</time></trkpt>
			<trkpt lat="60.209287" lon="29.779860"><time>1970-01-01T00:00:01.000Z</time></trkpt>
			<trkpt lat="60.208880" lon="29.779109"><time>1970-01-01T00:00:01.000Z</time></trkpt>
			<trkpt lat="60.208064" lon="29.778187"><time>1970-01-01T00:00:01.000Z</time></trkpt>
			<trkpt lat="60.206884" lon="29.776062"><time>1970-01-01T00:00:01.000Z</time></trkpt>
			<trkpt lat="60.206326" lon="29.775526"><time>1970-01-01T00:00:01.000Z</time></trkpt>
			<trkpt lat="60.206176" lon="29.775161"><time>1970-01-01T00:00:01.000Z</time></trkpt>
			<trkpt lat="60.205919" lon="29.774346"><time>1970-01-01T00:00:01.000Z</time></trkpt>
			<trkpt lat="60.205640" lon="29.772951"><time>1970-01-01T00:00:01.000Z</time></trkpt>
			<trkpt lat="60.205554" lon="29.771556"><time>1970-01-01T00:00:01.000Z</time></trkpt>
			<trkpt lat="60.203837" lon="29.768166"><time>1970-01-01T00:00:01.000Z</time></trkpt>
			<trkpt lat="60.203236" lon="29.766728"><time>1970-01-01T00:00:01.000Z</time></trkpt>
			<trkpt lat="60.201198" lon="29.764325"><time>1970-01-01T00:00:01.000Z</time></trkpt>
			<trkpt lat="60.200597" lon="29.763746"><time>1970-01-01T00:00:01.000Z</time></trkpt>
			<trkpt lat="60.199975" lon="29.763274"><time>1970-01-01T00:00:01.000Z</time></trkpt>
			<trkpt lat="60.199251" lon="29.762537"><time>1970-01-01T00:00:01.000Z</time></trkpt>
			<trkpt lat="60.199052" lon="29.762158"><time>1970-01-01T00:00:01.000Z</time></trkpt>
			<trkpt lat="60.198795" lon="29.761514"><time>1970-01-01T00:00:01.000Z</time></trkpt>
			<trkpt lat="60.198644" lon="29.761407"><time>1970-01-01T00:00:01.000Z</time></trkpt>
			<trkpt lat="60.198301" lon="29.760999"><time>1970-01-01T00:00:01.000Z</time></trkpt>
			<trkpt lat="60.197850" lon="29.760677"><time>1970-01-01T00:00:01.000Z</time></trkpt>
			<trkpt lat="60.197057" lon="29.760634"><time>1970-01-01T00:00:01.000Z</time></trkpt>
			<trkpt lat="60.196370" lon="29.759025"><time>1970-01-01T00:00:01.000Z</time></trkpt>
			<trkpt lat="60.196134" lon="29.758381"><time>1970-01-01T00:00:01.000Z</time></trkpt>
			<trkpt lat="60.195984" lon="29.756815"><time>1970-01-01T00:00:01.000Z</time></trkpt>
			<trkpt lat="60.195318" lon="29.753832"><time>1970-01-01T00:00:01.000Z</time></trkpt>
			<trkpt lat="60.195254" lon="29.753982"><time>1970-01-01T00:00:01.000Z</time></trkpt>
			<trkpt lat="60.195104" lon="29.753789"><time>1970-01-01T00:00:01.000Z</time></trkpt>
			<trkpt lat="60.194932" lon="29.753425"><time>1970-01-01T00:00:01.000Z</time></trkpt>
			<trkpt lat="60.195018" lon="29.752910"><time>1970-01-01T00:00:01.000Z</time></trkpt>
			<trkpt lat="60.194696" lon="29.752588"><time>1970-01-01T00:00:01.000Z</time></trkpt>
			<trkpt lat="60.194224" lon="29.750356"><time>1970-01-01T00:00:01.000Z</time></trkpt>
			<trkpt lat="60.194052" lon="29.750249"><time>1970-01-01T00:00:01.000Z</time></trkpt>
			<trkpt lat="60.193216" lon="29.749519"><time>1970-01-01T00:00:01.000Z</time></trkpt>
			<trkpt lat="60.192765" lon="29.750141"><time>1970-01-01T00:00:01.000Z</time></trkpt>
			<trkpt lat="60.191177" lon="29.749219"><time>1970-01-01T00:00:01.000Z</time></trkpt>
			<trkpt lat="60.189718" lon="29.760463"><time>1970-01-01T00:00:01.000Z</time></trkpt>
			<trkpt lat="60.189546" lon="29.760699"><time>1970-01-01T00:00:01.000Z</time></trkpt>
			<trkpt lat="60.189160" lon="29.760849"><time>1970-01-01T00:00:01.000Z</time></trkpt>
			<trkpt lat="60.188988" lon="29.760784"><time>1970-01-01T00:00:01.000Z</time></trkpt>
			<trkpt lat="60.188516" lon="29.759647"><time>1970-01-01T00:00:01.000Z</time></trkpt>
			<trkpt lat="60.187958" lon="29.758982"><time>1970-01-01T00:00:01.000Z</time></trkpt>
			<trkpt lat="60.186778" lon="29.758059"><time>1970-01-01T00:00:01.000Z</time></trkpt>
			<trkpt lat="60.185791" lon="29.757201"><time>1970-01-01T00:00:01.000Z</time></trkpt>
			<trkpt lat="60.185190" lon="29.756536"><time>1970-01-01T00:00:01.000Z</time></trkpt>
			<trkpt lat="60.185126" lon="29.756343"><time>1970-01-01T00:00:01.000Z</time></trkpt>
			<trkpt lat="60.185040" lon="29.756536"><time>1970-01-01T00:00:01.000Z</time></trkpt>
			<trkpt lat="60.184847" lon="29.756107"><time>1970-01-01T00:00:01.000Z</time></trkpt>
			<trkpt lat="60.184289" lon="29.757544"><time>1970-01-01T00:00:01.000Z</time></trkpt>
			<trkpt lat="60.183131" lon="29.760055"><time>1970-01-01T00:00:01.000Z</time></trkpt>
			<trkpt lat="60.182809" lon="29.760978"><time>1970-01-01T00:00:01.000Z</time></trkpt>
			<trkpt lat="60.182594" lon="29.761879"><time>1970-01-01T00:00:01.000Z</time></trkpt>
			<trkpt lat="60.182358" lon="29.762523"><time>1970-01-01T00:00:01.000Z</time></trkpt>
			<trkpt lat="60.182251" lon="29.763188"><time>1970-01-01T00:00:01.000Z</time></trkpt>
			<trkpt lat="60.181736" lon="29.765033"><time>1970-01-01T00:00:01.000Z</time></trkpt>
			<trkpt lat="60.181628" lon="29.765655"><time>1970-01-01T00:00:01.000Z</time></trkpt>
			<trkpt lat="60.181478" lon="29.767565"><time>1970-01-01T00:00:01.000Z</time></trkpt>
			<trkpt lat="60.180877" lon="29.770612"><time>1970-01-01T00:00:01.000Z</time></trkpt>
			<trkpt lat="60.180663" lon="29.772908"><time>1970-01-01T00:00:01.000Z</time></trkpt>
			<trkpt lat="60.180341" lon="29.774582"><time>1970-01-01T00:00:01.000Z</time></trkpt>
			<trkpt lat="60.180362" lon="29.774818"><time>1970-01-01T00:00:01.000Z</time></trkpt>
			<trkpt lat="60.180105" lon="29.776770"><time>1970-01-01T00:00:01.000Z</time></trkpt>
			<trkpt lat="60.179225" lon="29.780204"><time>1970-01-01T00:00:01.000Z</time></trkpt>
			<trkpt lat="60.178818" lon="29.781663"><time>1970-01-01T00:00:01.000Z</time></trkpt>
			<trkpt lat="60.178603" lon="29.782221"><time>1970-01-01T00:00:01.000Z</time></trkpt>
			<trkpt lat="60.178431" lon="29.782993"><time>1970-01-01T00:00:01.000Z</time></trkpt>
			<trkpt lat="60.177101" lon="29.792392"><time>1970-01-01T00:00:01.000Z</time></trkpt>
			<trkpt lat="60.176715" lon="29.794602"><time>1970-01-01T00:00:01.000Z</time></trkpt>
			<trkpt lat="60.176007" lon="29.797434"><time>1970-01-01T00:00:01.000Z</time></trkpt>
			<trkpt lat="60.178882" lon="29.799773"><time>1970-01-01T00:00:01.000Z</time></trkpt>
			<trkpt lat="60.180599" lon="29.801061"><time>1970-01-01T00:00:01.000Z</time></trkpt>
			<trkpt lat="60.182422" lon="29.802541"><time>1970-01-01T00:00:01.000Z</time></trkpt>
			<trkpt lat="60.184182" lon="29.803850"><time>1970-01-01T00:00:01.000Z</time></trkpt>
			<trkpt lat="60.183131" lon="29.809729"><time>1970-01-01T00:00:01.000Z</time></trkpt>
			<trkpt lat="60.184182" lon="29.810352"><time>1970-01-01T00:00:01.000Z</time></trkpt>
			<trkpt lat="60.184118" lon="29.810888"><time>1970-01-01T00:00:01.000Z</time></trkpt>
		</trkseg>
		<trkseg>
			<trkpt lat="60.199243" lon="29.762548"><time>1970-01-01T00:00:01.000Z</time></trkpt>
			<trkpt lat="60.199290" lon="29.762497"><time>1970-01-01T00:00:01.000Z</time></trkpt>
		</trkseg>
		<trkseg>
			<trkpt lat="60.209238" lon="29.756558"><time>1970-01-01T00:00:01.000Z</time></trkpt>
			<trkpt lat="60.208998" lon="29.757309"><time>1970-01-01T00:00:01.000Z</time></trkpt>
			<trkpt lat="60.208873" lon="29.757486"><time>1970-01-01T00:00:01.000Z</time></trkpt>
			<trkpt lat="60.208590" lon="29.757626"><time>1970-01-01T00:00:01.000Z</time></trkpt>
			<trkpt lat="60.208382" lon="29.757873"><time>1970-01-01T00:00:01.000Z</time></trkpt>
			<trkpt lat="60.208095" lon="29.759316"><time>1970-01-01T00:00:01.000Z</time></trkpt>
			<trkpt lat="60.208029" lon="29.760045"><time>1970-01-01T00:00:01.000Z</time></trkpt>
			<trkpt lat="60.208477" lon="29.762416"><time>1970-01-01T00:00:01.000Z</time></trkpt>
			<trkpt lat="60.208437" lon="29.762843"><time>1970-01-01T00:00:01.000Z</time></trkpt>
			<trkpt lat="60.207885" lon="29.763894"><time>1970-01-01T00:00:01.000Z</time></trkpt>
			<trkpt lat="60.207592" lon="29.764602"><time>1970-01-01T00:00:01.000Z</time></trkpt>
			<trkpt lat="60.207419" lon="29.765342"><time>1970-01-01T00:00:01.000Z</time></trkpt>
			<trkpt lat="60.207395" lon="29.765782"><time>1970-01-01T00:00:01.000Z</time></trkpt>
			<trkpt lat="60.207464" lon="29.766346"><time>1970-01-01T00:00:01.000Z</time></trkpt>
			<trkpt lat="60.207875" lon="29.767671"><time>1970-01-01T00:00:01.000Z</time></trkpt>
			<trkpt lat="60.208096" lon="29.768996"><time>1970-01-01T00:00:01.000Z</time></trkpt>
			<trkpt lat="60.208394" lon="29.770192"><time>1970-01-01T00:00:01.000Z</time></trkpt>
			<trkpt lat="60.208554" lon="29.771994"><time>1970-01-01T00:00:01.000Z</time></trkpt>
			<trkpt lat="60.208637" lon="29.772257"><time>1970-01-01T00:00:01.000Z</time></trkpt>
			<trkpt lat="60.208860" lon="29.773601"><time>1970-01-01T00:00:01.000Z</time></trkpt>
			<trkpt lat="60.209389" lon="29.774805"><time>1970-01-01T00:00:01.000Z</time></trkpt>
			<trkpt lat="60.209532" lon="29.775277"><time>1970-01-01T00:00:01.000Z</time></trkpt>
			<trkpt lat="60.209679" lon="29.776066"><time>1970-01-01T00:00:01.000Z</time></trkpt>
			<trkpt lat="60.209763" lon="29.777147"><time>1970-01-01T00:00:01.000Z</time></trkpt>
			<trkpt lat="60.209778" lon="29.778121"><time>1970-01-01T00:00:01.000Z</time></trkpt>
			<trkpt lat="60.209999" lon="29.779864"><time>1970-01-01T00:00:01.000Z</time></trkpt>
			<trkpt lat="60.210010" lon="29.780288"><time>1970-01-01T00:00:01.000Z</time></trkpt>
			<trkpt lat="60.209980" lon="29.780508"><time>1970-01-01T00:00:01.000Z</time></trkpt>
			<trkpt lat="60.209839" lon="29.780953"><time>1970-01-01T00:00:01.000Z</time></trkpt>
		</trkseg>
		<trkseg>
			<trkpt lat="60.227054" lon="29.759806"><time>1970-01-01T00:00:01.000Z</time></trkpt>
			<trkpt lat="60.227110" lon="29.759694"><time>1970-01-01T00:00:01.000Z</time></trkpt>
			<trkpt lat="60.227115" lon="29.759275"><time>1970-01-01T00:00:01.000Z</time></trkpt>
			<trkpt lat="60.227334" lon="29.758996"><time>1970-01-01T00:00:01.000Z</time></trkpt>
			<trkpt lat="60.227507" lon="29.758417"><time>1970-01-01T00:00:01.000Z</time></trkpt>
			<trkpt lat="60.227723" lon="29.757988"><time>1970-01-01T00:00:01.000Z</time></trkpt>
			<trkpt lat="60.227813" lon="29.757559"><time>1970-01-01T00:00:01.000Z</time></trkpt>
			<trkpt lat="60.228298" lon="29.757022"><time>1970-01-01T00:00:01.000Z</time></trkpt>
			<trkpt lat="60.228895" lon="29.756615"><time>1970-01-01T00:00:01.000Z</time></trkpt>
			<trkpt lat="60.229060" lon="29.756379"><time>1970-01-01T00:00:01.000Z</time></trkpt>
			<trkpt lat="60.229337" lon="29.756368"><time>1970-01-01T00:00:01.000Z</time></trkpt>
			<trkpt lat="60.229622" lon="29.756706"><time>1970-01-01T00:00:01.000Z</time></trkpt>
			<trkpt lat="60.229691" lon="29.756577"><time>1970-01-01T00:00:01.000Z</time></trkpt>
			<trkpt lat="60.229878" lon="29.756598"><time>1970-01-01T00:00:01.000Z</time></trkpt>
			<trkpt lat="60.230203" lon="29.756899"><time>1970-01-01T00:00:01.000Z</time></trkpt>
			<trkpt lat="60.230235" lon="29.758519"><time>1970-01-01T00:00:01.000Z</time></trkpt>
		</trkseg>
		<trkseg>
			<trkpt lat="60.199250" lon="29.762553"><time>1970-01-01T00:00:01.000Z</time></trkpt>
			<trkpt lat="60.199352" lon="29.762424"><time>1970-01-01T00:00:01.000Z</time></trkpt>
			<trkpt lat="60.199558" lon="29.762258"><time>1970-01-01T00:00:01.000Z</time></trkpt>
			<trkpt lat="60.199926" lon="29.761646"><time>1970-01-01T00:00:01.000Z</time></trkpt>
			<trkpt lat="60.200243" lon="29.760579"><time>1970-01-01T00:00:01.000Z</time></trkpt>
			<trkpt lat="60.200578" lon="29.759844"><time>1970-01-01T00:00:01.000Z</time></trkpt>
			<trkpt lat="60.200959" lon="29.757982"><time>1970-01-01T00:00:01.000Z</time></trkpt>
			<trkpt lat="60.201073" lon="29.757720"><time>1970-01-01T00:00:01.000Z</time></trkpt>
			<trkpt lat="60.201472" lon="29.757017"><time>1970-01-01T00:00:01.000Z</time></trkpt>
			<trkpt lat="60.201808" lon="29.756674"><time>1970-01-01T00:00:01.000Z</time></trkpt>
			<trkpt lat="60.202016" lon="29.755944"><time>1970-01-01T00:00:01.000Z</time></trkpt>
			<trkpt lat="60.202269" lon="29.754587"><time>1970-01-01T00:00:01.000Z</time></trkpt>
			<trkpt lat="60.202357" lon="29.754313"><time>1970-01-01T00:00:01.000Z</time></trkpt>
			<trkpt lat="60.202600" lon="29.754485"><time>1970-01-01T00:00:01.000Z</time></trkpt>
			<trkpt lat="60.202834" lon="29.754748"><time>1970-01-01T00:00:01.000Z</time></trkpt>
			<trkpt lat="60.203018" lon="29.754732"><time>1970-01-01T00:00:01.000Z</time></trkpt>
			<trkpt lat="60.203223" lon="29.754555"><time>1970-01-01T00:00:01.000Z</time></trkpt>
			<trkpt lat="60.203847" lon="29.753530"><time>1970-01-01T00:00:01.000Z</time></trkpt>
			<trkpt lat="60.203892" lon="29.753321"><time>1970-01-01T00:00:01.000Z</time></trkpt>
			<trkpt lat="60.203932" lon="29.752328"><time>1970-01-01T00:00:01.000Z</time></trkpt>
			<trkpt lat="60.203868" lon="29.751400"><time>1970-01-01T00:00:01.000Z</time></trkpt>
			<trkpt lat="60.203783" lon="29.750987"><time>1970-01-01T00:00:01.000Z</time></trkpt>
			<trkpt lat="60.203834" lon="29.750719"><time>1970-01-01T00:00:01.000Z</time></trkpt>
			<trkpt lat="60.204530" lon="29.748622"><time>1970-01-01T00:00:01.000Z</time></trkpt>
			<trkpt lat="60.205151" lon="29.746433"><time>1970-01-01T00:00:01.000Z</time></trkpt>
			<trkpt lat="60.205617" lon="29.745811"><time>1970-01-01T00:00:01.000Z</time></trkpt>
			<trkpt lat="60.206350" lon="29.745628"><time>1970-01-01T00:00:01.000Z</time></trkpt>
			<trkpt lat="60.207192" lon="29.744507"><time>1970-01-01T00:00:01.000Z</time></trkpt>
			<trkpt lat="60.207544" lon="29.744545"><time>1970-01-01T00:00:01.000Z</time></trkpt>
			<trkpt lat="60.208080" lon="29.744453"><time>1970-01-01T00:00:01.000Z</time></trkpt>
			<trkpt lat="60.208139" lon="29.744722"><time>1970-01-01T00:00:01.000Z</time></trkpt>
			<trkpt lat="60.208354" lon="29.745204"><time>1970-01-01T00:00:01.000Z</time></trkpt>
			<trkpt lat="60.208530" lon="29.746261"><time>1970-01-01T00:00:01.000Z</time></trkpt>
			<trkpt lat="60.209149" lon="29.747806"><time>1970-01-01T00:00:01.000Z</time></trkpt>
			<trkpt lat="60.209826" lon="29.748825"><time>1970-01-01T00:00:01.000Z</time></trkpt>
			<trkpt lat="60.209932" lon="29.748906"><time>1970-01-01T00:00:01.000Z</time></trkpt>
			<trkpt lat="60.210108" lon="29.748815"><time>1970-01-01T00:00:01.000Z</time></trkpt>
			<trkpt lat="60.210271" lon="29.748863"><time>1970-01-01T00:00:01.000Z</time></trkpt>
			<trkpt lat="60.210343" lon="29.749040"><time>1970-01-01T00:00:01.000Z</time></trkpt>
			<trkpt lat="60.210375" lon="29.749244"><time>1970-01-01T00:00:01.000Z</time></trkpt>
			<trkpt lat="60.209948" lon="29.751298"><time>1970-01-01T00:00:01.000Z</time></trkpt>
			<trkpt lat="60.209752" lon="29.752699"><time>1970-01-01T00:00:01.000Z</time></trkpt>
			<trkpt lat="60.209630" lon="29.753187"><time>1970-01-01T00:00:01.000Z</time></trkpt>
			<trkpt lat="60.209267" lon="29.753423"><time>1970-01-01T00:00:01.000Z</time></trkpt>
			<trkpt lat="60.208877" lon="29.753600"><time>1970-01-01T00:00:01.000Z</time></trkpt>
			<trkpt lat="60.209087" lon="29.754399"><time>1970-01-01T00:00:01.000Z</time></trkpt>
			<trkpt lat="60.209127" lon="29.754667"><time>1970-01-01T00:00:01.000Z</time></trkpt>
			<trkpt lat="60.209237" lon="29.756542"><time>1970-01-01T00:00:01.000Z</time></trkpt>
			<trkpt lat="60.209975" lon="29.757312"><time>1970-01-01T00:00:01.000Z</time></trkpt>
			<trkpt lat="60.210516" lon="29.757231"><time>1970-01-01T00:00:01.000Z</time></trkpt>
			<trkpt lat="60.210681" lon="29.757253"><time>1970-01-01T00:00:01.000Z</time></trkpt>
			<trkpt lat="60.210929" lon="29.757371"><time>1970-01-01T00:00:01.000Z</time></trkpt>
			<trkpt lat="60.211510" lon="29.757296"><time>1970-01-01T00:00:01.000Z</time></trkpt>
			<trkpt lat="60.211998" lon="29.758133"><time>1970-01-01T00:00:01.000Z</time></trkpt>
			<trkpt lat="60.212994" lon="29.757146"><time>1970-01-01T00:00:01.000Z</time></trkpt>
			<trkpt lat="60.213335" lon="29.756733"><time>1970-01-01T00:00:01.000Z</time></trkpt>
			<trkpt lat="60.213407" lon="29.756722"><time>1970-01-01T00:00:01.000Z</time></trkpt>
			<trkpt lat="60.213714" lon="29.758433"><time>1970-01-01T00:00:01.000Z</time></trkpt>
			<trkpt lat="60.213852" lon="29.758852"><time>1970-01-01T00:00:01.000Z</time></trkpt>
			<trkpt lat="60.214409" lon="29.759409"><time>1970-01-01T00:00:01.000Z</time></trkpt>
			<trkpt lat="60.214605" lon="29.759839"><time>1970-01-01T00:00:01.000Z</time></trkpt>
			<trkpt lat="60.214720" lon="29.760246"><time>1970-01-01T00:00:01.000Z</time></trkpt>
			<trkpt lat="60.214693" lon="29.760960"><time>1970-01-01T00:00:01.000Z</time></trkpt>
			<trkpt lat="60.214603" lon="29.761244"><time>1970-01-01T00:00:01.000Z</time></trkpt>
			<trkpt lat="60.214751" lon="29.761410"><time>1970-01-01T00:00:01.000Z</time></trkpt>
			<trkpt lat="60.219664" lon="29.765080"><time>1970-01-01T00:00:01.000Z</time></trkpt>
			<trkpt lat="60.220684" lon="29.765938"><time>1970-01-01T00:00:01.000Z</time></trkpt>
			<trkpt lat="60.220874" lon="29.765916"><time>1970-01-01T00:00:01.000Z</time></trkpt>
			<trkpt lat="60.221017" lon="29.765788"><time>1970-01-01T00:00:01.000Z</time></trkpt>
			<trkpt lat="60.221366" lon="29.765203"><time>1970-01-01T00:00:01.000Z</time></trkpt>
			<trkpt lat="60.221686" lon="29.765037"><time>1970-01-01T00:00:01.000Z</time></trkpt>
			<trkpt lat="60.221894" lon="29.764747"><time>1970-01-01T00:00:01.000Z</time></trkpt>
			<trkpt lat="60.222099" lon="29.764141"><time>1970-01-01T00:00:01.000Z</time></trkpt>
			<trkpt lat="60.222208" lon="29.764007"><time>1970-01-01T00:00:01.000Z</time></trkpt>
			<trkpt lat="60.222366" lon="29.763948"><time>1970-01-01T00:00:01.000Z</time></trkpt>
			<trkpt lat="60.222989" lon="29.764372"><time>1970-01-01T00:00:01.000Z</time></trkpt>
			<trkpt lat="60.223706" lon="29.764468"><time>1970-01-01T00:00:01.000Z</time></trkpt>
			<trkpt lat="60.223980" lon="29.764431"><time>1970-01-01T00:00:01.000Z</time></trkpt>
			<trkpt lat="60.224601" lon="29.764082"><time>1970-01-01T00:00:01.000Z</time></trkpt>
			<trkpt lat="60.224809" lon="29.763921"><time>1970-01-01T00:00:01.000Z</time></trkpt>
			<trkpt lat="60.224923" lon="29.763798"><time>1970-01-01T00:00:01.000Z</time></trkpt>
			<trkpt lat="60.224979" lon="29.763674"><time>1970-01-01T00:00:01.000Z</time></trkpt>
			<trkpt lat="60.225291" lon="29.763320"><time>1970-01-01T00:00:01.000Z</time></trkpt>
			<trkpt lat="60.225608" lon="29.762478"><time>1970-01-01T00:00:01.000Z</time></trkpt>
			<trkpt lat="60.225925" lon="29.761963"><time>1970-01-01T00:00:01.000Z</time></trkpt>
			<trkpt lat="60.226447" lon="29.761625"><time>1970-01-01T00:00:01.000Z</time></trkpt>
			<trkpt lat="60.226617" lon="29.761598"><time>1970-01-01T00:00:01.000Z</time></trkpt>
			<trkpt lat="60.226772" lon="29.761636"><time>1970-01-01T00:00:01.000Z</time></trkpt>
			<trkpt lat="60.226902" lon="29.761721"><time>1970-01-01T00:00:01.000Z</time></trkpt>
			<trkpt lat="60.227113" lon="29.761555"><time>1970-01-01T00:00:01.000Z</time></trkpt>
			<trkpt lat="60.227211" lon="29.761367"><time>1970-01-01T00:00:01.000Z</time></trkpt>
			<trkpt lat="60.226913" lon="29.760144"><time>1970-01-01T00:00:01.000Z</time></trkpt>
			<trkpt lat="60.227030" lon="29.759876"><time>1970-01-01T00:00:01.000Z</time></trkpt>
			<trkpt lat="60.227291" lon="29.760413"><time>1970-01-01T00:00:01.000Z</time></trkpt>
			<trkpt lat="60.227728" lon="29.760423"><time>1970-01-01T00:00:01.000Z</time></trkpt>
			<trkpt lat="60.228053" lon="29.760531"><time>1970-01-01T00:00:01.000Z</time></trkpt>
			<trkpt lat="60.228469" lon="29.760895"><time>1970-01-01T00:00:01.000Z</time></trkpt>
			<trkpt lat="60.229153" lon="29.760836"><time>1970-01-01T00:00:01.000Z</time></trkpt>
			<trkpt lat="60.229483" lon="29.760514"><time>1970-01-01T00:00:01.000Z</time></trkpt>
			<trkpt lat="60.229707" lon="29.759721"><time>1970-01-01T00:00:01.000Z</time></trkpt>
			<trkpt lat="60.230208" lon="29.758927"><time>1970-01-01T00:00:01.000Z</time></trkpt>
			<trkpt lat="60.230293" lon="29.758605"><time>1970-01-01T00:00:01.000Z</time></trkpt>
			<trkpt lat="60.230709" lon="29.759978"><time>1970-01-01T00:00:01.000Z</time></trkpt>
			<trkpt lat="60.230496" lon="29.760622"><time>1970-01-01T00:00:01.000Z</time></trkpt>
			<trkpt lat="60.229984" lon="29.761609"><time>1970-01-01T00:00:01.000Z</time></trkpt>
			<trkpt lat="60.230613" lon="29.762059"><time>1970-01-01T00:00:01.000Z</time></trkpt>
			<trkpt lat="60.233228" lon="29.764130"><time>1970-01-01T00:00:01.000Z</time></trkpt>
			<trkpt lat="60.234730" lon="29.765160"><time>1970-01-01T00:00:01.000Z</time></trkpt>
			<trkpt lat="60.234826" lon="29.766126"><time>1970-01-01T00:00:01.000Z</time></trkpt>
			<trkpt lat="60.235636" lon="29.769301"><time>1970-01-01T00:00:01.000Z</time></trkpt>
			<trkpt lat="60.236190" lon="29.770482"><time>1970-01-01T00:00:01.000Z</time></trkpt>
			<trkpt lat="60.236413" lon="29.772928"><time>1970-01-01T00:00:01.000Z</time></trkpt>
			<trkpt lat="60.236626" lon="29.773378"><time>1970-01-01T00:00:01.000Z</time></trkpt>
			<trkpt lat="60.237883" lon="29.771876"><time>1970-01-01T00:00:01.000Z</time></trkpt>
			<trkpt lat="60.238522" lon="29.771469"><time>1970-01-01T00:00:01.000Z</time></trkpt>
			<trkpt lat="60.239108" lon="29.771039"><time>1970-01-01T00:00:01.000Z</time></trkpt>
			<trkpt lat="60.240077" lon="29.769816"><time>1970-01-01T00:00:01.000Z</time></trkpt>
			<trkpt lat="60.240738" lon="29.768701"><time>1970-01-01T00:00:01.000Z</time></trkpt>
			<trkpt lat="60.241387" lon="29.769130"><time>1970-01-01T00:00:01.000Z</time></trkpt>
			<trkpt lat="60.242048" lon="29.770825"><time>1970-01-01T00:00:01.000Z</time></trkpt>
			<trkpt lat="60.241995" lon="29.772456"><time>1970-01-01T00:00:01.000Z</time></trkpt>
			<trkpt lat="60.242090" lon="29.774108"><time>1970-01-01T00:00:01.000Z</time></trkpt>
			<trkpt lat="60.242346" lon="29.774966"><time>1970-01-01T00:00:01.000Z</time></trkpt>
			<trkpt lat="60.242868" lon="29.775631"><time>1970-01-01T00:00:01.000Z</time></trkpt>
			<trkpt lat="60.243581" lon="29.775953"><time>1970-01-01T00:00:01.000Z</time></trkpt>
			<trkpt lat="60.243997" lon="29.775631"><time>1970-01-01T00:00:01.000Z</time></trkpt>
			<trkpt lat="60.244433" lon="29.774923"><time>1970-01-01T00:00:01.000Z</time></trkpt>
			<trkpt lat="60.244838" lon="29.773593"><time>1970-01-01T00:00:01.000Z</time></trkpt>
			<trkpt lat="60.245168" lon="29.773239"><time>1970-01-01T00:00:01.000Z</time></trkpt>
			<trkpt lat="60.245988" lon="29.773057"><time>1970-01-01T00:00:01.000Z</time></trkpt>
			<trkpt lat="60.247138" lon="29.773507"><time>1970-01-01T00:00:01.000Z</time></trkpt>
			<trkpt lat="60.247660" lon="29.773529"><time>1970-01-01T00:00:01.000Z</time></trkpt>
			<trkpt lat="60.248182" lon="29.774215"><time>1970-01-01T00:00:01.000Z</time></trkpt>
			<trkpt lat="60.247628" lon="29.774859"><time>1970-01-01T00:00:01.000Z</time></trkpt>
			<trkpt lat="60.247362" lon="29.775342"><time>1970-01-01T00:00:01.000Z</time></trkpt>
			<trkpt lat="60.247303" lon="29.776393"><time>1970-01-01T00:00:01.000Z</time></trkpt>
			<trkpt lat="60.247096" lon="29.776726"><time>1970-01-01T00:00:01.000Z</time></trkpt>
			<trkpt lat="60.247372" lon="29.777412"><time>1970-01-01T00:00:01.000Z</time></trkpt>
			<trkpt lat="60.247277" lon="29.778528"><time>1970-01-01T00:00:01.000Z</time></trkpt>
			<trkpt lat="60.247138" lon="29.779043"><time>1970-01-01T00:00:01.000Z</time></trkpt>
			<trkpt lat="60.246584" lon="29.780288"><time>1970-01-01T00:00:01.000Z</time></trkpt>
			<trkpt lat="60.246627" lon="29.780738"><time>1970-01-01T00:00:01.000Z</time></trkpt>
			<trkpt lat="60.247191" lon="29.781382"><time>1970-01-01T00:00:01.000Z</time></trkpt>
			<trkpt lat="60.247053" lon="29.782519"><time>1970-01-01T00:00:01.000Z</time></trkpt>
			<trkpt lat="60.247053" lon="29.783807"><time>1970-01-01T00:00:01.000Z</time></trkpt>
			<trkpt lat="60.247128" lon="29.784365"><time>1970-01-01T00:00:01.000Z</time></trkpt>
			<trkpt lat="60.247979" lon="29.784901"><time>1970-01-01T00:00:01.000Z</time></trkpt>
			<trkpt lat="60.248554" lon="29.784043"><time>1970-01-01T00:00:01.000Z</time></trkpt>
			<trkpt lat="60.248853" lon="29.783678"><time>1970-01-01T00:00:01.000Z</time></trkpt>
			<trkpt lat="60.250141" lon="29.783034"><time>1970-01-01T00:00:01.000Z</time></trkpt>
			<trkpt lat="60.250482" lon="29.783034"><time>1970-01-01T00:00:01.000Z</time></trkpt>
			<trkpt lat="60.251302" lon="29.783442"><time>1970-01-01T00:00:01.000Z</time></trkpt>
			<trkpt lat="60.252111" lon="29.783785"><time>1970-01-01T00:00:01.000Z</time></trkpt>
			<trkpt lat="60.252207" lon="29.784064"><time>1970-01-01T00:00:01.000Z</time></trkpt>
			<trkpt lat="60.254623" lon="29.784150"><time>1970-01-01T00:00:01.000Z</time></trkpt>
			<trkpt lat="60.255219" lon="29.784493"><time>1970-01-01T00:00:01.000Z</time></trkpt>
			<trkpt lat="60.257359" lon="29.786961"><time>1970-01-01T00:00:01.000Z</time></trkpt>
			<trkpt lat="60.257593" lon="29.788270"><time>1970-01-01T00:00:01.000Z</time></trkpt>
			<trkpt lat="60.257785" lon="29.790866"><time>1970-01-01T00:00:01.000Z</time></trkpt>
			<trkpt lat="60.257742" lon="29.791853"><time>1970-01-01T00:00:01.000Z</time></trkpt>
			<trkpt lat="60.257476" lon="29.792368"><time>1970-01-01T00:00:01.000Z</time></trkpt>
			<trkpt lat="60.257317" lon="29.793248"><time>1970-01-01T00:00:01.000Z</time></trkpt>
			<trkpt lat="60.257370" lon="29.793913"><time>1970-01-01T00:00:01.000Z</time></trkpt>
			<trkpt lat="60.257892" lon="29.794836"><time>1970-01-01T00:00:01.000Z</time></trkpt>
			<trkpt lat="60.257881" lon="29.795287"><time>1970-01-01T00:00:01.000Z</time></trkpt>
			<trkpt lat="60.257966" lon="29.795866"><time>1970-01-01T00:00:01.000Z</time></trkpt>
			<trkpt lat="60.257923" lon="29.798312"><time>1970-01-01T00:00:01.000Z</time></trkpt>
			<trkpt lat="60.257732" lon="29.801166"><time>1970-01-01T00:00:01.000Z</time></trkpt>
			<trkpt lat="60.257572" lon="29.801252"><time>1970-01-01T00:00:01.000Z</time></trkpt>
			<trkpt lat="60.257061" lon="29.802132"><time>1970-01-01T00:00:01.000Z</time></trkpt>
			<trkpt lat="60.256007" lon="29.804438"><time>1970-01-01T00:00:01.000Z</time></trkpt>
			<trkpt lat="60.255848" lon="29.805833"><time>1970-01-01T00:00:01.000Z</time></trkpt>
			<trkpt lat="60.255858" lon="29.807421"><time>1970-01-01T00:00:01.000Z</time></trkpt>
			<trkpt lat="60.255794" lon="29.808923"><time>1970-01-01T00:00:01.000Z</time></trkpt>
			<trkpt lat="60.255784" lon="29.810833"><time>1970-01-01T00:00:01.000Z</time></trkpt>
			<trkpt lat="60.256071" lon="29.811648"><time>1970-01-01T00:00:01.000Z</time></trkpt>
			<trkpt lat="60.256231" lon="29.812313"><time>1970-01-01T00:00:01.000Z</time></trkpt>
		</trkseg>
		<trkseg>
			<trkpt lat="60.217918" lon="29.784674"><time>1970-01-01T00:00:01.000Z</time></trkpt>
			<trkpt lat="60.218091" lon="29.784734"><time>1970-01-01T00:00:01.000Z</time></trkpt>
			<trkpt lat="60.218357" lon="29.784197"><time>1970-01-01T00:00:01.000Z</time></trkpt>
			<trkpt lat="60.218306" lon="29.783674"><time>1970-01-01T00:00:01.000Z</time></trkpt>
			<trkpt lat="60.218549" lon="29.783747"><time>1970-01-01T00:00:01.000Z</time></trkpt>
			<trkpt lat="60.218837" lon="29.782931"><time>1970-01-01T00:00:01.000Z</time></trkpt>
			<trkpt lat="60.218762" lon="29.782223"><time>1970-01-01T00:00:01.000Z</time></trkpt>
			<trkpt lat="60.218539" lon="29.780914"><time>1970-01-01T00:00:01.000Z</time></trkpt>
			<trkpt lat="60.218208" lon="29.779326"><time>1970-01-01T00:00:01.000Z</time></trkpt>
			<trkpt lat="60.218379" lon="29.777953"><time>1970-01-01T00:00:01.000Z</time></trkpt>
			<trkpt lat="60.218571" lon="29.777588"><time>1970-01-01T00:00:01.000Z</time></trkpt>
			<trkpt lat="60.218613" lon="29.777331"><time>1970-01-01T00:00:01.000Z</time></trkpt>
			<trkpt lat="60.218826" lon="29.776859"><time>1970-01-01T00:00:01.000Z</time></trkpt>
			<trkpt lat="60.218880" lon="29.776473"><time>1970-01-01T00:00:01.000Z</time></trkpt>
			<trkpt lat="60.218869" lon="29.776000"><time>1970-01-01T00:00:01.000Z</time></trkpt>
			<trkpt lat="60.218933" lon="29.775528"><time>1970-01-01T00:00:01.000Z</time></trkpt>
			<trkpt lat="60.219157" lon="29.775528"><time>1970-01-01T00:00:01.000Z</time></trkpt>
			<trkpt lat="60.219221" lon="29.775335"><time>1970-01-01T00:00:01.000Z</time></trkpt>
			<trkpt lat="60.219487" lon="29.775443"><time>1970-01-01T00:00:01.000Z</time></trkpt>
			<trkpt lat="60.219732" lon="29.775421"><time>1970-01-01T00:00:01.000Z</time></trkpt>
			<trkpt lat="60.220041" lon="29.775249"><time>1970-01-01T00:00:01.000Z</time></trkpt>
			<trkpt lat="60.220190" lon="29.775357"><time>1970-01-01T00:00:01.000Z</time></trkpt>
			<trkpt lat="60.220478" lon="29.774026"><time>1970-01-01T00:00:01.000Z</time></trkpt>
			<trkpt lat="60.220691" lon="29.773876"><time>1970-01-01T00:00:01.000Z</time></trkpt>
			<trkpt lat="60.220862" lon="29.773383"><time>1970-01-01T00:00:01.000Z</time></trkpt>
			<trkpt lat="60.221107" lon="29.773211"><time>1970-01-01T00:00:01.000Z</time></trkpt>
			<trkpt lat="60.221192" lon="29.772803"><time>1970-01-01T00:00:01.000Z</time></trkpt>
			<trkpt lat="60.221350" lon="29.772619"><time>1970-01-01T00:00:01.000Z</time></trkpt>
			<trkpt lat="60.221648" lon="29.771975"><time>1970-01-01T00:00:01.000Z</time></trkpt>
			<trkpt lat="60.222096" lon="29.770795"><time>1970-01-01T00:00:01.000Z</time></trkpt>
			<trkpt lat="60.222437" lon="29.770001"><time>1970-01-01T00:00:01.000Z</time></trkpt>
			<trkpt lat="60.222650" lon="29.769658"><time>1970-01-01T00:00:01.000Z</time></trkpt>
			<trkpt lat="60.222703" lon="29.769400"><time>1970-01-01T00:00:01.000Z</time></trkpt>
			<trkpt lat="60.222693" lon="29.769143"><time>1970-01-01T00:00:01.000Z</time></trkpt>
			<trkpt lat="60.222863" lon="29.768821"><time>1970-01-01T00:00:01.000Z</time></trkpt>
			<trkpt lat="60.222959" lon="29.768413"><time>1970-01-01T00:00:01.000Z</time></trkpt>
			<trkpt lat="60.223074" lon="29.768196"><time>1970-01-01T00:00:01.000Z</time></trkpt>
			<trkpt lat="60.223223" lon="29.768014"><time>1970-01-01T00:00:01.000Z</time></trkpt>
			<trkpt lat="60.223330" lon="29.767971"><time>1970-01-01T00:00:01.000Z</time></trkpt>
			<trkpt lat="60.223586" lon="29.767703"><time>1970-01-01T00:00:01.000Z</time></trkpt>
			<trkpt lat="60.223804" lon="29.767199"><time>1970-01-01T00:00:01.000Z</time></trkpt>
			<trkpt lat="60.223794" lon="29.766898"><time>1970-01-01T00:00:01.000Z</time></trkpt>
			<trkpt lat="60.223969" lon="29.766383"><time>1970-01-01T00:00:01.000Z</time></trkpt>
			<trkpt lat="60.224108" lon="29.766083"><time>1970-01-01T00:00:01.000Z</time></trkpt>
			<trkpt lat="60.224156" lon="29.765750"><time>1970-01-01T00:00:01.000Z</time></trkpt>
			<trkpt lat="60.224369" lon="29.765482"><time>1970-01-01T00:00:01.000Z</time></trkpt>
			<trkpt lat="60.224406" lon="29.765353"><time>1970-01-01T00:00:01.000Z</time></trkpt>
			<trkpt lat="60.224582" lon="29.765278"><time>1970-01-01T00:00:01.000Z</time></trkpt>
			<trkpt lat="60.224795" lon="29.764935"><time>1970-01-01T00:00:01.000Z</time></trkpt>
			<trkpt lat="60.224987" lon="29.764409"><time>1970-01-01T00:00:01.000Z</time></trkpt>
			<trkpt lat="60.225040" lon="29.764420"><time>1970-01-01T00:00:01.000Z</time></trkpt>
			<trkpt lat="60.224960" lon="29.764184"><time>1970-01-01T00:00:01.000Z</time></trkpt>
			<trkpt lat="60.224955" lon="29.763690"><time>1970-01-01T00:00:01.000Z</time></trkpt>
		</trkseg>
	</trk>
</gpx>