<?xml version="1.0" encoding="UTF-8" standalone="no" ?>
<gpx xmlns="http://www.topografix.com/GPX/1/1" creator="http://nakarte.me" xmlns:xsi="http://www.w3.org/2001/XMLSchema-instance" xsi:schemaLocation="http://www.topografix.com/GPX/1/1 http://www.topografix.com/GPX/1/1/gpx.xsd" version="1.1">
	<wpt lat="59.984368" lon="29.214880">
		<name>Вторая ночевка</name>
	</wpt>
	<wpt lat="59.968189" lon="29.106197">
		<name>Третья ночевка</name>
	</wpt>
	<trk>
		<name>Ot_Bolshoy_Izhory_1</name>
		<trkseg>
			<trkpt lat="59.955293" lon="29.515094"><time>1970-01-01T00:00:01.000Z</time></trkpt>
			<trkpt lat="59.955980" lon="29.514815"><time>1970-01-01T00:00:01.000Z</time></trkpt>
			<trkpt lat="59.957396" lon="29.514472"><time>1970-01-01T00:00:01.000Z</time></trkpt>
			<trkpt lat="59.957525" lon="29.513850"><time>1970-01-01T00:00:01.000Z</time></trkpt>
			<trkpt lat="59.957846" lon="29.513850"><time>1970-01-01T00:00:01.000Z</time></trkpt>
			<trkpt lat="59.958125" lon="29.512755"><time>1970-01-01T00:00:01.000Z</time></trkpt>
			<trkpt lat="59.958147" lon="29.511833"><time>1970-01-01T00:00:01.000Z</time></trkpt>
			<trkpt lat="59.957846" lon="29.501726"><time>1970-01-01T00:00:01.000Z</time></trkpt>
			<trkpt lat="59.957803" lon="29.496576"><time>1970-01-01T00:00:01.000Z</time></trkpt>
			<trkpt lat="59.957718" lon="29.494323"><time>1970-01-01T00:00:01.000Z</time></trkpt>
			<trkpt lat="59.957653" lon="29.493486"><time>1970-01-01T00:00:01.000Z</time></trkpt>
			<trkpt lat="59.957439" lon="29.492843"><time>1970-01-01T00:00:01.000Z</time></trkpt>
			<trkpt lat="59.957331" lon="29.491963"><time>1970-01-01T00:00:01.000Z</time></trkpt>
			<trkpt lat="59.957160" lon="29.489259"><time>1970-01-01T00:00:01.000Z</time></trkpt>
			<trkpt lat="59.957117" lon="29.487457"><time>1970-01-01T00:00:01.000Z</time></trkpt>
			<trkpt lat="59.957138" lon="29.487049"><time>1970-01-01T00:00:01.000Z</time></trkpt>
			<trkpt lat="59.957074" lon="29.485354"><time>1970-01-01T00:00:01.000Z</time></trkpt>
			<trkpt lat="59.956967" lon="29.484388"><time>1970-01-01T00:00:01.000Z</time></trkpt>
			<trkpt lat="59.956924" lon="29.484302"><time>1970-01-01T00:00:01.000Z</time></trkpt>
			<trkpt lat="59.956666" lon="29.475569"><time>1970-01-01T00:00:01.000Z</time></trkpt>
			<trkpt lat="59.956859" lon="29.474024"><time>1970-01-01T00:00:01.000Z</time></trkpt>
			<trkpt lat="59.956945" lon="29.472586"><time>1970-01-01T00:00:01.000Z</time></trkpt>
			<trkpt lat="59.956988" lon="29.468874"><time>1970-01-01T00:00:01.000Z</time></trkpt>
			<trkpt lat="59.957267" lon="29.466600"><time>1970-01-01T00:00:01.000Z</time></trkpt>
			<trkpt lat="59.957224" lon="29.465741"><time>1970-01-01T00:00:01.000Z</time></trkpt>
			<trkpt lat="59.957246" lon="29.463724"><time>1970-01-01T00:00:01.000Z</time></trkpt>
			<trkpt lat="59.957374" lon="29.460785"><time>1970-01-01T00:00:01.000Z</time></trkpt>
			<trkpt lat="59.957439" lon="29.457995"><time>1970-01-01T00:00:01.000Z</time></trkpt>
			<trkpt lat="59.957417" lon="29.457030"><time>1970-01-01T00:00:01.000Z</time></trkpt>
			<trkpt lat="59.957482" lon="29.455849"><time>1970-01-01T00:00:01.000Z</time></trkpt>
			<trkpt lat="59.957718" lon="29.454262"><time>1970-01-01T00:00:01.000Z</time></trkpt>
			<trkpt lat="59.957954" lon="29.452137"><time>1970-01-01T00:00:01.000Z</time></trkpt>
			<trkpt lat="59.958082" lon="29.450313"><time>1970-01-01T00:00:01.000Z</time></trkpt>
			<trkpt lat="59.957803" lon="29.449369"><time>1970-01-01T00:00:01.000Z</time></trkpt>
			<trkpt lat="59.958040" lon="29.444970"><time>1970-01-01T00:00:01.000Z</time></trkpt>
			<trkpt lat="59.958190" lon="29.443361"><time>1970-01-01T00:00:01.000Z</time></trkpt>
			<trkpt lat="59.959112" lon="29.438834"><time>1970-01-01T00:00:01.000Z</time></trkpt>
			<trkpt lat="59.959499" lon="29.438061"><time>1970-01-01T00:00:01.000Z</time></trkpt>
			<trkpt lat="59.959735" lon="29.437396"><time>1970-01-01T00:00:01.000Z</time></trkpt>
			<trkpt lat="59.959949" lon="29.436516"><time>1970-01-01T00:00:01.000Z</time></trkpt>
			<trkpt lat="59.960314" lon="29.434306"><time>1970-01-01T00:00:01.000Z</time></trkpt>
			<trkpt lat="59.960572" lon="29.432976"><time>1970-01-01T00:00:01.000Z</time></trkpt>
			<trkpt lat="59.960765" lon="29.431087"><time>1970-01-01T00:00:01.000Z</time></trkpt>
			<trkpt lat="59.960657" lon="29.427504"><time>1970-01-01T00:00:01.000Z</time></trkpt>
			<trkpt lat="59.960743" lon="29.427161"><time>1970-01-01T00:00:01.000Z</time></trkpt>
			<trkpt lat="59.961108" lon="29.424221"><time>1970-01-01T00:00:01.000Z</time></trkpt>
			<trkpt lat="59.961215" lon="29.422204"><time>1970-01-01T00:00:01.000Z</time></trkpt>
			<trkpt lat="59.961387" lon="29.417612"><time>1970-01-01T00:00:01.000Z</time></trkpt>
			<trkpt lat="59.961408" lon="29.415337"><time>1970-01-01T00:00:01.000Z</time></trkpt>
			<trkpt lat="59.961795" lon="29.413835"><time>1970-01-01T00:00:01.000Z</time></trkpt>
			<trkpt lat="59.963125" lon="29.410831"><time>1970-01-01T00:00:01.000Z</time></trkpt>
			<trkpt lat="59.964133" lon="29.409072"><time>1970-01-01T00:00:01.000Z</time></trkpt>
			<trkpt lat="59.964477" lon="29.408557"><time>1970-01-01T00:00:01.000Z</time></trkpt>
			<trkpt lat="59.966859" lon="29.407870"><time>1970-01-01T00:00:01.000Z</time></trkpt>
			<trkpt lat="59.967159" lon="29.407355"><time>1970-01-01T00:00:01.000Z</time></trkpt>
			<trkpt lat="59.967781" lon="29.405960"><time>1970-01-01T00:00:01.000Z</time></trkpt>
			<trkpt lat="59.968382" lon="29.404051"><time>1970-01-01T00:00:01.000Z</time></trkpt>
			<trkpt lat="59.968554" lon="29.401454"><time>1970-01-01T00:00:01.000Z</time></trkpt>
			<trkpt lat="59.968983" lon="29.398879"><time>1970-01-01T00:00:01.000Z</time></trkpt>
			<trkpt lat="59.969133" lon="29.396862"><time>1970-01-01T00:00:01.000Z</time></trkpt>
			<trkpt lat="59.969283" lon="29.395747"><time>1970-01-01T00:00:01.000Z</time></trkpt>
			<trkpt lat="59.969283" lon="29.395403"><time>1970-01-01T00:00:01.000Z</time></trkpt>
			<trkpt lat="59.969476" lon="29.394652"><time>1970-01-01T00:00:01.000Z</time></trkpt>
			<trkpt lat="59.970249" lon="29.390661"><time>1970-01-01T00:00:01.000Z</time></trkpt>
			<trkpt lat="59.970614" lon="29.389073"><time>1970-01-01T00:00:01.000Z</time></trkpt>
			<trkpt lat="59.970957" lon="29.386627"><time>1970-01-01T00:00:01.000Z</time></trkpt>
			<trkpt lat="59.971279" lon="29.386370"><time>1970-01-01T00:00:01.000Z</time></trkpt>
			<trkpt lat="59.971622" lon="29.384353"><time>1970-01-01T00:00:01.000Z</time></trkpt>
			<trkpt lat="59.971730" lon="29.383430"><time>1970-01-01T00:00:01.000Z</time></trkpt>
			<trkpt lat="59.971687" lon="29.382443"><time>1970-01-01T00:00:01.000Z</time></trkpt>
			<trkpt lat="59.971730" lon="29.382057"><time>1970-01-01T00:00:01.000Z</time></trkpt>
			<trkpt lat="59.972180" lon="29.380576"><time>1970-01-01T00:00:01.000Z</time></trkpt>
			<trkpt lat="59.972695" lon="29.379503"><time>1970-01-01T00:00:01.000Z</time></trkpt>
			<trkpt lat="59.973103" lon="29.378409"><time>1970-01-01T00:00:01.000Z</time></trkpt>
			<trkpt lat="59.973425" lon="29.376885"><time>1970-01-01T00:00:01.000Z</time></trkpt>
			<trkpt lat="59.973639" lon="29.376735"><time>1970-01-01T00:00:01.000Z</time></trkpt>
			<trkpt lat="59.973725" lon="29.376585"><time>1970-01-01T00:00:01.000Z</time></trkpt>
			<trkpt lat="59.973789" lon="29.376306"><time>1970-01-01T00:00:01.000Z</time></trkpt>
			<trkpt lat="59.973682" lon="29.375662"><time>1970-01-01T00:00:01.000Z</time></trkpt>
			<trkpt lat="59.973639" lon="29.374611"><time>1970-01-01T00:00:01.000Z</time></trkpt>
			<trkpt lat="59.973639" lon="29.373409"><time>1970-01-01T00:00:01.000Z</time></trkpt>
			<trkpt lat="59.973489" lon="29.370534"><time>1970-01-01T00:00:01.000Z</time></trkpt>
			<trkpt lat="59.973489" lon="29.368560"><time>1970-01-01T00:00:01.000Z</time></trkpt>
			<trkpt lat="59.973553" lon="29.366435"><time>1970-01-01T00:00:01.000Z</time></trkpt>
			<trkpt lat="59.973639" lon="29.365920"><time>1970-01-01T00:00:01.000Z</time></trkpt>
			<trkpt lat="59.973789" lon="29.362315"><time>1970-01-01T00:00:01.000Z</time></trkpt>
			<trkpt lat="59.973897" lon="29.361479"><time>1970-01-01T00:00:01.000Z</time></trkpt>
			<trkpt lat="59.973940" lon="29.360170"><time>1970-01-01T00:00:01.000Z</time></trkpt>
			<trkpt lat="59.974154" lon="29.357015"><time>1970-01-01T00:00:01.000Z</time></trkpt>
			<trkpt lat="59.974154" lon="29.355492"><time>1970-01-01T00:00:01.000Z</time></trkpt>
			<trkpt lat="59.974369" lon="29.353024"><time>1970-01-01T00:00:01.000Z</time></trkpt>
			<trkpt lat="59.974605" lon="29.352080"><time>1970-01-01T00:00:01.000Z</time></trkpt>
			<trkpt lat="59.974648" lon="29.350921"><time>1970-01-01T00:00:01.000Z</time></trkpt>
			<trkpt lat="59.974841" lon="29.348690"><time>1970-01-01T00:00:01.000Z</time></trkpt>
			<trkpt lat="59.975163" lon="29.346587"><time>1970-01-01T00:00:01.000Z</time></trkpt>
			<trkpt lat="59.975656" lon="29.344892"><time>1970-01-01T00:00:01.000Z</time></trkpt>
			<trkpt lat="59.975892" lon="29.344549"><time>1970-01-01T00:00:01.000Z</time></trkpt>
			<trkpt lat="59.976257" lon="29.343175"><time>1970-01-01T00:00:01.000Z</time></trkpt>
			<trkpt lat="59.977051" lon="29.341673"><time>1970-01-01T00:00:01.000Z</time></trkpt>
			<trkpt lat="59.977437" lon="29.340064"><time>1970-01-01T00:00:01.000Z</time></trkpt>
			<trkpt lat="59.977502" lon="29.339227"><time>1970-01-01T00:00:01.000Z</time></trkpt>
			<trkpt lat="59.977459" lon="29.338369"><time>1970-01-01T00:00:01.000Z</time></trkpt>
			<trkpt lat="59.977373" lon="29.337532"><time>1970-01-01T00:00:01.000Z</time></trkpt>
			<trkpt lat="59.977416" lon="29.336652"><time>1970-01-01T00:00:01.000Z</time></trkpt>
			<trkpt lat="59.977781" lon="29.335901"><time>1970-01-01T00:00:01.000Z</time></trkpt>
			<trkpt lat="59.977823" lon="29.335300"><time>1970-01-01T00:00:01.000Z</time></trkpt>
			<trkpt lat="59.978017" lon="29.334399"><time>1970-01-01T00:00:01.000Z</time></trkpt>
			<trkpt lat="59.978124" lon="29.333348"><time>1970-01-01T00:00:01.000Z</time></trkpt>
			<trkpt lat="59.978081" lon="29.331610"><time>1970-01-01T00:00:01.000Z</time></trkpt>
			<trkpt lat="59.977630" lon="29.328863"><time>1970-01-01T00:00:01.000Z</time></trkpt>
			<trkpt lat="59.977158" lon="29.327103"><time>1970-01-01T00:00:01.000Z</time></trkpt>
			<trkpt lat="59.977008" lon="29.327168"><time>1970-01-01T00:00:01.000Z</time></trkpt>
			<trkpt lat="59.976879" lon="29.328026"><time>1970-01-01T00:00:01.000Z</time></trkpt>
			<trkpt lat="59.977030" lon="29.329700"><time>1970-01-01T00:00:01.000Z</time></trkpt>
			<trkpt lat="59.977244" lon="29.330966"><time>1970-01-01T00:00:01.000Z</time></trkpt>
			<trkpt lat="59.977287" lon="29.331781"><time>1970-01-01T00:00:01.000Z</time></trkpt>
			<trkpt lat="59.977244" lon="29.332361"><time>1970-01-01T00:00:01.000Z</time></trkpt>
			<trkpt lat="59.976193" lon="29.333348"><time>1970-01-01T00:00:01.000Z</time></trkpt>
			<trkpt lat="59.975935" lon="29.333369"><time>1970-01-01T00:00:01.000Z</time></trkpt>
			<trkpt lat="59.975163" lon="29.331245"><time>1970-01-01T00:00:01.000Z</time></trkpt>
			<trkpt lat="59.974669" lon="29.330215"><time>1970-01-01T00:00:01.000Z</time></trkpt>
			<trkpt lat="59.974197" lon="29.329507"><time>1970-01-01T00:00:01.000Z</time></trkpt>
			<trkpt lat="59.973811" lon="29.329078"><time>1970-01-01T00:00:01.000Z</time></trkpt>
			<trkpt lat="59.972974" lon="29.328026"><time>1970-01-01T00:00:01.000Z</time></trkpt>
			<trkpt lat="59.972137" lon="29.326224"><time>1970-01-01T00:00:01.000Z</time></trkpt>
			<trkpt lat="59.971601" lon="29.325945"><time>1970-01-01T00:00:01.000Z</time></trkpt>
			<trkpt lat="59.971193" lon="29.325065"><time>1970-01-01T00:00:01.000Z</time></trkpt>
			<trkpt lat="59.971150" lon="29.324314"><time>1970-01-01T00:00:01.000Z</time></trkpt>
			<trkpt lat="59.971000" lon="29.323026"><time>1970-01-01T00:00:01.000Z</time></trkpt>
			<trkpt lat="59.970227" lon="29.319958"><time>1970-01-01T00:00:01.000Z</time></trkpt>
			<trkpt lat="59.969970" lon="29.318606"><time>1970-01-01T00:00:01.000Z</time></trkpt>
			<trkpt lat="59.969884" lon="29.317877"><time>1970-01-01T00:00:01.000Z</time></trkpt>
			<trkpt lat="59.969884" lon="29.316503"><time>1970-01-01T00:00:01.000Z</time></trkpt>
			<trkpt lat="59.969755" lon="29.312963"><time>1970-01-01T00:00:01.000Z</time></trkpt>
			<trkpt lat="59.969670" lon="29.312233"><time>1970-01-01T00:00:01.000Z</time></trkpt>
			<trkpt lat="59.969562" lon="29.311675"><time>1970-01-01T00:00:01.000Z</time></trkpt>
			<trkpt lat="59.969455" lon="29.310603"><time>1970-01-01T00:00:01.000Z</time></trkpt>
			<trkpt lat="59.969498" lon="29.309186"><time>1970-01-01T00:00:01.000Z</time></trkpt>
			<trkpt lat="59.969562" lon="29.308564"><time>1970-01-01T00:00:01.000Z</time></trkpt>
			<trkpt lat="59.970850" lon="29.301719"><time>1970-01-01T00:00:01.000Z</time></trkpt>
			<trkpt lat="59.970978" lon="29.300067"><time>1970-01-01T00:00:01.000Z</time></trkpt>
			<trkpt lat="59.971815" lon="29.295968"><time>1970-01-01T00:00:01.000Z</time></trkpt>
			<trkpt lat="59.972137" lon="29.293136"><time>1970-01-01T00:00:01.000Z</time></trkpt>
			<trkpt lat="59.972395" lon="29.292020"><time>1970-01-01T00:00:01.000Z</time></trkpt>
			<trkpt lat="59.972588" lon="29.290797"><time>1970-01-01T00:00:01.000Z</time></trkpt>
			<trkpt lat="59.972781" lon="29.289038"><time>1970-01-01T00:00:01.000Z</time></trkpt>
			<trkpt lat="59.972867" lon="29.287578"><time>1970-01-01T00:00:01.000Z</time></trkpt>
			<trkpt lat="59.972609" lon="29.285218"><time>1970-01-01T00:00:01.000Z</time></trkpt>
			<trkpt lat="59.972352" lon="29.283587"><time>1970-01-01T00:00:01.000Z</time></trkpt>
			<trkpt lat="59.971751" lon="29.281205"><time>1970-01-01T00:00:01.000Z</time></trkpt>
			<trkpt lat="59.971322" lon="29.277708"><time>1970-01-01T00:00:01.000Z</time></trkpt>
			<trkpt lat="59.971343" lon="29.275519"><time>1970-01-01T00:00:01.000Z</time></trkpt>
			<trkpt lat="59.971515" lon="29.274661"><time>1970-01-01T00:00:01.000Z</time></trkpt>
			<trkpt lat="59.971708" lon="29.274017"><time>1970-01-01T00:00:01.000Z</time></trkpt>
			<trkpt lat="59.972073" lon="29.272365"><time>1970-01-01T00:00:01.000Z</time></trkpt>
			<trkpt lat="59.972266" lon="29.270841"><time>1970-01-01T00:00:01.000Z</time></trkpt>
			<trkpt lat="59.972395" lon="29.269296"><time>1970-01-01T00:00:01.000Z</time></trkpt>
			<trkpt lat="59.972309" lon="29.264232"><time>1970-01-01T00:00:01.000Z</time></trkpt>
			<trkpt lat="59.972266" lon="29.263138"><time>1970-01-01T00:00:01.000Z</time></trkpt>
			<trkpt lat="59.972137" lon="29.261550"><time>1970-01-01T00:00:01.000Z</time></trkpt>
			<trkpt lat="59.972116" lon="29.260499"><time>1970-01-01T00:00:01.000Z</time></trkpt>
			<trkpt lat="59.972116" lon="29.259576"><time>1970-01-01T00:00:01.000Z</time></trkpt>
			<trkpt lat="59.972223" lon="29.256293"><time>1970-01-01T00:00:01.000Z</time></trkpt>
			<trkpt lat="59.972588" lon="29.254019"><time>1970-01-01T00:00:01.000Z</time></trkpt>
			<trkpt lat="59.972953" lon="29.251122"><time>1970-01-01T00:00:01.000Z</time></trkpt>
			<trkpt lat="59.972996" lon="29.251122"><time>1970-01-01T00:00:01.000Z</time></trkpt>
			<trkpt lat="59.973940" lon="29.251808"><time>1970-01-01T00:00:01.000Z</time></trkpt>
			<trkpt lat="59.974262" lon="29.251744"><time>1970-01-01T00:00:01.000Z</time></trkpt>
			<trkpt lat="59.974390" lon="29.251637"><time>1970-01-01T00:00:01.000Z</time></trkpt>
			<trkpt lat="59.975098" lon="29.249684"><time>1970-01-01T00:00:01.000Z</time></trkpt>
			<trkpt lat="59.975334" lon="29.249513"><time>1970-01-01T00:00:01.000Z</time></trkpt>
			<trkpt lat="59.975656" lon="29.249362"><time>1970-01-01T00:00:01.000Z</time></trkpt>
			<trkpt lat="59.976321" lon="29.249169"><time>1970-01-01T00:00:01.000Z</time></trkpt>
			<trkpt lat="59.976836" lon="29.249191"><time>1970-01-01T00:00:01.000Z</time></trkpt>
			<trkpt lat="59.978102" lon="29.248332"><time>1970-01-01T00:00:01.000Z</time></trkpt>
			<trkpt lat="59.978553" lon="29.248289"><time>1970-01-01T00:00:01.000Z</time></trkpt>
			<trkpt lat="59.979271" lon="29.248391"><time>1970-01-01T00:00:01.000Z</time></trkpt>
			<trkpt lat="59.979583" lon="29.248461"><time>1970-01-01T00:00:01.000Z</time></trkpt>
			<trkpt lat="59.979862" lon="29.248697"><time>1970-01-01T00:00:01.000Z</time></trkpt>
			<trkpt lat="59.980184" lon="29.249083"><time>1970-01-01T00:00:01.000Z</time></trkpt>
			<trkpt lat="59.980999" lon="29.248912"><time>1970-01-01T00:00:01.000Z</time></trkpt>
			<trkpt lat="59.981192" lon="29.248826"><time>1970-01-01T00:00:01.000Z</time></trkpt>
			<trkpt lat="59.982265" lon="29.247603"><time>1970-01-01T00:00:01.000Z</time></trkpt>
			<trkpt lat="59.982651" lon="29.246251"><time>1970-01-01T00:00:01.000Z</time></trkpt>
			<trkpt lat="59.983059" lon="29.245307"><time>1970-01-01T00:00:01.000Z</time></trkpt>
			<trkpt lat="59.983510" lon="29.245049"><time>1970-01-01T00:00:01.000Z</time></trkpt>
			<trkpt lat="59.983832" lon="29.244749"><time>1970-01-01T00:00:01.000Z</time></trkpt>
			<trkpt lat="59.984647" lon="29.244491"><time>1970-01-01T00:00:01.000Z</time></trkpt>
			<trkpt lat="59.984905" lon="29.244170"><time>1970-01-01T00:00:01.000Z</time></trkpt>
			<trkpt lat="59.984776" lon="29.242946"><time>1970-01-01T00:00:01.000Z</time></trkpt>
			<trkpt lat="59.984733" lon="29.241959"><time>1970-01-01T00:00:01.000Z</time></trkpt>
			<trkpt lat="59.984583" lon="29.240693"><time>1970-01-01T00:00:01.000Z</time></trkpt>
			<trkpt lat="59.984647" lon="29.239771"><time>1970-01-01T00:00:01.000Z</time></trkpt>
			<trkpt lat="59.985291" lon="29.236380"><time>1970-01-01T00:00:01.000Z</time></trkpt>
			<trkpt lat="59.985420" lon="29.234192"><time>1970-01-01T00:00:01.000Z</time></trkpt>
			<trkpt lat="59.985741" lon="29.233033"><time>1970-01-01T00:00:01.000Z</time></trkpt>
			<trkpt lat="59.985806" lon="29.232218"><time>1970-01-01T00:00:01.000Z</time></trkpt>
			<trkpt lat="59.986471" lon="29.231273"><time>1970-01-01T00:00:01.000Z</time></trkpt>
			<trkpt lat="59.987115" lon="29.229943"><time>1970-01-01T00:00:01.000Z</time></trkpt>
			<trkpt lat="59.987565" lon="29.228806"><time>1970-01-01T00:00:01.000Z</time></trkpt>
			<trkpt lat="59.988316" lon="29.226124"><time>1970-01-01T00:00:01.000Z</time></trkpt>
			<trkpt lat="59.989496" lon="29.221017"><time>1970-01-01T00:00:01.000Z</time></trkpt>
			<trkpt lat="59.989733" lon="29.219751"><time>1970-01-01T00:00:01.000Z</time></trkpt>
			<trkpt lat="59.990226" lon="29.220008"><time>1970-01-01T00:00:01.000Z</time></trkpt>
			<trkpt lat="59.990634" lon="29.220158"><time>1970-01-01T00:00:01.000Z</time></trkpt>
			<trkpt lat="59.990741" lon="29.219751"><time>1970-01-01T00:00:01.000Z</time></trkpt>
			<trkpt lat="59.990999" lon="29.219922"><time>1970-01-01T00:00:01.000Z</time></trkpt>
			<trkpt lat="59.990913" lon="29.218613"><time>1970-01-01T00:00:01.000Z</time></trkpt>
			<trkpt lat="59.990741" lon="29.217884"><time>1970-01-01T00:00:01.000Z</time></trkpt>
			<trkpt lat="59.990720" lon="29.216532"><time>1970-01-01T00:00:01.000Z</time></trkpt>
			<trkpt lat="59.990827" lon="29.215009"><time>1970-01-01T00:00:01.000Z</time></trkpt>
			<trkpt lat="59.990634" lon="29.214279"><time>1970-01-01T00:00:01.000Z</time></trkpt>
			<trkpt lat="59.990655" lon="29.213399"><time>1970-01-01T00:00:01.000Z</time></trkpt>
			<trkpt lat="59.990526" lon="29.212605"><time>1970-01-01T00:00:01.000Z</time></trkpt>
			<trkpt lat="59.990312" lon="29.211833"><time>1970-01-01T00:00:01.000Z</time></trkpt>
			<trkpt lat="59.990054" lon="29.211468"><time>1970-01-01T00:00:01.000Z</time></trkpt>
			<trkpt lat="59.989754" lon="29.210717"><time>1970-01-01T00:00:01.000Z</time></trkpt>
			<trkpt lat="59.989303" lon="29.210846"><time>1970-01-01T00:00:01.000Z</time></trkpt>
			<trkpt lat="59.988359" lon="29.211490"><time>1970-01-01T00:00:01.000Z</time></trkpt>
			<trkpt lat="59.987952" lon="29.212498"><time>1970-01-01T00:00:01.000Z</time></trkpt>
			<trkpt lat="59.987587" lon="29.213142"><time>1970-01-01T00:00:01.000Z</time></trkpt>
			<trkpt lat="59.987329" lon="29.213485"><time>1970-01-01T00:00:01.000Z</time></trkpt>
			<trkpt lat="59.987158" lon="29.214215"><time>1970-01-01T00:00:01.000Z</time></trkpt>
			<trkpt lat="59.986900" lon="29.214923"><time>1970-01-01T00:00:01.000Z</time></trkpt>
			<trkpt lat="59.986557" lon="29.215073"><time>1970-01-01T00:00:01.000Z</time></trkpt>
			<trkpt lat="59.985763" lon="29.215137"><time>1970-01-01T00:00:01.000Z</time></trkpt>
			<trkpt lat="59.985033" lon="29.215717"><time>1970-01-01T00:00:01.000Z</time></trkpt>
			<trkpt lat="59.984475" lon="29.215631"><time>1970-01-01T00:00:01.000Z</time></trkpt>
			<trkpt lat="59.984132" lon="29.215330"><time>1970-01-01T00:00:01.000Z</time></trkpt>
			<trkpt lat="59.983391" lon="29.214972"><time>1970-01-01T00:00:01.000Z</time></trkpt>
			<trkpt lat="59.982798" lon="29.214329"><time>1970-01-01T00:00:01.000Z</time></trkpt>
			<trkpt lat="59.982317" lon="29.212861"><time>1970-01-01T00:00:01.000Z</time></trkpt>
			<trkpt lat="59.981927" lon="29.211617"><time>1970-01-01T00:00:01.000Z</time></trkpt>
			<trkpt lat="59.981832" lon="29.210647"><time>1970-01-01T00:00:01.000Z</time></trkpt>
			<trkpt lat="59.981798" lon="29.210226"><time>1970-01-01T00:00:01.000Z</time></trkpt>
			<trkpt lat="59.981841" lon="29.209479"><time>1970-01-01T00:00:01.000Z</time></trkpt>
			<trkpt lat="59.981900" lon="29.208850"><time>1970-01-01T00:00:01.000Z</time></trkpt>
			<trkpt lat="59.982024" lon="29.207550"><time>1970-01-01T00:00:01.000Z</time></trkpt>
			<trkpt lat="59.981986" lon="29.207048"><time>1970-01-01T00:00:01.000Z</time></trkpt>
			<trkpt lat="59.981654" lon="29.206789"><time>1970-01-01T00:00:01.000Z</time></trkpt>
			<trkpt lat="59.981257" lon="29.206704"><time>1970-01-01T00:00:01.000Z</time></trkpt>
			<trkpt lat="59.981064" lon="29.206254"><time>1970-01-01T00:00:01.000Z</time></trkpt>
			<trkpt lat="59.980828" lon="29.205610"><time>1970-01-01T00:00:01.000Z</time></trkpt>
			<trkpt lat="59.980270" lon="29.203164"><time>1970-01-01T00:00:01.000Z</time></trkpt>
			<trkpt lat="59.979926" lon="29.202220"><time>1970-01-01T00:00:01.000Z</time></trkpt>
			<trkpt lat="59.980334" lon="29.199945"><time>1970-01-01T00:00:01.000Z</time></trkpt>
			<trkpt lat="59.980420" lon="29.198400"><time>1970-01-01T00:00:01.000Z</time></trkpt>
			<trkpt lat="59.981428" lon="29.197070"><time>1970-01-01T00:00:01.000Z</time></trkpt>
			<trkpt lat="59.981686" lon="29.195525"><time>1970-01-01T00:00:01.000Z</time></trkpt>
			<trkpt lat="59.982115" lon="29.194667"><time>1970-01-01T00:00:01.000Z</time></trkpt>
			<trkpt lat="59.982244" lon="29.193208"><time>1970-01-01T00:00:01.000Z</time></trkpt>
			<trkpt lat="59.982566" lon="29.192993"><time>1970-01-01T00:00:01.000Z</time></trkpt>
			<trkpt lat="59.983875" lon="29.191062"><time>1970-01-01T00:00:01.000Z</time></trkpt>
			<trkpt lat="59.984132" lon="29.190611"><time>1970-01-01T00:00:01.000Z</time></trkpt>
			<trkpt lat="59.984218" lon="29.189903"><time>1970-01-01T00:00:01.000Z</time></trkpt>
			<trkpt lat="59.983531" lon="29.189689"><time>1970-01-01T00:00:01.000Z</time></trkpt>
			<trkpt lat="59.983209" lon="29.189259"><time>1970-01-01T00:00:01.000Z</time></trkpt>
			<trkpt lat="59.982609" lon="29.189152"><time>1970-01-01T00:00:01.000Z</time></trkpt>
			<trkpt lat="59.982308" lon="29.188873"><time>1970-01-01T00:00:01.000Z</time></trkpt>
			<trkpt lat="59.982094" lon="29.188573"><time>1970-01-01T00:00:01.000Z</time></trkpt>
			<trkpt lat="59.981686" lon="29.188165"><time>1970-01-01T00:00:01.000Z</time></trkpt>
			<trkpt lat="59.981364" lon="29.187006"><time>1970-01-01T00:00:01.000Z</time></trkpt>
			<trkpt lat="59.981064" lon="29.185719"><time>1970-01-01T00:00:01.000Z</time></trkpt>
			<trkpt lat="59.980870" lon="29.184710"><time>1970-01-01T00:00:01.000Z</time></trkpt>
			<trkpt lat="59.980699" lon="29.183573"><time>1970-01-01T00:00:01.000Z</time></trkpt>
			<trkpt lat="59.980785" lon="29.182286"><time>1970-01-01T00:00:01.000Z</time></trkpt>
			<trkpt lat="59.981085" lon="29.180784"><time>1970-01-01T00:00:01.000Z</time></trkpt>
			<trkpt lat="59.981214" lon="29.179882"><time>1970-01-01T00:00:01.000Z</time></trkpt>
			<trkpt lat="59.981171" lon="29.179389"><time>1970-01-01T00:00:01.000Z</time></trkpt>
			<trkpt lat="59.981192" lon="29.178359"><time>1970-01-01T00:00:01.000Z</time></trkpt>
			<trkpt lat="59.980892" lon="29.177114"><time>1970-01-01T00:00:01.000Z</time></trkpt>
			<trkpt lat="59.980141" lon="29.172780"><time>1970-01-01T00:00:01.000Z</time></trkpt>
			<trkpt lat="59.979690" lon="29.172608"><time>1970-01-01T00:00:01.000Z</time></trkpt>
			<trkpt lat="59.979261" lon="29.172136"><time>1970-01-01T00:00:01.000Z</time></trkpt>
			<trkpt lat="59.979089" lon="29.170849"><time>1970-01-01T00:00:01.000Z</time></trkpt>
			<trkpt lat="59.979454" lon="29.169604"><time>1970-01-01T00:00:01.000Z</time></trkpt>
			<trkpt lat="59.979304" lon="29.168488"><time>1970-01-01T00:00:01.000Z</time></trkpt>
			<trkpt lat="59.979798" lon="29.168102"><time>1970-01-01T00:00:01.000Z</time></trkpt>
			<trkpt lat="59.980184" lon="29.166858"><time>1970-01-01T00:00:01.000Z</time></trkpt>
			<trkpt lat="59.980334" lon="29.165441"><time>1970-01-01T00:00:01.000Z</time></trkpt>
			<trkpt lat="59.980420" lon="29.164154"><time>1970-01-01T00:00:01.000Z</time></trkpt>
			<trkpt lat="59.980752" lon="29.164174"><time>1970-01-01T00:00:01.000Z</time></trkpt>
			<trkpt lat="59.980956" lon="29.164025"><time>1970-01-01T00:00:01.000Z</time></trkpt>
			<trkpt lat="59.980763" lon="29.163551"><time>1970-01-01T00:00:01.000Z</time></trkpt>
			<trkpt lat="59.980398" lon="29.163296"><time>1970-01-01T00:00:01.000Z</time></trkpt>
			<trkpt lat="59.980141" lon="29.161965"><time>1970-01-01T00:00:01.000Z</time></trkpt>
			<trkpt lat="59.980098" lon="29.160849"><time>1970-01-01T00:00:01.000Z</time></trkpt>
			<trkpt lat="59.979626" lon="29.158811"><time>1970-01-01T00:00:01.000Z</time></trkpt>
			<trkpt lat="59.979240" lon="29.157631"><time>1970-01-01T00:00:01.000Z</time></trkpt>
			<trkpt lat="59.978768" lon="29.155227"><time>1970-01-01T00:00:01.000Z</time></trkpt>
			<trkpt lat="59.978489" lon="29.154326"><time>1970-01-01T00:00:01.000Z</time></trkpt>
			<trkpt lat="59.978381" lon="29.153683"><time>1970-01-01T00:00:01.000Z</time></trkpt>
			<trkpt lat="59.978188" lon="29.153275"><time>1970-01-01T00:00:01.000Z</time></trkpt>
			<trkpt lat="59.977823" lon="29.152653"><time>1970-01-01T00:00:01.000Z</time></trkpt>
			<trkpt lat="59.977759" lon="29.152245"><time>1970-01-01T00:00:01.000Z</time></trkpt>
			<trkpt lat="59.977716" lon="29.151151"><time>1970-01-01T00:00:01.000Z</time></trkpt>
			<trkpt lat="59.977502" lon="29.151065"><time>1970-01-01T00:00:01.000Z</time></trkpt>
			<trkpt lat="59.977266" lon="29.151215"><time>1970-01-01T00:00:01.000Z</time></trkpt>
			<trkpt lat="59.977287" lon="29.149970"><time>1970-01-01T00:00:01.000Z</time></trkpt>
			<trkpt lat="59.977201" lon="29.149284"><time>1970-01-01T00:00:01.000Z</time></trkpt>
			<trkpt lat="59.977094" lon="29.149069"><time>1970-01-01T00:00:01.000Z</time></trkpt>
			<trkpt lat="59.977094" lon="29.147739"><time>1970-01-01T00:00:01.000Z</time></trkpt>
			<trkpt lat="59.977158" lon="29.146838"><time>1970-01-01T00:00:01.000Z</time></trkpt>
			<trkpt lat="59.977459" lon="29.144756"><time>1970-01-01T00:00:01.000Z</time></trkpt>
			<trkpt lat="59.977502" lon="29.144155"><time>1970-01-01T00:00:01.000Z</time></trkpt>
			<trkpt lat="59.977480" lon="29.143469"><time>1970-01-01T00:00:01.000Z</time></trkpt>
			<trkpt lat="59.977330" lon="29.142975"><time>1970-01-01T00:00:01.000Z</time></trkpt>
			<trkpt lat="59.977437" lon="29.142482"><time>1970-01-01T00:00:01.000Z</time></trkpt>
			<trkpt lat="59.977523" lon="29.141623"><time>1970-01-01T00:00:01.000Z</time></trkpt>
			<trkpt lat="59.977459" lon="29.139799"><time>1970-01-01T00:00:01.000Z</time></trkpt>
			<trkpt lat="59.977502" lon="29.139563"><time>1970-01-01T00:00:01.000Z</time></trkpt>
			<trkpt lat="59.977931" lon="29.139628"><time>1970-01-01T00:00:01.000Z</time></trkpt>
			<trkpt lat="59.978231" lon="29.139757"><time>1970-01-01T00:00:01.000Z</time></trkpt>
			<trkpt lat="59.978811" lon="29.139778"><time>1970-01-01T00:00:01.000Z</time></trkpt>
			<trkpt lat="59.979004" lon="29.139606"><time>1970-01-01T00:00:01.000Z</time></trkpt>
			<trkpt lat="59.979240" lon="29.139456"><time>1970-01-01T00:00:01.000Z</time></trkpt>
			<trkpt lat="59.979755" lon="29.138855"><time>1970-01-01T00:00:01.000Z</time></trkpt>
			<trkpt lat="59.980098" lon="29.137954"><time>1970-01-01T00:00:01.000Z</time></trkpt>
			<trkpt lat="59.979969" lon="29.134714"><time>1970-01-01T00:00:01.000Z</time></trkpt>
			<trkpt lat="59.979991" lon="29.133620"><time>1970-01-01T00:00:01.000Z</time></trkpt>
			<trkpt lat="59.980227" lon="29.131388"><time>1970-01-01T00:00:01.000Z</time></trkpt>
			<trkpt lat="59.981643" lon="29.131045"><time>1970-01-01T00:00:01.000Z</time></trkpt>
			<trkpt lat="59.982051" lon="29.131045"><time>1970-01-01T00:00:01.000Z</time></trkpt>
			<trkpt lat="59.982458" lon="29.131216"><time>1970-01-01T00:00:01.000Z</time></trkpt>
			<trkpt lat="59.982802" lon="29.131302"><time>1970-01-01T00:00:01.000Z</time></trkpt>
			<trkpt lat="59.983231" lon="29.131517"><time>1970-01-01T00:00:01.000Z</time></trkpt>
			<trkpt lat="59.983596" lon="29.131603"><time>1970-01-01T00:00:01.000Z</time></trkpt>
			<trkpt lat="59.983853" lon="29.131409"><time>1970-01-01T00:00:01.000Z</time></trkpt>
			<trkpt lat="59.984003" lon="29.131152"><time>1970-01-01T00:00:01.000Z</time></trkpt>
			<trkpt lat="59.984239" lon="29.131796"><time>1970-01-01T00:00:01.000Z</time></trkpt>
			<trkpt lat="59.984840" lon="29.131731"><time>1970-01-01T00:00:01.000Z</time></trkpt>
			<trkpt lat="59.985248" lon="29.131581"><time>1970-01-01T00:00:01.000Z</time></trkpt>
			<trkpt lat="59.985570" lon="29.131367"><time>1970-01-01T00:00:01.000Z</time></trkpt>
			<trkpt lat="59.985698" lon="29.131195"><time>1970-01-01T00:00:01.000Z</time></trkpt>
			<trkpt lat="59.985827" lon="29.130937"><time>1970-01-01T00:00:01.000Z</time></trkpt>
			<trkpt lat="59.986042" lon="29.130658"><time>1970-01-01T00:00:01.000Z</time></trkpt>
			<trkpt lat="59.986235" lon="29.130079"><time>1970-01-01T00:00:01.000Z</time></trkpt>
			<trkpt lat="59.986020" lon="29.129350"><time>1970-01-01T00:00:01.000Z</time></trkpt>
			<trkpt lat="59.985977" lon="29.128856"><time>1970-01-01T00:00:01.000Z</time></trkpt>
			<trkpt lat="59.985849" lon="29.128470"><time>1970-01-01T00:00:01.000Z</time></trkpt>
			<trkpt lat="59.985849" lon="29.127890"><time>1970-01-01T00:00:01.000Z</time></trkpt>
			<trkpt lat="59.986020" lon="29.127547"><time>1970-01-01T00:00:01.000Z</time></trkpt>
			<trkpt lat="59.986042" lon="29.126710"><time>1970-01-01T00:00:01.000Z</time></trkpt>
			<trkpt lat="59.986020" lon="29.126517"><time>1970-01-01T00:00:01.000Z</time></trkpt>
			<trkpt lat="59.985720" lon="29.126388"><time>1970-01-01T00:00:01.000Z</time></trkpt>
			<trkpt lat="59.985570" lon="29.126238"><time>1970-01-01T00:00:01.000Z</time></trkpt>
			<trkpt lat="59.985312" lon="29.126152"><time>1970-01-01T00:00:01.000Z</time></trkpt>
			<trkpt lat="59.985205" lon="29.126045"><time>1970-01-01T00:00:01.000Z</time></trkpt>
			<trkpt lat="59.984969" lon="29.125981"><time>1970-01-01T00:00:01.000Z</time></trkpt>
			<trkpt lat="59.984754" lon="29.126045"><time>1970-01-01T00:00:01.000Z</time></trkpt>
			<trkpt lat="59.984540" lon="29.125723"><time>1970-01-01T00:00:01.000Z</time></trkpt>
			<trkpt lat="59.984154" lon="29.124672"><time>1970-01-01T00:00:01.000Z</time></trkpt>
			<trkpt lat="59.984025" lon="29.123899"><time>1970-01-01T00:00:01.000Z</time></trkpt>
			<trkpt lat="59.983810" lon="29.123020"><time>1970-01-01T00:00:01.000Z</time></trkpt>
			<trkpt lat="59.983467" lon="29.122311"><time>1970-01-01T00:00:01.000Z</time></trkpt>
			<trkpt lat="59.983317" lon="29.122075"><time>1970-01-01T00:00:01.000Z</time></trkpt>
			<trkpt lat="59.982351" lon="29.121067"><time>1970-01-01T00:00:01.000Z</time></trkpt>
			<trkpt lat="59.982072" lon="29.120659"><time>1970-01-01T00:00:01.000Z</time></trkpt>
			<trkpt lat="59.981364" lon="29.120058"><time>1970-01-01T00:00:01.000Z</time></trkpt>
			<trkpt lat="59.981021" lon="29.120724"><time>1970-01-01T00:00:01.000Z</time></trkpt>
			<trkpt lat="59.980634" lon="29.122483"><time>1970-01-01T00:00:01.000Z</time></trkpt>
			<trkpt lat="59.980463" lon="29.122955"><time>1970-01-01T00:00:01.000Z</time></trkpt>
			<trkpt lat="59.980313" lon="29.123148"><time>1970-01-01T00:00:01.000Z</time></trkpt>
			<trkpt lat="59.979969" lon="29.123256"><time>1970-01-01T00:00:01.000Z</time></trkpt>
			<trkpt lat="59.979626" lon="29.123020"><time>1970-01-01T00:00:01.000Z</time></trkpt>
			<trkpt lat="59.979204" lon="29.123202"><time>1970-01-01T00:00:01.000Z</time></trkpt>
			<trkpt lat="59.978966" lon="29.124069"><time>1970-01-01T00:00:01.000Z</time></trkpt>
			<trkpt lat="59.978596" lon="29.124650"><time>1970-01-01T00:00:01.000Z</time></trkpt>
			<trkpt lat="59.978315" lon="29.125244"><time>1970-01-01T00:00:01.000Z</time></trkpt>
			<trkpt lat="59.978047" lon="29.125528"><time>1970-01-01T00:00:01.000Z</time></trkpt>
			<trkpt lat="59.977738" lon="29.125873"><time>1970-01-01T00:00:01.000Z</time></trkpt>
			<trkpt lat="59.977199" lon="29.126376"><time>1970-01-01T00:00:01.000Z</time></trkpt>
			<trkpt lat="59.976892" lon="29.126734"><time>1970-01-01T00:00:01.000Z</time></trkpt>
			<trkpt lat="59.976571" lon="29.126853"><time>1970-01-01T00:00:01.000Z</time></trkpt>
			<trkpt lat="59.976222" lon="29.126875"><time>1970-01-01T00:00:01.000Z</time></trkpt>
			<trkpt lat="59.975940" lon="29.126912"><time>1970-01-01T00:00:01.000Z</time></trkpt>
			<trkpt lat="59.975756" lon="29.127009"><time>1970-01-01T00:00:01.000Z</time></trkpt>
			<trkpt lat="59.975463" lon="29.127118"><time>1970-01-01T00:00:01.000Z</time></trkpt>
			<trkpt lat="59.975178" lon="29.127143"><time>1970-01-01T00:00:01.000Z</time></trkpt>
			<trkpt lat="59.974841" lon="29.127139"><time>1970-01-01T00:00:01.000Z</time></trkpt>
			<trkpt lat="59.974622" lon="29.127089"><time>1970-01-01T00:00:01.000Z</time></trkpt>
			<trkpt lat="59.974219" lon="29.126989"><time>1970-01-01T00:00:01.000Z</time></trkpt>
			<trkpt lat="59.973881" lon="29.126810"><time>1970-01-01T00:00:01.000Z</time></trkpt>
			<trkpt lat="59.973536" lon="29.126653"><time>1970-01-01T00:00:01.000Z</time></trkpt>
			<trkpt lat="59.973011" lon="29.126371"><time>1970-01-01T00:00:01.000Z</time></trkpt>
			<trkpt lat="59.972882" lon="29.126751"><time>1970-01-01T00:00:01.000Z</time></trkpt>
			<trkpt lat="59.972574" lon="29.126494"><time>1970-01-01T00:00:01.000Z</time></trkpt>
			<trkpt lat="59.972689" lon="29.125794"><time>1970-01-01T00:00:01.000Z</time></trkpt>
			<trkpt lat="59.972557" lon="29.125829"><time>1970-01-01T00:00:01.000Z</time></trkpt>
			<trkpt lat="59.972166" lon="29.125893"><time>1970-01-01T00:00:01.000Z</time></trkpt>
			<trkpt lat="59.971964" lon="29.125909"><time>1970-01-01T00:00:01.000Z</time></trkpt>
			<trkpt lat="59.971578" lon="29.125859"><time>1970-01-01T00:00:01.000Z</time></trkpt>
			<trkpt lat="59.970947" lon="29.125391"><time>1970-01-01T00:00:01.000Z</time></trkpt>
			<trkpt lat="59.970440" lon="29.124872"><time>1970-01-01T00:00:01.000Z</time></trkpt>
			<trkpt lat="59.969727" lon="29.123799"><time>1970-01-01T00:00:01.000Z</time></trkpt>
			<trkpt lat="59.968893" lon="29.121612"><time>1970-01-01T00:00:01.000Z</time></trkpt>
			<trkpt lat="59.968486" lon="29.120091"><time>1970-01-01T00:00:01.000Z</time></trkpt>
			<trkpt lat="59.968153" lon="29.118885"><time>1970-01-01T00:00:01.000Z</time></trkpt>
			<trkpt lat="59.967698" lon="29.117233"><time>1970-01-01T00:00:01.000Z</time></trkpt>
			<trkpt lat="59.967180" lon="29.114801"><time>1970-01-01T00:00:01.000Z</time></trkpt>
			<trkpt lat="59.967054" lon="29.113542"><time>1970-01-01T00:00:01.000Z</time></trkpt>
			<trkpt lat="59.966978" lon="29.112023"><time>1970-01-01T00:00:01.000Z</time></trkpt>
			<trkpt lat="59.966944" lon="29.110896"><time>1970-01-01T00:00:01.000Z</time></trkpt>
			<trkpt lat="59.967009" lon="29.109608"><time>1970-01-01T00:00:01.000Z</time></trkpt>
			<trkpt lat="59.967019" lon="29.108958"><time>1970-01-01T00:00:01.000Z</time></trkpt>
			<trkpt lat="59.967138" lon="29.108364"><time>1970-01-01T00:00:01.000Z</time></trkpt>
			<trkpt lat="59.967481" lon="29.107591"><time>1970-01-01T00:00:01.000Z</time></trkpt>
			<trkpt lat="59.967551" lon="29.107150"><time>1970-01-01T00:00:01.000Z</time></trkpt>
			<trkpt lat="59.967771" lon="29.106877"><time>1970-01-01T00:00:01.000Z</time></trkpt>
			<trkpt lat="59.967927" lon="29.106458"><time>1970-01-01T00:00:01.000Z</time></trkpt>
			<trkpt lat="59.968074" lon="29.106216"><time>1970-01-01T00:00:01.000Z</time></trkpt>
			<trkpt lat="59.968189" lon="29.106197"><time>1970-01-01T00:00:01.000Z</time></trkpt>
			<trkpt lat="59.968408" lon="29.105964"><time>1970-01-01T00:00:01.000Z</time></trkpt>
			<trkpt lat="59.968532" lon="29.105875"><time>1970-01-01T00:00:01.000Z</time></trkpt>
			<trkpt lat="59.968919" lon="29.105231"><time>1970-01-01T00:00:01.000Z</time></trkpt>
			<trkpt lat="59.969112" lon="29.104974"><time>1970-01-01T00:00:01.000Z</time></trkpt>
			<trkpt lat="59.969369" lon="29.104502"><time>1970-01-01T00:00:01.000Z</time></trkpt>
			<trkpt lat="59.969430" lon="29.104189"><time>1970-01-01T00:00:01.000Z</time></trkpt>
			<trkpt lat="59.969455" lon="29.103751"><time>1970-01-01T00:00:01.000Z</time></trkpt>
			<trkpt lat="59.969342" lon="29.103427"><time>1970-01-01T00:00:01.000Z</time></trkpt>
			<trkpt lat="59.969219" lon="29.103171"><time>1970-01-01T00:00:01.000Z</time></trkpt>
			<trkpt lat="59.969069" lon="29.103085"><time>1970-01-01T00:00:01.000Z</time></trkpt>
			<trkpt lat="59.968833" lon="29.102721"><time>1970-01-01T00:00:01.000Z</time></trkpt>
			<trkpt lat="59.968622" lon="29.102424"><time>1970-01-01T00:00:01.000Z</time></trkpt>
			<trkpt lat="59.968442" lon="29.101866"><time>1970-01-01T00:00:01.000Z</time></trkpt>
			<trkpt lat="59.968147" lon="29.101544"><time>1970-01-01T00:00:01.000Z</time></trkpt>
			<trkpt lat="59.967759" lon="29.101184"><time>1970-01-01T00:00:01.000Z</time></trkpt>
			<trkpt lat="59.967481" lon="29.100961"><time>1970-01-01T00:00:01.000Z</time></trkpt>
			<trkpt lat="59.967073" lon="29.101519"><time>1970-01-01T00:00:01.000Z</time></trkpt>
			<trkpt lat="59.966708" lon="29.101798"><time>1970-01-01T00:00:01.000Z</time></trkpt>
			<trkpt lat="59.966472" lon="29.101905"><time>1970-01-01T00:00:01.000Z</time></trkpt>
			<trkpt lat="59.966108" lon="29.101369"><time>1970-01-01T00:00:01.000Z</time></trkpt>
			<trkpt lat="59.965850" lon="29.100768"><time>1970-01-01T00:00:01.000Z</time></trkpt>
			<trkpt lat="59.965850" lon="29.100468"><time>1970-01-01T00:00:01.000Z</time></trkpt>
			<trkpt lat="59.965550" lon="29.099716"><time>1970-01-01T00:00:01.000Z</time></trkpt>
			<trkpt lat="59.965314" lon="29.099008"><time>1970-01-01T00:00:01.000Z</time></trkpt>
			<trkpt lat="59.965464" lon="29.098021"><time>1970-01-01T00:00:01.000Z</time></trkpt>
			<trkpt lat="59.965485" lon="29.097635"><time>1970-01-01T00:00:01.000Z</time></trkpt>
			<trkpt lat="59.965421" lon="29.097270"><time>1970-01-01T00:00:01.000Z</time></trkpt>
			<trkpt lat="59.964906" lon="29.096197"><time>1970-01-01T00:00:01.000Z</time></trkpt>
			<trkpt lat="59.963726" lon="29.094567"><time>1970-01-01T00:00:01.000Z</time></trkpt>
			<trkpt lat="59.963651" lon="29.094159"><time>1970-01-01T00:00:01.000Z</time></trkpt>
			<trkpt lat="59.963704" lon="29.093730"><time>1970-01-01T00:00:01.000Z</time></trkpt>
			<trkpt lat="59.963468" lon="29.093322"><time>1970-01-01T00:00:01.000Z</time></trkpt>
			<trkpt lat="59.963382" lon="29.092614"><time>1970-01-01T00:00:01.000Z</time></trkpt>
			<trkpt lat="59.963168" lon="29.092163"><time>1970-01-01T00:00:01.000Z</time></trkpt>
			<trkpt lat="59.962739" lon="29.091477"><time>1970-01-01T00:00:01.000Z</time></trkpt>
			<trkpt lat="59.962610" lon="29.091327"><time>1970-01-01T00:00:01.000Z</time></trkpt>
			<trkpt lat="59.962374" lon="29.090876"><time>1970-01-01T00:00:01.000Z</time></trkpt>
			<trkpt lat="59.962138" lon="29.089975"><time>1970-01-01T00:00:01.000Z</time></trkpt>
			<trkpt lat="59.961880" lon="29.089331"><time>1970-01-01T00:00:01.000Z</time></trkpt>
			<trkpt lat="59.961666" lon="29.088623"><time>1970-01-01T00:00:01.000Z</time></trkpt>
			<trkpt lat="59.961301" lon="29.086885"><time>1970-01-01T00:00:01.000Z</time></trkpt>
			<trkpt lat="59.961108" lon="29.086520"><time>1970-01-01T00:00:01.000Z</time></trkpt>
			<trkpt lat="59.960979" lon="29.085919"><time>1970-01-01T00:00:01.000Z</time></trkpt>
			<trkpt lat="59.960883" lon="29.083875"><time>1970-01-01T00:00:01.000Z</time></trkpt>
			<trkpt lat="59.961058" lon="29.083343"><time>1970-01-01T00:00:01.000Z</time></trkpt>
			<trkpt lat="59.961360" lon="29.082931"><time>1970-01-01T00:00:01.000Z</time></trkpt>
			<trkpt lat="59.961760" lon="29.082428"><time>1970-01-01T00:00:01.000Z</time></trkpt>
			<trkpt lat="59.962108" lon="29.081738"><time>1970-01-01T00:00:01.000Z</time></trkpt>
			<trkpt lat="59.962262" lon="29.081283"><time>1970-01-01T00:00:01.000Z</time></trkpt>
			<trkpt lat="59.962374" lon="29.080802"><time>1970-01-01T00:00:01.000Z</time></trkpt>
			<trkpt lat="59.962533" lon="29.079832"><time>1970-01-01T00:00:01.000Z</time></trkpt>
			<trkpt lat="59.962374" lon="29.078709"><time>1970-01-01T00:00:01.000Z</time></trkpt>
			<trkpt lat="59.962331" lon="29.078302"><time>1970-01-01T00:00:01.000Z</time></trkpt>
			<trkpt lat="59.962202" lon="29.077787"><time>1970-01-01T00:00:01.000Z</time></trkpt>
			<trkpt lat="59.962009" lon="29.077358"><time>1970-01-01T00:00:01.000Z</time></trkpt>
			<trkpt lat="59.961950" lon="29.076759"><time>1970-01-01T00:00:01.000Z</time></trkpt>
			<trkpt lat="59.962009" lon="29.076156"><time>1970-01-01T00:00:01.000Z</time></trkpt>
			<trkpt lat="59.962159" lon="29.075620"><time>1970-01-01T00:00:01.000Z</time></trkpt>
			<trkpt lat="59.962331" lon="29.074375"><time>1970-01-01T00:00:01.000Z</time></trkpt>
			<trkpt lat="59.962493" lon="29.073790"><time>1970-01-01T00:00:01.000Z</time></trkpt>
			<trkpt lat="59.962339" lon="29.073112"><time>1970-01-01T00:00:01.000Z</time></trkpt>
			<trkpt lat="59.962657" lon="29.072197"><time>1970-01-01T00:00:01.000Z</time></trkpt>
			<trkpt lat="59.962919" lon="29.072056"><time>1970-01-01T00:00:01.000Z</time></trkpt>
			<trkpt lat="59.963211" lon="29.071864"><time>1970-01-01T00:00:01.000Z</time></trkpt>
			<trkpt lat="59.963361" lon="29.071779"><time>1970-01-01T00:00:01.000Z</time></trkpt>
			<trkpt lat="59.963404" lon="29.071500"><time>1970-01-01T00:00:01.000Z</time></trkpt>
			<trkpt lat="59.963189" lon="29.070792"><time>1970-01-01T00:00:01.000Z</time></trkpt>
			<trkpt lat="59.963104" lon="29.070641"><time>1970-01-01T00:00:01.000Z</time></trkpt>
			<trkpt lat="59.962953" lon="29.070556"><time>1970-01-01T00:00:01.000Z</time></trkpt>
			<trkpt lat="59.962438" lon="29.070534"><time>1970-01-01T00:00:01.000Z</time></trkpt>
			<trkpt lat="59.961666" lon="29.070234"><time>1970-01-01T00:00:01.000Z</time></trkpt>
			<trkpt lat="59.961044" lon="29.070083"><time>1970-01-01T00:00:01.000Z</time></trkpt>
			<trkpt lat="59.959842" lon="29.069955"><time>1970-01-01T00:00:01.000Z</time></trkpt>
			<trkpt lat="59.959692" lon="29.069847"><time>1970-01-01T00:00:01.000Z</time></trkpt>
			<trkpt lat="59.959134" lon="29.069053"><time>1970-01-01T00:00:01.000Z</time></trkpt>
			<trkpt lat="59.958876" lon="29.068453"><time>1970-01-01T00:00:01.000Z</time></trkpt>
			<trkpt lat="59.958555" lon="29.067938"><time>1970-01-01T00:00:01.000Z</time></trkpt>
			<trkpt lat="59.958404" lon="29.067551"><time>1970-01-01T00:00:01.000Z</time></trkpt>
			<trkpt lat="59.958276" lon="29.066951"><time>1970-01-01T00:00:01.000Z</time></trkpt>
			<trkpt lat="59.958297" lon="29.066629"><time>1970-01-01T00:00:01.000Z</time></trkpt>
			<trkpt lat="59.958619" lon="29.065384"><time>1970-01-01T00:00:01.000Z</time></trkpt>
			<trkpt lat="59.958533" lon="29.064376"><time>1970-01-01T00:00:01.000Z</time></trkpt>
			<trkpt lat="59.958027" lon="29.063842"><time>1970-01-01T00:00:01.000Z</time></trkpt>
			<trkpt lat="59.957782" lon="29.063134"><time>1970-01-01T00:00:01.000Z</time></trkpt>
			<trkpt lat="59.957374" lon="29.061254"><time>1970-01-01T00:00:01.000Z</time></trkpt>
			<trkpt lat="59.957279" lon="29.060773"><time>1970-01-01T00:00:01.000Z</time></trkpt>
			<trkpt lat="59.957181" lon="29.059870"><time>1970-01-01T00:00:01.000Z</time></trkpt>
			<trkpt lat="59.956974" lon="29.057924"><time>1970-01-01T00:00:01.000Z</time></trkpt>
			<trkpt lat="59.956991" lon="29.057512"><time>1970-01-01T00:00:01.000Z</time></trkpt>
			<trkpt lat="59.956967" lon="29.056994"><time>1970-01-01T00:00:01.000Z</time></trkpt>
			<trkpt lat="59.956194" lon="29.057316"><time>1970-01-01T00:00:01.000Z</time></trkpt>
			<trkpt lat="59.955829" lon="29.057595"><time>1970-01-01T00:00:01.000Z</time></trkpt>
			<trkpt lat="59.955529" lon="29.058282"><time>1970-01-01T00:00:01.000Z</time></trkpt>
			<trkpt lat="59.955357" lon="29.059011"><time>1970-01-01T00:00:01.000Z</time></trkpt>
			<trkpt lat="59.955164" lon="29.059333"><time>1970-01-01T00:00:01.000Z</time></trkpt>
			<trkpt lat="59.954993" lon="29.059505"><time>1970-01-01T00:00:01.000Z</time></trkpt>
			<trkpt lat="59.954735" lon="29.059634"><time>1970-01-01T00:00:01.000Z</time></trkpt>
			<trkpt lat="59.954370" lon="29.059913"><time>1970-01-01T00:00:01.000Z</time></trkpt>
			<trkpt lat="59.953963" lon="29.060020"><time>1970-01-01T00:00:01.000Z</time></trkpt>
			<trkpt lat="59.953362" lon="29.060063"><time>1970-01-01T00:00:01.000Z</time></trkpt>
			<trkpt lat="59.953040" lon="29.060149"><time>1970-01-01T00:00:01.000Z</time></trkpt>
			<trkpt lat="59.952571" lon="29.061061"><time>1970-01-01T00:00:01.000Z</time></trkpt>
			<trkpt lat="59.952232" lon="29.061048"><time>1970-01-01T00:00:01.000Z</time></trkpt>
			<trkpt lat="59.951875" lon="29.061297"><time>1970-01-01T00:00:01.000Z</time></trkpt>
			<trkpt lat="59.951604" lon="29.061284"><time>1970-01-01T00:00:01.000Z</time></trkpt>
			<trkpt lat="59.951419" lon="29.060997"><time>1970-01-01T00:00:01.000Z</time></trkpt>
			<trkpt lat="59.951309" lon="29.060994"><time>1970-01-01T00:00:01.000Z</time></trkpt>
			<trkpt lat="59.950442" lon="29.060816"><time>1970-01-01T00:00:01.000Z</time></trkpt>
			<trkpt lat="59.950009" lon="29.060764"><time>1970-01-01T00:00:01.000Z</time></trkpt>
			<trkpt lat="59.949872" lon="29.060565"><time>1970-01-01T00:00:01.000Z</time></trkpt>
			<trkpt lat="59.949392" lon="29.060513"><time>1970-01-01T00:00:01.000Z</time></trkpt>
			<trkpt lat="59.948984" lon="29.060299"><time>1970-01-01T00:00:01.000Z</time></trkpt>
			<trkpt lat="59.948448" lon="29.060256"><time>1970-01-01T00:00:01.000Z</time></trkpt>
			<trkpt lat="59.948148" lon="29.060320"><time>1970-01-01T00:00:01.000Z</time></trkpt>
			<trkpt lat="59.947997" lon="29.060299"><time>1970-01-01T00:00:01.000Z</time></trkpt>
			<trkpt lat="59.947075" lon="29.059913"><time>1970-01-01T00:00:01.000Z</time></trkpt>
			<trkpt lat="59.946624" lon="29.059698"><time>1970-01-01T00:00:01.000Z</time></trkpt>
			<trkpt lat="59.945723" lon="29.058883"><time>1970-01-01T00:00:01.000Z</time></trkpt>
			<trkpt lat="59.944993" lon="29.057960"><time>1970-01-01T00:00:01.000Z</time></trkpt>
			<trkpt lat="59.944521" lon="29.058153"><time>1970-01-01T00:00:01.000Z</time></trkpt>
			<trkpt lat="59.944199" lon="29.058410"><time>1970-01-01T00:00:01.000Z</time></trkpt>
			<trkpt lat="59.943214" lon="29.058958"><time>1970-01-01T00:00:01.000Z</time></trkpt>
			<trkpt lat="59.943059" lon="29.060195"><time>1970-01-01T00:00:01.000Z</time></trkpt>
			<trkpt lat="59.942346" lon="29.060168"><time>1970-01-01T00:00:01.000Z</time></trkpt>
			<trkpt lat="59.941726" lon="29.060227"><time>1970-01-01T00:00:01.000Z</time></trkpt>
			<trkpt lat="59.941381" lon="29.060224"><time>1970-01-01T00:00:01.000Z</time></trkpt>
			<trkpt lat="59.940990" lon="29.060228"><time>1970-01-01T00:00:01.000Z</time></trkpt>
			<trkpt lat="59.940664" lon="29.060190"><time>1970-01-01T00:00:01.000Z</time></trkpt>
			<trkpt lat="59.939950" lon="29.060254"><time>1970-01-01T00:00:01.000Z</time></trkpt>
			<trkpt lat="59.939498" lon="29.060222"><time>1970-01-01T00:00:01.000Z</time></trkpt>
			<trkpt lat="59.938735" lon="29.060187"><time>1970-01-01T00:00:01.000Z</time></trkpt>
			<trkpt lat="59.938459" lon="29.060035"><time>1970-01-01T00:00:01.000Z</time></trkpt>
			<trkpt lat="59.937436" lon="29.059722"><time>1970-01-01T00:00:01.000Z</time></trkpt>
			<trkpt lat="59.936981" lon="29.059621"><time>1970-01-01T00:00:01.000Z</time></trkpt>
			<trkpt lat="59.936110" lon="29.059444"><time>1970-01-01T00:00:01.000Z</time></trkpt>
			<trkpt lat="59.935476" lon="29.059310"><time>1970-01-01T00:00:01.000Z</time></trkpt>
			<trkpt lat="59.934825" lon="29.059154"><time>1970-01-01T00:00:01.000Z</time></trkpt>
			<trkpt lat="59.934183" lon="29.058843"><time>1970-01-01T00:00:01.000Z</time></trkpt>
			<trkpt lat="59.933359" lon="29.058640"><time>1970-01-01T00:00:01.000Z</time></trkpt>
			<trkpt lat="59.932127" lon="29.058409"><time>1970-01-01T00:00:01.000Z</time></trkpt>
			<trkpt lat="59.931786" lon="29.058323"><time>1970-01-01T00:00:01.000Z</time></trkpt>
			<trkpt lat="59.931108" lon="29.058065"><time>1970-01-01T00:00:01.000Z</time></trkpt>
			<trkpt lat="59.930555" lon="29.057679"><time>1970-01-01T00:00:01.000Z</time></trkpt>
			<trkpt lat="59.930150" lon="29.057374"><time>1970-01-01T00:00:01.000Z</time></trkpt>
			<trkpt lat="59.929630" lon="29.057166"><time>1970-01-01T00:00:01.000Z</time></trkpt>
			<trkpt lat="59.929318" lon="29.057068"><time>1970-01-01T00:00:01.000Z</time></trkpt>
			<trkpt lat="59.928809" lon="29.057756"><time>1970-01-01T00:00:01.000Z</time></trkpt>
			<trkpt lat="59.928740" lon="29.058542"><time>1970-01-01T00:00:01.000Z</time></trkpt>
		</trkseg>
	</trk>
</gpx>