<?xml version="1.0" encoding="UTF-8"?>
<gpx xmlns:xsi="http://www.w3.org/2001/XMLSchema-instance" xmlns="http://www.topografix.com/GPX/1/1" xsi:schemaLocation="http://www.topografix.com/GPX/1/1 http://www.topografix.com/GPX/1/1/gpx.xsd" version="1.1" creator="http://nakarte.tk">
<metadata>
<author>
<link ></link></author>
<copyright ></copyright>
<link ></link></metadata>
<wpt lat="56.028773" lon="37.487074">
<name>DEPO</name>
<link ></link></wpt>
<wpt lat="56.027804" lon="37.478941">
<name>X01</name>
<link ></link></wpt>
<wpt lat="56.032756" lon="37.474746">
<name>X02</name>
<link ></link></wpt>
<wpt lat="56.036733" lon="37.474558">
<name>X03</name>
<link ></link></wpt>
<wpt lat="56.036988" lon="37.475937">
<name>X04</name>
<link ></link></wpt>
<wpt lat="56.036823" lon="37.477766">
<name>PRUD1</name>
<link ></link></wpt>
<wpt lat="56.040596" lon="37.476597">
<name>X05</name>
<link ></link></wpt>
<wpt lat="56.047299" lon="37.485759">
<name>X06</name>
<link ></link></wpt>
<wpt lat="56.042355" lon="37.479048">
<name>VOROTA</name>
<link ></link></wpt>
<wpt lat="56.044366" lon="37.481843">
<name>VILYAMS</name>
<link ></link></wpt>
<wpt lat="56.045234" lon="37.482428">
<name>AN2</name>
<link ></link></wpt>
<wpt lat="56.045513" lon="37.482321">
<name>BASNHYA</name>
<link ></link></wpt>
<wpt lat="56.048641" lon="37.482841">
<name>MAG5_NAUCHN</name>
<link ></link></wpt>
<wpt lat="56.049794" lon="37.481065">
<name>CERKOV_SPOR_HLEB</name>
<link ></link></wpt>
<wpt lat="56.050322" lon="37.479022">
<name>ROV</name>
<link ></link></wpt>
<wpt lat="56.050705" lon="37.46951">
<name>AVIAMODEL</name>
<link ></link></wpt>
<wpt lat="56.053213" lon="37.467386">
<name>X07</name>
<link ></link></wpt>
<wpt lat="56.0585" lon="37.45684">
<name>X08</name>
<link ></link></wpt>
<wpt lat="56.063172" lon="37.464725">
<name>X09</name>
<link ></link></wpt>
<wpt lat="56.062758" lon="37.473684">
<name>X10</name>
<link ></link></wpt>
<wpt lat="56.06437" lon="37.474108">
<name>MOST1</name>
<link ></link></wpt>
<wpt lat="56.068556" lon="37.473561">
<name>X11</name>
<link ></link></wpt>
<wpt lat="56.06982" lon="37.487111">
<name>LEP</name>
<link ></link></wpt>
<wpt lat="56.070745" lon="37.491247">
<name>X12</name>
<link ></link></wpt>
<wpt lat="56.073287" lon="37.495281">
<name>NEKRAS</name>
<link ></link></wpt>
<wpt lat="56.070745" lon="37.497808">
<name>MOST2</name>
<link ></link></wpt>
<wpt lat="56.067532" lon="37.500195">
<name>X13</name>
<link ></link></wpt>
<wpt lat="56.065963" lon="37.503693">
<name>X14</name>
<link ></link></wpt>
<wpt lat="56.067122" lon="37.511938">
<name>CERKOV_TROICA</name>
<link ></link></wpt>
<wpt lat="56.066047" lon="37.505098">
<name>MAG_TROICA</name>
<link ></link></wpt>
<wpt lat="56.068418" lon="37.516015">
<name>DUBLER</name>
<link ></link></wpt>
<wpt lat="56.068344" lon="37.517195">
<name>DMITR1</name>
<link ></link></wpt>
<wpt lat="56.066843" lon="37.54936">
<name>X15</name>
<link ></link></wpt>
<wpt lat="56.066601" lon="37.555711">
<name>KORCH</name>
<link ></link></wpt>
<wpt lat="56.068376" lon="37.554649">
<name>BOLOTO</name>
<link ></link></wpt>
<wpt lat="56.068888" lon="37.555481">
<name>PAMYATN</name>
<link ></link></wpt>
<wpt lat="56.068793" lon="37.558147">
<name>X16</name>
<link ></link></wpt>
<wpt lat="56.069625" lon="37.558538">
<name>X17</name>
<link ></link></wpt>
<wpt lat="56.070233" lon="37.559917">
<name>X18</name>
<link ></link></wpt>
<wpt lat="56.070982" lon="37.559874">
<name>KOL1</name>
<link ></link></wpt>
<wpt lat="56.07403" lon="37.560357">
<name>MAG_MARF</name>
<link ></link></wpt>
<wpt lat="56.079152" lon="37.560421">
<name>MARFINO</name>
<link ></link></wpt>
<wpt lat="56.063184" lon="37.573757">
<name>POLYANA_UCHA</name>
<link ></link></wpt>
<wpt lat="56.055876" lon="37.578156">
<name>X19</name>
<link ></link></wpt>
<wpt lat="56.055594" lon="37.579615">
<name>MOST3</name>
<link ></link></wpt>
<wpt lat="56.055501" lon="37.58049">
<name>X20</name>
<link ></link></wpt>
<wpt lat="56.055966" lon="37.583376">
<name>MAG_FEDOSK</name>
<link ></link></wpt>
<wpt lat="56.055097" lon="37.582694">
<name>MUZEI_FEDOSK</name>
<link ></link></wpt>
<wpt lat="56.054282" lon="37.582512">
<name>X21</name>
<link ></link></wpt>
<wpt lat="56.052937" lon="37.540868">
<name>X22</name>
<link ></link></wpt>
<wpt lat="56.05353" lon="37.535305">
<name>X23</name>
<link ></link></wpt>
<wpt lat="56.053285" lon="37.534656">
<name>X24</name>
<link ></link></wpt>
<wpt lat="56.054039" lon="37.532274">
<name>DMITR2</name>
<link ></link></wpt>
<wpt lat="56.053653" lon="37.530869">
<name>X25</name>
<link ></link></wpt>
<wpt lat="56.055031" lon="37.52941">
<name>MUZEI_T34</name>
<link ></link></wpt>
<wpt lat="56.049815" lon="37.534989">
<name>MAG_SHOLOH</name>
<link ></link></wpt>
<wpt lat="56.049504" lon="37.532537">
<name>X26</name>
<link ></link></wpt>
<wpt lat="56.049369" lon="37.531534">
<name>X27</name>
<link ></link></wpt>
<wpt lat="56.050055" lon="37.522479">
<name>X28</name>
<link ></link></wpt>
<wpt lat="56.046745" lon="37.521856">
<name>X29</name>
<link ></link></wpt>
<wpt lat="56.045807" lon="37.514255">
<name>X30</name>
<link ></link></wpt>
<wpt lat="56.044063" lon="37.514539">
<name>MOST4</name>
<link ></link></wpt>
<wpt lat="56.04344" lon="37.51396">
<name>X31</name>
<link ></link></wpt>
<wpt lat="56.044315" lon="37.511122">
<name>X32</name>
<link ></link></wpt>
<wpt lat="56.044854" lon="37.509894">
<name>RODN1</name>
<link ></link></wpt>
<wpt lat="56.044815" lon="37.505876">
<name>DAMBA</name>
<link ></link></wpt>
<wpt lat="56.042115" lon="37.502641">
<name>2KUPOLA</name>
<link ></link></wpt>
<wpt lat="56.038678" lon="37.501772">
<name>PRUD2</name>
<link ></link></wpt>
<wpt lat="56.035109" lon="37.500088">
<name>X33</name>
<link ></link></wpt>
<wpt lat="56.031506" lon="37.501541">
<name>X34</name>
<link ></link></wpt>
<wpt lat="56.029165" lon="37.491172">
<name>X35</name>
<link ></link></wpt>
<trk>
<name>Марфино - трек</name>
<link ></link>
<trkseg>
<trkpt lat="56.02877" lon="37.487079">
<ele>189</ele>
<time>1970-01-01T00:00:01Z</time>
<link ></link></trkpt>
<trkpt lat="56.028959" lon="37.487074">
<ele>189.32000000000005</ele>
<time>1970-01-01T00:00:01Z</time>
<link ></link></trkpt>
<trkpt lat="56.029111" lon="37.485175">
<ele>189.68</ele>
<time>1970-01-01T00:00:01Z</time>
<link ></link></trkpt>
<trkpt lat="56.028932" lon="37.485046">
<ele>191.76000000000005</ele>
<time>1970-01-01T00:00:01Z</time>
<link ></link></trkpt>
<trkpt lat="56.028788" lon="37.484756">
<ele>194.00000000000003</ele>
<time>1970-01-01T00:00:01Z</time>
<link ></link></trkpt>
<trkpt lat="56.027804" lon="37.479215">
<ele>198.48000000000005</ele>
<time>1970-01-01T00:00:01Z</time>
<link ></link></trkpt>
<trkpt lat="56.02781" lon="37.47893">
<ele>200.92000000000004</ele>
<time>1970-01-01T00:00:01Z</time>
<link ></link></trkpt>
<trkpt lat="56.027948" lon="37.47863">
<ele>202.84000000000003</ele>
<time>1970-01-01T00:00:01Z</time>
<link ></link></trkpt>
<trkpt lat="56.028803" lon="37.47812">
<ele>203.20000000000005</ele>
<time>1970-01-01T00:00:01Z</time>
<link ></link></trkpt>
<trkpt lat="56.029243" lon="37.477702">
<ele>202.32000000000002</ele>
<time>1970-01-01T00:00:01Z</time>
<link ></link></trkpt>
<trkpt lat="56.029786" lon="37.477198">
<ele>202.20000000000005</ele>
<time>1970-01-01T00:00:01Z</time>
<link ></link></trkpt>
<trkpt lat="56.030313" lon="37.476795">
<ele>200.64000000000001</ele>
<time>1970-01-01T00:00:01Z</time>
<link ></link></trkpt>
<trkpt lat="56.030805" lon="37.476645">
<ele>200.36</ele>
<time>1970-01-01T00:00:01Z</time>
<link ></link></trkpt>
<trkpt lat="56.031383" lon="37.476382">
<ele>199.12</ele>
<time>1970-01-01T00:00:01Z</time>
<link ></link></trkpt>
<trkpt lat="56.031803" lon="37.476221">
<ele>199.16000000000003</ele>
<time>1970-01-01T00:00:01Z</time>
<link ></link></trkpt>
<trkpt lat="56.032064" lon="37.475926">
<ele>199.16000000000003</ele>
<time>1970-01-01T00:00:01Z</time>
<link ></link></trkpt>
<trkpt lat="56.032214" lon="37.475663">
<ele>199.64000000000004</ele>
<time>1970-01-01T00:00:01Z</time>
<link ></link></trkpt>
<trkpt lat="56.032546" lon="37.475417">
<ele>200.04000000000002</ele>
<time>1970-01-01T00:00:01Z</time>
<link ></link></trkpt>
<trkpt lat="56.03266" lon="37.475181">
<ele>200.04000000000002</ele>
<time>1970-01-01T00:00:01Z</time>
<link ></link></trkpt>
<trkpt lat="56.032708" lon="37.474848">
<ele>199.32000000000005</ele>
<time>1970-01-01T00:00:01Z</time>
<link ></link></trkpt>
<trkpt lat="56.032771" lon="37.474735">
<ele>198.36000000000004</ele>
<time>1970-01-01T00:00:01Z</time>
<link ></link></trkpt>
<trkpt lat="56.033736" lon="37.474698">
<ele>196.84000000000003</ele>
<time>1970-01-01T00:00:01Z</time>
<link ></link></trkpt>
<trkpt lat="56.034548" lon="37.474628">
<ele>195.64000000000004</ele>
<time>1970-01-01T00:00:01Z</time>
<link ></link></trkpt>
<trkpt lat="56.035286" lon="37.474607">
<ele>194.64000000000004</ele>
<time>1970-01-01T00:00:01Z</time>
<link ></link></trkpt>
<trkpt lat="56.035687" lon="37.474671">
<ele>194.00000000000006</ele>
<time>1970-01-01T00:00:01Z</time>
<link ></link></trkpt>
<trkpt lat="56.035789" lon="37.474687">
<ele>193.20000000000005</ele>
<time>1970-01-01T00:00:01Z</time>
<link ></link></trkpt>
<trkpt lat="56.03673" lon="37.474564">
<ele>192.20000000000005</ele>
<time>1970-01-01T00:00:01Z</time>
<link ></link></trkpt>
<trkpt lat="56.037057" lon="37.475572">
<ele>190.96000000000004</ele>
<time>1970-01-01T00:00:01Z</time>
<link ></link></trkpt>
<trkpt lat="56.036979" lon="37.47598">
<ele>190.12</ele>
<time>1970-01-01T00:00:01Z</time>
<link ></link></trkpt>
<trkpt lat="56.036628" lon="37.476699">
<ele>189.84</ele>
<time>1970-01-01T00:00:01Z</time>
<link ></link></trkpt>
<trkpt lat="56.03661" lon="37.477005">
<ele>189.68000000000004</ele>
<time>1970-01-01T00:00:01Z</time>
<link ></link></trkpt>
<trkpt lat="56.036622" lon="37.477192">
<ele>189.52000000000004</ele>
<time>1970-01-01T00:00:01Z</time>
<link ></link></trkpt>
<trkpt lat="56.036676" lon="37.47745">
<ele>189.00000000000003</ele>
<time>1970-01-01T00:00:01Z</time>
<link ></link></trkpt>
<trkpt lat="56.036814" lon="37.477756">
<ele>188.16000000000003</ele>
<time>1970-01-01T00:00:01Z</time>
<link ></link></trkpt>
<trkpt lat="56.037003" lon="37.478142">
<ele>187.52000000000004</ele>
<time>1970-01-01T00:00:01Z</time>
<link ></link></trkpt>
<trkpt lat="56.037345" lon="37.478619">
<ele>186.8</ele>
<time>1970-01-01T00:00:01Z</time>
<link ></link></trkpt>
<trkpt lat="56.037602" lon="37.479032">
<ele>186.64000000000004</ele>
<time>1970-01-01T00:00:01Z</time>
<link ></link></trkpt>
<trkpt lat="56.03786" lon="37.479419">
<ele>186.84</ele>
<time>1970-01-01T00:00:01Z</time>
<link ></link></trkpt>
<trkpt lat="56.038292" lon="37.479622">
<ele>187.32</ele>
<time>1970-01-01T00:00:01Z</time>
<link ></link></trkpt>
<trkpt lat="56.038675" lon="37.479671">
<ele>188.64</ele>
<time>1970-01-01T00:00:01Z</time>
<link ></link></trkpt>
<trkpt lat="56.039808" lon="37.47995">
<ele>189.8</ele>
<time>1970-01-01T00:00:01Z</time>
<link ></link></trkpt>
<trkpt lat="56.04009" lon="37.479976">
<ele>191.56</ele>
<time>1970-01-01T00:00:01Z</time>
<link ></link></trkpt>
<trkpt lat="56.040192" lon="37.479944">
<ele>192.68000000000004</ele>
<time>1970-01-01T00:00:01Z</time>
<link ></link></trkpt>
<trkpt lat="56.040269" lon="37.47973">
<ele>193.48000000000002</ele>
<time>1970-01-01T00:00:01Z</time>
<link ></link></trkpt>
<trkpt lat="56.040485" lon="37.477144">
<ele>194.04000000000002</ele>
<time>1970-01-01T00:00:01Z</time>
<link ></link></trkpt>
<trkpt lat="56.040554" lon="37.476661">
<ele>194.16000000000003</ele>
<time>1970-01-01T00:00:01Z</time>
<link ></link></trkpt>
<trkpt lat="56.040599" lon="37.476608">
<ele>194.96000000000004</ele>
<time>1970-01-01T00:00:01Z</time>
<link ></link></trkpt>
<trkpt lat="56.040755" lon="37.476779">
<ele>195.64000000000004</ele>
<time>1970-01-01T00:00:01Z</time>
<link ></link></trkpt>
<trkpt lat="56.042352" lon="37.479064">
<ele>197.20000000000002</ele>
<time>1970-01-01T00:00:01Z</time>
<link ></link></trkpt>
<trkpt lat="56.042445" lon="37.479419">
<ele>198.48000000000002</ele>
<time>1970-01-01T00:00:01Z</time>
<link ></link></trkpt>
<trkpt lat="56.042628" lon="37.47959">
<ele>200.48000000000002</ele>
<time>1970-01-01T00:00:01Z</time>
<link ></link></trkpt>
<trkpt lat="56.043889" lon="37.481414">
<ele>202.16000000000003</ele>
<time>1970-01-01T00:00:01Z</time>
<link ></link></trkpt>
<trkpt lat="56.044168" lon="37.481559">
<ele>204.52000000000004</ele>
<time>1970-01-01T00:00:01Z</time>
<link ></link></trkpt>
<trkpt lat="56.044578" lon="37.481934">
<ele>206.00000000000006</ele>
<time>1970-01-01T00:00:01Z</time>
<link ></link></trkpt>
<trkpt lat="56.045873" lon="37.48385">
<ele>208.04000000000002</ele>
<time>1970-01-01T00:00:01Z</time>
<link ></link></trkpt>
<trkpt lat="56.04661" lon="37.48482">
<ele>208.16000000000003</ele>
<time>1970-01-01T00:00:01Z</time>
<link ></link></trkpt>
<trkpt lat="56.047296" lon="37.48577">
<ele>208.76000000000005</ele>
<time>1970-01-01T00:00:01Z</time>
<link ></link></trkpt>
<trkpt lat="56.048335" lon="37.483458">
<ele>207.96000000000004</ele>
<time>1970-01-01T00:00:01Z</time>
<link ></link></trkpt>
<trkpt lat="56.048581" lon="37.482814">
<ele>207.92000000000002</ele>
<time>1970-01-01T00:00:01Z</time>
<link ></link></trkpt>
<trkpt lat="56.049851" lon="37.480164">
<ele>208.20000000000005</ele>
<time>1970-01-01T00:00:01Z</time>
<link ></link></trkpt>
<trkpt lat="56.050025" lon="37.479821">
<ele>208.36</ele>
<time>1970-01-01T00:00:01Z</time>
<link ></link></trkpt>
<trkpt lat="56.050304" lon="37.479182">
<ele>208.68000000000004</ele>
<time>1970-01-01T00:00:01Z</time>
<link ></link></trkpt>
<trkpt lat="56.050316" lon="37.479016">
<ele>208.32000000000002</ele>
<time>1970-01-01T00:00:01Z</time>
<link ></link></trkpt>
<trkpt lat="56.050382" lon="37.478909">
<ele>208.16000000000003</ele>
<time>1970-01-01T00:00:01Z</time>
<link ></link></trkpt>
<trkpt lat="56.050502" lon="37.478898">
<ele>207.52000000000004</ele>
<time>1970-01-01T00:00:01Z</time>
<link ></link></trkpt>
<trkpt lat="56.050606" lon="37.478689">
<ele>206.88</ele>
<time>1970-01-01T00:00:01Z</time>
<link ></link></trkpt>
<trkpt lat="56.050858" lon="37.478163">
<ele>205.64000000000004</ele>
<time>1970-01-01T00:00:01Z</time>
<link ></link></trkpt>
<trkpt lat="56.051173" lon="37.477418">
<ele>204.8</ele>
<time>1970-01-01T00:00:01Z</time>
<link ></link></trkpt>
<trkpt lat="56.051574" lon="37.476591">
<ele>204.16000000000003</ele>
<time>1970-01-01T00:00:01Z</time>
<link ></link></trkpt>
<trkpt lat="56.051574" lon="37.476388">
<ele>204.0</ele>
<time>1970-01-01T00:00:01Z</time>
<link ></link></trkpt>
<trkpt lat="56.051634" lon="37.476248">
<ele>204.48000000000002</ele>
<time>1970-01-01T00:00:01Z</time>
<link ></link></trkpt>
<trkpt lat="56.051658" lon="37.475867">
<ele>204.96000000000004</ele>
<time>1970-01-01T00:00:01Z</time>
<link ></link></trkpt>
<trkpt lat="56.051766" lon="37.475578">
<ele>206.04000000000002</ele>
<time>1970-01-01T00:00:01Z</time>
<link ></link></trkpt>
<trkpt lat="56.052017" lon="37.474945">
<ele>207.00000000000003</ele>
<time>1970-01-01T00:00:01Z</time>
<link ></link></trkpt>
<trkpt lat="56.052176" lon="37.474574">
<ele>208.12000000000003</ele>
<time>1970-01-01T00:00:01Z</time>
<link ></link></trkpt>
<trkpt lat="56.052572" lon="37.473689">
<ele>209.36</ele>
<time>1970-01-01T00:00:01Z</time>
<link ></link></trkpt>
<trkpt lat="56.052691" lon="37.473212">
<ele>210.04000000000002</ele>
<time>1970-01-01T00:00:01Z</time>
<link ></link></trkpt>
<trkpt lat="56.052919" lon="37.472777">
<ele>210.68</ele>
<time>1970-01-01T00:00:01Z</time>
<link ></link></trkpt>
<trkpt lat="56.053326" lon="37.472128">
<ele>210.64000000000001</ele>
<time>1970-01-01T00:00:01Z</time>
<link ></link></trkpt>
<trkpt lat="56.053602" lon="37.471613">
<ele>210.36</ele>
<time>1970-01-01T00:00:01Z</time>
<link ></link></trkpt>
<trkpt lat="56.053914" lon="37.470841">
<ele>209.88000000000002</ele>
<time>1970-01-01T00:00:01Z</time>
<link ></link></trkpt>
<trkpt lat="56.053994" lon="37.46892">
<ele>208.80000000000004</ele>
<time>1970-01-01T00:00:01Z</time>
<link ></link></trkpt>
<trkpt lat="56.053863" lon="37.468443">
<ele>208.16000000000003</ele>
<time>1970-01-01T00:00:01Z</time>
<link ></link></trkpt>
<trkpt lat="56.053201" lon="37.46737">
<ele>208.12000000000006</ele>
<time>1970-01-01T00:00:01Z</time>
<link ></link></trkpt>
<trkpt lat="56.053323" lon="37.466995">
<ele>208.76000000000005</ele>
<time>1970-01-01T00:00:01Z</time>
<link ></link></trkpt>
<trkpt lat="56.053446" lon="37.466485">
<ele>212.16000000000003</ele>
<time>1970-01-01T00:00:01Z</time>
<link ></link></trkpt>
<trkpt lat="56.053659" lon="37.465916">
<ele>214.88000000000005</ele>
<time>1970-01-01T00:00:01Z</time>
<link ></link></trkpt>
<trkpt lat="56.054231" lon="37.464795">
<ele>219.16000000000003</ele>
<time>1970-01-01T00:00:01Z</time>
<link ></link></trkpt>
<trkpt lat="56.055214" lon="37.462993">
<ele>220.64000000000001</ele>
<time>1970-01-01T00:00:01Z</time>
<link ></link></trkpt>
<trkpt lat="56.055573" lon="37.462419">
<ele>220.48000000000002</ele>
<time>1970-01-01T00:00:01Z</time>
<link ></link></trkpt>
<trkpt lat="56.055732" lon="37.462054">
<ele>216.96000000000004</ele>
<time>1970-01-01T00:00:01Z</time>
<link ></link></trkpt>
<trkpt lat="56.056687" lon="37.460133">
<ele>212.64000000000004</ele>
<time>1970-01-01T00:00:01Z</time>
<link ></link></trkpt>
<trkpt lat="56.058503" lon="37.45685">
<ele>205.64000000000001</ele>
<time>1970-01-01T00:00:01Z</time>
<link ></link></trkpt>
<trkpt lat="56.05906" lon="37.457709">
<ele>201.84000000000003</ele>
<time>1970-01-01T00:00:01Z</time>
<link ></link></trkpt>
<trkpt lat="56.061177" lon="37.461485">
<ele>196.76000000000002</ele>
<time>1970-01-01T00:00:01Z</time>
<link ></link></trkpt>
<trkpt lat="56.061899" lon="37.462692">
<ele>195.48000000000002</ele>
<time>1970-01-01T00:00:01Z</time>
<link ></link></trkpt>
<trkpt lat="56.062785" lon="37.46406">
<ele>193.48000000000002</ele>
<time>1970-01-01T00:00:01Z</time>
<link ></link></trkpt>
<trkpt lat="56.063178" lon="37.464741">
<ele>193.00000000000006</ele>
<time>1970-01-01T00:00:01Z</time>
<link ></link></trkpt>
<trkpt lat="56.062944" lon="37.465149">
<ele>192.32000000000005</ele>
<time>1970-01-01T00:00:01Z</time>
<link ></link></trkpt>
<trkpt lat="56.062908" lon="37.465283">
<ele>192.16000000000003</ele>
<time>1970-01-01T00:00:01Z</time>
<link ></link></trkpt>
<trkpt lat="56.062815" lon="37.465498">
<ele>191.68</ele>
<time>1970-01-01T00:00:01Z</time>
<link ></link></trkpt>
<trkpt lat="56.062764" lon="37.465739">
<ele>191.36</ele>
<time>1970-01-01T00:00:01Z</time>
<link ></link></trkpt>
<trkpt lat="56.062432" lon="37.466222">
<ele>190.32</ele>
<time>1970-01-01T00:00:01Z</time>
<link ></link></trkpt>
<trkpt lat="56.062426" lon="37.466539">
<ele>189.68</ele>
<time>1970-01-01T00:00:01Z</time>
<link ></link></trkpt>
<trkpt lat="56.062411" lon="37.466673">
<ele>188.48000000000002</ele>
<time>1970-01-01T00:00:01Z</time>
<link ></link></trkpt>
<trkpt lat="56.062321" lon="37.466925">
<ele>188.0</ele>
<time>1970-01-01T00:00:01Z</time>
<link ></link></trkpt>
<trkpt lat="56.062297" lon="37.467547">
<ele>187.32</ele>
<time>1970-01-01T00:00:01Z</time>
<link ></link></trkpt>
<trkpt lat="56.062252" lon="37.467971">
<ele>187.15999999999997</ele>
<time>1970-01-01T00:00:01Z</time>
<link ></link></trkpt>
<trkpt lat="56.0623" lon="37.468454">
<ele>187.15999999999997</ele>
<time>1970-01-01T00:00:01Z</time>
<link ></link></trkpt>
<trkpt lat="56.062159" lon="37.46891">
<ele>187.32</ele>
<time>1970-01-01T00:00:01Z</time>
<link ></link></trkpt>
<trkpt lat="56.062064" lon="37.469215">
<ele>187.68</ele>
<time>1970-01-01T00:00:01Z</time>
<link ></link></trkpt>
<trkpt lat="56.062007" lon="37.469666">
<ele>187.84000000000003</ele>
<time>1970-01-01T00:00:01Z</time>
<link ></link></trkpt>
<trkpt lat="56.062052" lon="37.46987">
<ele>188.0</ele>
<time>1970-01-01T00:00:01Z</time>
<link ></link></trkpt>
<trkpt lat="56.062094" lon="37.47009">
<ele>188.0</ele>
<time>1970-01-01T00:00:01Z</time>
<link ></link></trkpt>
<trkpt lat="56.061995" lon="37.470433">
<ele>188.0</ele>
<time>1970-01-01T00:00:01Z</time>
<link ></link></trkpt>
<trkpt lat="56.062013" lon="37.470616">
<ele>188.16000000000003</ele>
<time>1970-01-01T00:00:01Z</time>
<link ></link></trkpt>
<trkpt lat="56.061998" lon="37.470739">
<ele>188.32000000000002</ele>
<time>1970-01-01T00:00:01Z</time>
<link ></link></trkpt>
<trkpt lat="56.062046" lon="37.470932">
<ele>188.68</ele>
<time>1970-01-01T00:00:01Z</time>
<link ></link></trkpt>
<trkpt lat="56.06221" lon="37.471136">
<ele>188.84000000000003</ele>
<time>1970-01-01T00:00:01Z</time>
<link ></link></trkpt>
<trkpt lat="56.062198" lon="37.471404">
<ele>189.0</ele>
<time>1970-01-01T00:00:01Z</time>
<link ></link></trkpt>
<trkpt lat="56.0623" lon="37.471527">
<ele>189.0</ele>
<time>1970-01-01T00:00:01Z</time>
<link ></link></trkpt>
<trkpt lat="56.062372" lon="37.471742">
<ele>189.0</ele>
<time>1970-01-01T00:00:01Z</time>
<link ></link></trkpt>
<trkpt lat="56.062366" lon="37.47201">
<ele>189.0</ele>
<time>1970-01-01T00:00:01Z</time>
<link ></link></trkpt>
<trkpt lat="56.062396" lon="37.472177">
<ele>189.0</ele>
<time>1970-01-01T00:00:01Z</time>
<link ></link></trkpt>
<trkpt lat="56.062438" lon="37.472225">
<ele>189.0</ele>
<time>1970-01-01T00:00:01Z</time>
<link ></link></trkpt>
<trkpt lat="56.062468" lon="37.472311">
<ele>188.68</ele>
<time>1970-01-01T00:00:01Z</time>
<link ></link></trkpt>
<trkpt lat="56.062495" lon="37.472541">
<ele>188.36</ele>
<time>1970-01-01T00:00:01Z</time>
<link ></link></trkpt>
<trkpt lat="56.062543" lon="37.472649">
<ele>187.64</ele>
<time>1970-01-01T00:00:01Z</time>
<link ></link></trkpt>
<trkpt lat="56.062609" lon="37.472627">
<ele>187.32</ele>
<time>1970-01-01T00:00:01Z</time>
<link ></link></trkpt>
<trkpt lat="56.062681" lon="37.472616">
<ele>187.0</ele>
<time>1970-01-01T00:00:01Z</time>
<link ></link></trkpt>
<trkpt lat="56.062717" lon="37.472708">
<ele>187.0</ele>
<time>1970-01-01T00:00:01Z</time>
<link ></link></trkpt>
<trkpt lat="56.062758" lon="37.472869">
<ele>187.0</ele>
<time>1970-01-01T00:00:01Z</time>
<link ></link></trkpt>
<trkpt lat="56.06286" lon="37.473174">
<ele>186.51999999999998</ele>
<time>1970-01-01T00:00:01Z</time>
<link ></link></trkpt>
<trkpt lat="56.062902" lon="37.473212">
<ele>186.04000000000002</ele>
<time>1970-01-01T00:00:01Z</time>
<link ></link></trkpt>
<trkpt lat="56.062902" lon="37.473367">
<ele>184.96000000000004</ele>
<time>1970-01-01T00:00:01Z</time>
<link ></link></trkpt>
<trkpt lat="56.062848" lon="37.473598">
<ele>184.48000000000002</ele>
<time>1970-01-01T00:00:01Z</time>
<link ></link></trkpt>
<trkpt lat="56.062773" lon="37.473716">
<ele>184.0</ele>
<time>1970-01-01T00:00:01Z</time>
<link ></link></trkpt>
<trkpt lat="56.062896" lon="37.473834">
<ele>184.0</ele>
<time>1970-01-01T00:00:01Z</time>
<link ></link></trkpt>
<trkpt lat="56.063348" lon="37.474199">
<ele>184.0</ele>
<time>1970-01-01T00:00:01Z</time>
<link ></link></trkpt>
<trkpt lat="56.063621" lon="37.474247">
<ele>184.16000000000003</ele>
<time>1970-01-01T00:00:01Z</time>
<link ></link></trkpt>
<trkpt lat="56.06372" lon="37.474188">
<ele>184.32000000000005</ele>
<time>1970-01-01T00:00:01Z</time>
<link ></link></trkpt>
<trkpt lat="56.063801" lon="37.474097">
<ele>184.68</ele>
<time>1970-01-01T00:00:01Z</time>
<link ></link></trkpt>
<trkpt lat="56.063905" lon="37.474081">
<ele>184.84000000000003</ele>
<time>1970-01-01T00:00:01Z</time>
<link ></link></trkpt>
<trkpt lat="56.064154" lon="37.474">
<ele>185.0</ele>
<time>1970-01-01T00:00:01Z</time>
<link ></link></trkpt>
<trkpt lat="56.064325" lon="37.474135">
<ele>185.0</ele>
<time>1970-01-01T00:00:01Z</time>
<link ></link></trkpt>
<trkpt lat="56.064415" lon="37.474081">
<ele>185.0</ele>
<time>1970-01-01T00:00:01Z</time>
<link ></link></trkpt>
<trkpt lat="56.064448" lon="37.473791">
<ele>185.0</ele>
<time>1970-01-01T00:00:01Z</time>
<link ></link></trkpt>
<trkpt lat="56.064469" lon="37.473603">
<ele>185.48000000000002</ele>
<time>1970-01-01T00:00:01Z</time>
<link ></link></trkpt>
<trkpt lat="56.064546" lon="37.473507">
<ele>185.96000000000004</ele>
<time>1970-01-01T00:00:01Z</time>
<link ></link></trkpt>
<trkpt lat="56.064792" lon="37.473319">
<ele>187.20000000000002</ele>
<time>1970-01-01T00:00:01Z</time>
<link ></link></trkpt>
<trkpt lat="56.064963" lon="37.473298">
<ele>187.36</ele>
<time>1970-01-01T00:00:01Z</time>
<link ></link></trkpt>
<trkpt lat="56.065058" lon="37.473325">
<ele>187.72000000000003</ele>
<time>1970-01-01T00:00:01Z</time>
<link ></link></trkpt>
<trkpt lat="56.065202" lon="37.473464">
<ele>187.28000000000003</ele>
<time>1970-01-01T00:00:01Z</time>
<link ></link></trkpt>
<trkpt lat="56.065274" lon="37.473485">
<ele>187.44000000000003</ele>
<time>1970-01-01T00:00:01Z</time>
<link ></link></trkpt>
<trkpt lat="56.065921" lon="37.473491">
<ele>188.04000000000002</ele>
<time>1970-01-01T00:00:01Z</time>
<link ></link></trkpt>
<trkpt lat="56.066214" lon="37.473373">
<ele>188.52000000000004</ele>
<time>1970-01-01T00:00:01Z</time>
<link ></link></trkpt>
<trkpt lat="56.06637" lon="37.473367">
<ele>189.0</ele>
<time>1970-01-01T00:00:01Z</time>
<link ></link></trkpt>
<trkpt lat="56.066502" lon="37.473485">
<ele>188.84000000000003</ele>
<time>1970-01-01T00:00:01Z</time>
<link ></link></trkpt>
<trkpt lat="56.066625" lon="37.473684">
<ele>188.68000000000004</ele>
<time>1970-01-01T00:00:01Z</time>
<link ></link></trkpt>
<trkpt lat="56.066714" lon="37.473748">
<ele>188.32000000000002</ele>
<time>1970-01-01T00:00:01Z</time>
<link ></link></trkpt>
<trkpt lat="56.066891" lon="37.473668">
<ele>188.16000000000003</ele>
<time>1970-01-01T00:00:01Z</time>
<link ></link></trkpt>
<trkpt lat="56.066972" lon="37.473518">
<ele>188.32000000000002</ele>
<time>1970-01-01T00:00:01Z</time>
<link ></link></trkpt>
<trkpt lat="56.067149" lon="37.473373">
<ele>188.48000000000002</ele>
<time>1970-01-01T00:00:01Z</time>
<link ></link></trkpt>
<trkpt lat="56.067346" lon="37.47326">
<ele>189.04000000000002</ele>
<time>1970-01-01T00:00:01Z</time>
<link ></link></trkpt>
<trkpt lat="56.067571" lon="37.473228">
<ele>189.00000000000003</ele>
<time>1970-01-01T00:00:01Z</time>
<link ></link></trkpt>
<trkpt lat="56.067825" lon="37.473244">
<ele>189.16000000000003</ele>
<time>1970-01-01T00:00:01Z</time>
<link ></link></trkpt>
<trkpt lat="56.068239" lon="37.473346">
<ele>189.8</ele>
<time>1970-01-01T00:00:01Z</time>
<link ></link></trkpt>
<trkpt lat="56.068314" lon="37.473453">
<ele>190.60000000000002</ele>
<time>1970-01-01T00:00:01Z</time>
<link ></link></trkpt>
<trkpt lat="56.068385" lon="37.473507">
<ele>192.40000000000003</ele>
<time>1970-01-01T00:00:01Z</time>
<link ></link></trkpt>
<trkpt lat="56.068541" lon="37.473534">
<ele>193.20000000000005</ele>
<time>1970-01-01T00:00:01Z</time>
<link ></link></trkpt>
<trkpt lat="56.068547" lon="37.473705">
<ele>193.20000000000002</ele>
<time>1970-01-01T00:00:01Z</time>
<link ></link></trkpt>
<trkpt lat="56.068445" lon="37.474027">
<ele>192.40000000000003</ele>
<time>1970-01-01T00:00:01Z</time>
<link ></link></trkpt>
<trkpt lat="56.068284" lon="37.474918">
<ele>190.60000000000002</ele>
<time>1970-01-01T00:00:01Z</time>
<link ></link></trkpt>
<trkpt lat="56.068197" lon="37.475851">
<ele>189.64000000000004</ele>
<time>1970-01-01T00:00:01Z</time>
<link ></link></trkpt>
<trkpt lat="56.068095" lon="37.476382">
<ele>188.68000000000004</ele>
<time>1970-01-01T00:00:01Z</time>
<link ></link></trkpt>
<trkpt lat="56.067972" lon="37.476795">
<ele>188.16000000000003</ele>
<time>1970-01-01T00:00:01Z</time>
<link ></link></trkpt>
<trkpt lat="56.067855" lon="37.477482">
<ele>188.00000000000003</ele>
<time>1970-01-01T00:00:01Z</time>
<link ></link></trkpt>
<trkpt lat="56.06776" lon="37.478662">
<ele>187.8</ele>
<time>1970-01-01T00:00:01Z</time>
<link ></link></trkpt>
<trkpt lat="56.067505" lon="37.479928">
<ele>188.16000000000003</ele>
<time>1970-01-01T00:00:01Z</time>
<link ></link></trkpt>
<trkpt lat="56.067553" lon="37.480336">
<ele>188.52000000000004</ele>
<time>1970-01-01T00:00:01Z</time>
<link ></link></trkpt>
<trkpt lat="56.06755" lon="37.480711">
<ele>188.84000000000003</ele>
<time>1970-01-01T00:00:01Z</time>
<link ></link></trkpt>
<trkpt lat="56.067664" lon="37.481242">
<ele>188.84000000000003</ele>
<time>1970-01-01T00:00:01Z</time>
<link ></link></trkpt>
<trkpt lat="56.067697" lon="37.481419">
<ele>188.52000000000004</ele>
<time>1970-01-01T00:00:01Z</time>
<link ></link></trkpt>
<trkpt lat="56.067661" lon="37.482015">
<ele>188.48000000000002</ele>
<time>1970-01-01T00:00:01Z</time>
<link ></link></trkpt>
<trkpt lat="56.068197" lon="37.483158">
<ele>188.44</ele>
<time>1970-01-01T00:00:01Z</time>
<link ></link></trkpt>
<trkpt lat="56.068544" lon="37.483774">
<ele>189.68</ele>
<time>1970-01-01T00:00:01Z</time>
<link ></link></trkpt>
<trkpt lat="56.068712" lon="37.483855">
<ele>189.36</ele>
<time>1970-01-01T00:00:01Z</time>
<link ></link></trkpt>
<trkpt lat="56.06935" lon="37.484466">
<ele>189.95999999999998</ele>
<time>1970-01-01T00:00:01Z</time>
<link ></link></trkpt>
<trkpt lat="56.069847" lon="37.487052">
<ele>188.08</ele>
<time>1970-01-01T00:00:01Z</time>
<link ></link></trkpt>
<trkpt lat="56.07002" lon="37.48769">
<ele>187.95999999999998</ele>
<time>1970-01-01T00:00:01Z</time>
<link ></link></trkpt>
<trkpt lat="56.070071" lon="37.488216">
<ele>187.16000000000003</ele>
<time>1970-01-01T00:00:01Z</time>
<link ></link></trkpt>
<trkpt lat="56.070149" lon="37.488565">
<ele>187.36</ele>
<time>1970-01-01T00:00:01Z</time>
<link ></link></trkpt>
<trkpt lat="56.070167" lon="37.488801">
<ele>187.20000000000005</ele>
<time>1970-01-01T00:00:01Z</time>
<link ></link></trkpt>
<trkpt lat="56.070077" lon="37.489262">
<ele>186.64000000000001</ele>
<time>1970-01-01T00:00:01Z</time>
<link ></link></trkpt>
<trkpt lat="56.070119" lon="37.489509">
<ele>186.16000000000003</ele>
<time>1970-01-01T00:00:01Z</time>
<link ></link></trkpt>
<trkpt lat="56.070116" lon="37.490239">
<ele>185.68</ele>
<time>1970-01-01T00:00:01Z</time>
<link ></link></trkpt>
<trkpt lat="56.070284" lon="37.490914">
<ele>185.32000000000002</ele>
<time>1970-01-01T00:00:01Z</time>
<link ></link></trkpt>
<trkpt lat="56.070368" lon="37.491006">
<ele>185.16000000000003</ele>
<time>1970-01-01T00:00:01Z</time>
<link ></link></trkpt>
<trkpt lat="56.070464" lon="37.491016">
<ele>185.0</ele>
<time>1970-01-01T00:00:01Z</time>
<link ></link></trkpt>
<trkpt lat="56.070613" lon="37.491193">
<ele>185.0</ele>
<time>1970-01-01T00:00:01Z</time>
<link ></link></trkpt>
<trkpt lat="56.070742" lon="37.491285">
<ele>184.68</ele>
<time>1970-01-01T00:00:01Z</time>
<link ></link></trkpt>
<trkpt lat="56.070769" lon="37.491617">
<ele>184.36</ele>
<time>1970-01-01T00:00:01Z</time>
<link ></link></trkpt>
<trkpt lat="56.070781" lon="37.492218">
<ele>183.64</ele>
<time>1970-01-01T00:00:01Z</time>
<link ></link></trkpt>
<trkpt lat="56.070907" lon="37.492631">
<ele>183.32</ele>
<time>1970-01-01T00:00:01Z</time>
<link ></link></trkpt>
<trkpt lat="56.070996" lon="37.493141">
<ele>183.0</ele>
<time>1970-01-01T00:00:01Z</time>
<link ></link></trkpt>
<trkpt lat="56.071107" lon="37.493307">
<ele>183.48000000000002</ele>
<time>1970-01-01T00:00:01Z</time>
<link ></link></trkpt>
<trkpt lat="56.071503" lon="37.493725">
<ele>184.12</ele>
<time>1970-01-01T00:00:01Z</time>
<link ></link></trkpt>
<trkpt lat="56.071886" lon="37.494063">
<ele>185.36</ele>
<time>1970-01-01T00:00:01Z</time>
<link ></link></trkpt>
<trkpt lat="56.072221" lon="37.494176">
<ele>186.2</ele>
<time>1970-01-01T00:00:01Z</time>
<link ></link></trkpt>
<trkpt lat="56.07255" lon="37.494423">
<ele>186.84000000000003</ele>
<time>1970-01-01T00:00:01Z</time>
<link ></link></trkpt>
<trkpt lat="56.073152" lon="37.494847">
<ele>186.83999999999997</ele>
<time>1970-01-01T00:00:01Z</time>
<link ></link></trkpt>
<trkpt lat="56.073332" lon="37.494932">
<ele>186.68</ele>
<time>1970-01-01T00:00:01Z</time>
<link ></link></trkpt>
<trkpt lat="56.073254" lon="37.495421">
<ele>186.32</ele>
<time>1970-01-01T00:00:01Z</time>
<link ></link></trkpt>
<trkpt lat="56.073176" lon="37.495421">
<ele>185.68</ele>
<time>1970-01-01T00:00:01Z</time>
<link ></link></trkpt>
<trkpt lat="56.073024" lon="37.495539">
<ele>185.04000000000002</ele>
<time>1970-01-01T00:00:01Z</time>
<link ></link></trkpt>
<trkpt lat="56.072904" lon="37.496113">
<ele>183.8</ele>
<time>1970-01-01T00:00:01Z</time>
<link ></link></trkpt>
<trkpt lat="56.07273" lon="37.496579">
<ele>183.15999999999997</ele>
<time>1970-01-01T00:00:01Z</time>
<link ></link></trkpt>
<trkpt lat="56.072631" lon="37.496805">
<ele>182.16000000000003</ele>
<time>1970-01-01T00:00:01Z</time>
<link ></link></trkpt>
<trkpt lat="56.072586" lon="37.496992">
<ele>181.84</ele>
<time>1970-01-01T00:00:01Z</time>
<link ></link></trkpt>
<trkpt lat="56.072389" lon="37.497143">
<ele>181.48000000000002</ele>
<time>1970-01-01T00:00:01Z</time>
<link ></link></trkpt>
<trkpt lat="56.072305" lon="37.497234">
<ele>181.48000000000002</ele>
<time>1970-01-01T00:00:01Z</time>
<link ></link></trkpt>
<trkpt lat="56.072209" lon="37.497717">
<ele>181.68</ele>
<time>1970-01-01T00:00:01Z</time>
<link ></link></trkpt>
<trkpt lat="56.072131" lon="37.497883">
<ele>181.36</ele>
<time>1970-01-01T00:00:01Z</time>
<link ></link></trkpt>
<trkpt lat="56.072071" lon="37.497942">
<ele>181.04000000000002</ele>
<time>1970-01-01T00:00:01Z</time>
<link ></link></trkpt>
<trkpt lat="56.071479" lon="37.497727">
<ele>179.96000000000004</ele>
<time>1970-01-01T00:00:01Z</time>
<link ></link></trkpt>
<trkpt lat="56.071278" lon="37.497668">
<ele>179.0</ele>
<time>1970-01-01T00:00:01Z</time>
<link ></link></trkpt>
<trkpt lat="56.071014" lon="37.497776">
<ele>178.04000000000002</ele>
<time>1970-01-01T00:00:01Z</time>
<link ></link></trkpt>
<trkpt lat="56.070637" lon="37.497845">
<ele>177.60000000000002</ele>
<time>1970-01-01T00:00:01Z</time>
<link ></link></trkpt>
<trkpt lat="56.070514" lon="37.497963">
<ele>178.24</ele>
<time>1970-01-01T00:00:01Z</time>
<link ></link></trkpt>
<trkpt lat="56.069643" lon="37.498553">
<ele>180.16000000000003</ele>
<time>1970-01-01T00:00:01Z</time>
<link ></link></trkpt>
<trkpt lat="56.068511" lon="37.499476">
<ele>182.84000000000003</ele>
<time>1970-01-01T00:00:01Z</time>
<link ></link></trkpt>
<trkpt lat="56.068065" lon="37.499846">
<ele>185.52</ele>
<time>1970-01-01T00:00:01Z</time>
<link ></link></trkpt>
<trkpt lat="56.067834" lon="37.500007">
<ele>187.56</ele>
<time>1970-01-01T00:00:01Z</time>
<link ></link></trkpt>
<trkpt lat="56.067652" lon="37.500184">
<ele>189.32000000000002</ele>
<time>1970-01-01T00:00:01Z</time>
<link ></link></trkpt>
<trkpt lat="56.067532" lon="37.500206">
<ele>191.24</ele>
<time>1970-01-01T00:00:01Z</time>
<link ></link></trkpt>
<trkpt lat="56.067409" lon="37.500318">
<ele>193.68</ele>
<time>1970-01-01T00:00:01Z</time>
<link ></link></trkpt>
<trkpt lat="56.067047" lon="37.501048">
<ele>197.52000000000004</ele>
<time>1970-01-01T00:00:01Z</time>
<link ></link></trkpt>
<trkpt lat="56.066864" lon="37.501563">
<ele>201.52000000000004</ele>
<time>1970-01-01T00:00:01Z</time>
<link ></link></trkpt>
<trkpt lat="56.066556" lon="37.502416">
<ele>206.72000000000003</ele>
<time>1970-01-01T00:00:01Z</time>
<link ></link></trkpt>
<trkpt lat="56.06612" lon="37.503448">
<ele>210.96000000000004</ele>
<time>1970-01-01T00:00:01Z</time>
<link ></link></trkpt>
<trkpt lat="56.065981" lon="37.503735">
<ele>214.00000000000003</ele>
<time>1970-01-01T00:00:01Z</time>
<link ></link></trkpt>
<trkpt lat="56.066172" lon="37.504567">
<ele>216.04000000000002</ele>
<time>1970-01-01T00:00:01Z</time>
<link ></link></trkpt>
<trkpt lat="56.066169" lon="37.504744">
<ele>216.84000000000003</ele>
<time>1970-01-01T00:00:01Z</time>
<link ></link></trkpt>
<trkpt lat="56.066038" lon="37.504932">
<ele>218.12000000000003</ele>
<time>1970-01-01T00:00:01Z</time>
<link ></link></trkpt>
<trkpt lat="56.066011" lon="37.505189">
<ele>219.96</ele>
<time>1970-01-01T00:00:01Z</time>
<link ></link></trkpt>
<trkpt lat="56.066193" lon="37.506005">
<ele>222.0</ele>
<time>1970-01-01T00:00:01Z</time>
<link ></link></trkpt>
<trkpt lat="56.067188" lon="37.511616">
<ele>224.08</ele>
<time>1970-01-01T00:00:01Z</time>
<link ></link></trkpt>
<trkpt lat="56.067388" lon="37.512538">
<ele>224.56</ele>
<time>1970-01-01T00:00:01Z</time>
<link ></link></trkpt>
<trkpt lat="56.068173" lon="37.51543">
<ele>224.36</ele>
<time>1970-01-01T00:00:01Z</time>
<link ></link></trkpt>
<trkpt lat="56.068409" lon="37.516176">
<ele>222.80000000000004</ele>
<time>1970-01-01T00:00:01Z</time>
<link ></link></trkpt>
<trkpt lat="56.068484" lon="37.516594">
<ele>222.32000000000005</ele>
<time>1970-01-01T00:00:01Z</time>
<link ></link></trkpt>
<trkpt lat="56.068502" lon="37.516932">
<ele>220.80000000000004</ele>
<time>1970-01-01T00:00:01Z</time>
<link ></link></trkpt>
<trkpt lat="56.068332" lon="37.517007">
<ele>221.08000000000004</ele>
<time>1970-01-01T00:00:01Z</time>
<link ></link></trkpt>
<trkpt lat="56.068352" lon="37.517538">
<ele>219.76000000000002</ele>
<time>1970-01-01T00:00:01Z</time>
<link ></link></trkpt>
<trkpt lat="56.068071" lon="37.51764">
<ele>220.16000000000003</ele>
<time>1970-01-01T00:00:01Z</time>
<link ></link></trkpt>
<trkpt lat="56.067825" lon="37.517667">
<ele>220.0</ele>
<time>1970-01-01T00:00:01Z</time>
<link ></link></trkpt>
<trkpt lat="56.067607" lon="37.517715">
<ele>220.48000000000002</ele>
<time>1970-01-01T00:00:01Z</time>
<link ></link></trkpt>
<trkpt lat="56.067484" lon="37.517887">
<ele>220.88000000000002</ele>
<time>1970-01-01T00:00:01Z</time>
<link ></link></trkpt>
<trkpt lat="56.067382" lon="37.518418">
<ele>220.52</ele>
<time>1970-01-01T00:00:01Z</time>
<link ></link></trkpt>
<trkpt lat="56.067385" lon="37.519394">
<ele>220.16000000000003</ele>
<time>1970-01-01T00:00:01Z</time>
<link ></link></trkpt>
<trkpt lat="56.067265" lon="37.520033">
<ele>219.16000000000003</ele>
<time>1970-01-01T00:00:01Z</time>
<link ></link></trkpt>
<trkpt lat="56.067206" lon="37.520757">
<ele>218.52000000000004</ele>
<time>1970-01-01T00:00:01Z</time>
<link ></link></trkpt>
<trkpt lat="56.067137" lon="37.521186">
<ele>217.48000000000005</ele>
<time>1970-01-01T00:00:01Z</time>
<link ></link></trkpt>
<trkpt lat="56.067101" lon="37.521486">
<ele>217.0</ele>
<time>1970-01-01T00:00:01Z</time>
<link ></link></trkpt>
<trkpt lat="56.067092" lon="37.521905">
<ele>216.32000000000005</ele>
<time>1970-01-01T00:00:01Z</time>
<link ></link></trkpt>
<trkpt lat="56.067101" lon="37.522151">
<ele>216.32000000000005</ele>
<time>1970-01-01T00:00:01Z</time>
<link ></link></trkpt>
<trkpt lat="56.067032" lon="37.522345">
<ele>216.32000000000005</ele>
<time>1970-01-01T00:00:01Z</time>
<link ></link></trkpt>
<trkpt lat="56.066897" lon="37.522522">
<ele>216.36000000000004</ele>
<time>1970-01-01T00:00:01Z</time>
<link ></link></trkpt>
<trkpt lat="56.066774" lon="37.522763">
<ele>216.20000000000005</ele>
<time>1970-01-01T00:00:01Z</time>
<link ></link></trkpt>
<trkpt lat="56.066598" lon="37.523047">
<ele>215.64000000000001</ele>
<time>1970-01-01T00:00:01Z</time>
<link ></link></trkpt>
<trkpt lat="56.066163" lon="37.523369">
<ele>215.0</ele>
<time>1970-01-01T00:00:01Z</time>
<link ></link></trkpt>
<trkpt lat="56.065906" lon="37.523637">
<ele>214.36</ele>
<time>1970-01-01T00:00:01Z</time>
<link ></link></trkpt>
<trkpt lat="56.065699" lon="37.523739">
<ele>213.48000000000002</ele>
<time>1970-01-01T00:00:01Z</time>
<link ></link></trkpt>
<trkpt lat="56.065415" lon="37.524013">
<ele>213.00000000000006</ele>
<time>1970-01-01T00:00:01Z</time>
<link ></link></trkpt>
<trkpt lat="56.064795" lon="37.524523">
<ele>212.32000000000005</ele>
<time>1970-01-01T00:00:01Z</time>
<link ></link></trkpt>
<trkpt lat="56.064654" lon="37.524592">
<ele>212.16000000000003</ele>
<time>1970-01-01T00:00:01Z</time>
<link ></link></trkpt>
<trkpt lat="56.064388" lon="37.524834">
<ele>212.96000000000004</ele>
<time>1970-01-01T00:00:01Z</time>
<link ></link></trkpt>
<trkpt lat="56.064295" lon="37.524968">
<ele>213.92000000000002</ele>
<time>1970-01-01T00:00:01Z</time>
<link ></link></trkpt>
<trkpt lat="56.064286" lon="37.525198">
<ele>216.08000000000004</ele>
<time>1970-01-01T00:00:01Z</time>
<link ></link></trkpt>
<trkpt lat="56.064349" lon="37.525354">
<ele>217.52</ele>
<time>1970-01-01T00:00:01Z</time>
<link ></link></trkpt>
<trkpt lat="56.064786" lon="37.525815">
<ele>219.44000000000003</ele>
<time>1970-01-01T00:00:01Z</time>
<link ></link></trkpt>
<trkpt lat="56.064918" lon="37.52611">
<ele>221.0</ele>
<time>1970-01-01T00:00:01Z</time>
<link ></link></trkpt>
<trkpt lat="56.065154" lon="37.526738">
<ele>222.56</ele>
<time>1970-01-01T00:00:01Z</time>
<link ></link></trkpt>
<trkpt lat="56.065268" lon="37.527146">
<ele>223.36</ele>
<time>1970-01-01T00:00:01Z</time>
<link ></link></trkpt>
<trkpt lat="56.065256" lon="37.527478">
<ele>222.88000000000005</ele>
<time>1970-01-01T00:00:01Z</time>
<link ></link></trkpt>
<trkpt lat="56.065343" lon="37.528122">
<ele>221.24000000000004</ele>
<time>1970-01-01T00:00:01Z</time>
<link ></link></trkpt>
<trkpt lat="56.065726" lon="37.533368">
<ele>218.8</ele>
<time>1970-01-01T00:00:01Z</time>
<link ></link></trkpt>
<trkpt lat="56.065861" lon="37.535021">
<ele>216.92000000000002</ele>
<time>1970-01-01T00:00:01Z</time>
<link ></link></trkpt>
<trkpt lat="56.065963" lon="37.53575">
<ele>215.0</ele>
<time>1970-01-01T00:00:01Z</time>
<link ></link></trkpt>
<trkpt lat="56.065924" lon="37.536287">
<ele>214.08</ele>
<time>1970-01-01T00:00:01Z</time>
<link ></link></trkpt>
<trkpt lat="56.066026" lon="37.537596">
<ele>211.64000000000004</ele>
<time>1970-01-01T00:00:01Z</time>
<link ></link></trkpt>
<trkpt lat="56.065894" lon="37.53818">
<ele>210.20000000000005</ele>
<time>1970-01-01T00:00:01Z</time>
<link ></link></trkpt>
<trkpt lat="56.065903" lon="37.538631">
<ele>207.28000000000003</ele>
<time>1970-01-01T00:00:01Z</time>
<link ></link></trkpt>
<trkpt lat="56.06596" lon="37.538942">
<ele>206.16000000000003</ele>
<time>1970-01-01T00:00:01Z</time>
<link ></link></trkpt>
<trkpt lat="56.066125" lon="37.539312">
<ele>204.64000000000004</ele>
<time>1970-01-01T00:00:01Z</time>
<link ></link></trkpt>
<trkpt lat="56.066184" lon="37.539656">
<ele>204.32000000000005</ele>
<time>1970-01-01T00:00:01Z</time>
<link ></link></trkpt>
<trkpt lat="56.066229" lon="37.540036">
<ele>203.68</ele>
<time>1970-01-01T00:00:01Z</time>
<link ></link></trkpt>
<trkpt lat="56.066244" lon="37.540578">
<ele>202.72000000000003</ele>
<time>1970-01-01T00:00:01Z</time>
<link ></link></trkpt>
<trkpt lat="56.066355" lon="37.541265">
<ele>200.88000000000005</ele>
<time>1970-01-01T00:00:01Z</time>
<link ></link></trkpt>
<trkpt lat="56.066313" lon="37.544285">
<ele>198.96000000000004</ele>
<time>1970-01-01T00:00:01Z</time>
<link ></link></trkpt>
<trkpt lat="56.066226" lon="37.545948">
<ele>197.24000000000004</ele>
<time>1970-01-01T00:00:01Z</time>
<link ></link></trkpt>
<trkpt lat="56.066253" lon="37.546924">
<ele>197.00000000000006</ele>
<time>1970-01-01T00:00:01Z</time>
<link ></link></trkpt>
<trkpt lat="56.066427" lon="37.5476">
<ele>195.88000000000005</ele>
<time>1970-01-01T00:00:01Z</time>
<link ></link></trkpt>
<trkpt lat="56.066723" lon="37.548539">
<ele>195.44000000000005</ele>
<time>1970-01-01T00:00:01Z</time>
<link ></link></trkpt>
<trkpt lat="56.066855" lon="37.54936">
<ele>193.88000000000002</ele>
<time>1970-01-01T00:00:01Z</time>
<link ></link></trkpt>
<trkpt lat="56.066694" lon="37.549489">
<ele>193.40000000000003</ele>
<time>1970-01-01T00:00:01Z</time>
<link ></link></trkpt>
<trkpt lat="56.066388" lon="37.54988">
<ele>193.44000000000003</ele>
<time>1970-01-01T00:00:01Z</time>
<link ></link></trkpt>
<trkpt lat="56.066068" lon="37.550824">
<ele>193.84000000000003</ele>
<time>1970-01-01T00:00:01Z</time>
<link ></link></trkpt>
<trkpt lat="56.06605" lon="37.551178">
<ele>193.60000000000002</ele>
<time>1970-01-01T00:00:01Z</time>
<link ></link></trkpt>
<trkpt lat="56.066047" lon="37.552852">
<ele>193.76000000000005</ele>
<time>1970-01-01T00:00:01Z</time>
<link ></link></trkpt>
<trkpt lat="56.066035" lon="37.555062">
<ele>192.64000000000001</ele>
<time>1970-01-01T00:00:01Z</time>
<link ></link></trkpt>
<trkpt lat="56.066149" lon="37.555293">
<ele>192.64000000000004</ele>
<time>1970-01-01T00:00:01Z</time>
<link ></link></trkpt>
<trkpt lat="56.066313" lon="37.555534">
<ele>192.00000000000003</ele>
<time>1970-01-01T00:00:01Z</time>
<link ></link></trkpt>
<trkpt lat="56.066466" lon="37.555674">
<ele>191.36</ele>
<time>1970-01-01T00:00:01Z</time>
<link ></link></trkpt>
<trkpt lat="56.066625" lon="37.555717">
<ele>191.36</ele>
<time>1970-01-01T00:00:01Z</time>
<link ></link></trkpt>
<trkpt lat="56.066756" lon="37.555765">
<ele>190.56</ele>
<time>1970-01-01T00:00:01Z</time>
<link ></link></trkpt>
<trkpt lat="56.066876" lon="37.555894">
<ele>191.36</ele>
<time>1970-01-01T00:00:01Z</time>
<link ></link></trkpt>
<trkpt lat="56.066939" lon="37.555979">
<ele>191.36</ele>
<time>1970-01-01T00:00:01Z</time>
<link ></link></trkpt>
<trkpt lat="56.067014" lon="37.55599">
<ele>191.36</ele>
<time>1970-01-01T00:00:01Z</time>
<link ></link></trkpt>
<trkpt lat="56.067119" lon="37.555926">
<ele>190.72000000000003</ele>
<time>1970-01-01T00:00:01Z</time>
<link ></link></trkpt>
<trkpt lat="56.06731" lon="37.555819">
<ele>189.44000000000003</ele>
<time>1970-01-01T00:00:01Z</time>
<link ></link></trkpt>
<trkpt lat="56.067433" lon="37.555593">
<ele>188.96000000000004</ele>
<time>1970-01-01T00:00:01Z</time>
<link ></link></trkpt>
<trkpt lat="56.067541" lon="37.555416">
<ele>188.68</ele>
<time>1970-01-01T00:00:01Z</time>
<link ></link></trkpt>
<trkpt lat="56.067616" lon="37.555325">
<ele>188.84000000000003</ele>
<time>1970-01-01T00:00:01Z</time>
<link ></link></trkpt>
<trkpt lat="56.067688" lon="37.555287">
<ele>188.52</ele>
<time>1970-01-01T00:00:01Z</time>
<link ></link></trkpt>
<trkpt lat="56.067813" lon="37.555373">
<ele>188.04000000000002</ele>
<time>1970-01-01T00:00:01Z</time>
<link ></link></trkpt>
<trkpt lat="56.068032" lon="37.554971">
<ele>186.96</ele>
<time>1970-01-01T00:00:01Z</time>
<link ></link></trkpt>
<trkpt lat="56.068379" lon="37.554654">
<ele>186.32000000000002</ele>
<time>1970-01-01T00:00:01Z</time>
<link ></link></trkpt>
<trkpt lat="56.06846" lon="37.554848">
<ele>185.68</ele>
<time>1970-01-01T00:00:01Z</time>
<link ></link></trkpt>
<trkpt lat="56.068742" lon="37.555245">
<ele>185.16000000000003</ele>
<time>1970-01-01T00:00:01Z</time>
<link ></link></trkpt>
<trkpt lat="56.068978" lon="37.555583">
<ele>185.0</ele>
<time>1970-01-01T00:00:01Z</time>
<link ></link></trkpt>
<trkpt lat="56.068784" lon="37.558147">
<ele>184.64000000000004</ele>
<time>1970-01-01T00:00:01Z</time>
<link ></link></trkpt>
<trkpt lat="56.069631" lon="37.558581">
<ele>184.68</ele>
<time>1970-01-01T00:00:01Z</time>
<link ></link></trkpt>
<trkpt lat="56.069577" lon="37.558946">
<ele>184.52000000000004</ele>
<time>1970-01-01T00:00:01Z</time>
<link ></link></trkpt>
<trkpt lat="56.069634" lon="37.559257">
<ele>184.48000000000002</ele>
<time>1970-01-01T00:00:01Z</time>
<link ></link></trkpt>
<trkpt lat="56.069724" lon="37.559429">
<ele>184.48000000000002</ele>
<time>1970-01-01T00:00:01Z</time>
<link ></link></trkpt>
<trkpt lat="56.070245" lon="37.559928">
<ele>184.68</ele>
<time>1970-01-01T00:00:01Z</time>
<link ></link></trkpt>
<trkpt lat="56.070401" lon="37.559863">
<ele>184.84000000000003</ele>
<time>1970-01-01T00:00:01Z</time>
<link ></link></trkpt>
<trkpt lat="56.070598" lon="37.559928">
<ele>184.84000000000003</ele>
<time>1970-01-01T00:00:01Z</time>
<link ></link></trkpt>
<trkpt lat="56.070862" lon="37.559922">
<ele>184.68000000000004</ele>
<time>1970-01-01T00:00:01Z</time>
<link ></link></trkpt>
<trkpt lat="56.071404" lon="37.560142">
<ele>184.48000000000002</ele>
<time>1970-01-01T00:00:01Z</time>
<link ></link></trkpt>
<trkpt lat="56.071616" lon="37.560282">
<ele>184.32000000000002</ele>
<time>1970-01-01T00:00:01Z</time>
<link ></link></trkpt>
<trkpt lat="56.07191" lon="37.560341">
<ele>184.36</ele>
<time>1970-01-01T00:00:01Z</time>
<link ></link></trkpt>
<trkpt lat="56.072718" lon="37.560668">
<ele>184.16000000000003</ele>
<time>1970-01-01T00:00:01Z</time>
<link ></link></trkpt>
<trkpt lat="56.073203" lon="37.560963">
<ele>184.16000000000003</ele>
<time>1970-01-01T00:00:01Z</time>
<link ></link></trkpt>
<trkpt lat="56.073946" lon="37.561242">
<ele>184.0</ele>
<time>1970-01-01T00:00:01Z</time>
<link ></link></trkpt>
<trkpt lat="56.074044" lon="37.5604">
<ele>184.0</ele>
<time>1970-01-01T00:00:01Z</time>
<link ></link></trkpt>
<trkpt lat="56.074185" lon="37.560443">
<ele>183.84000000000003</ele>
<time>1970-01-01T00:00:01Z</time>
<link ></link></trkpt>
<trkpt lat="56.074697" lon="37.560191">
<ele>183.68000000000004</ele>
<time>1970-01-01T00:00:01Z</time>
<link ></link></trkpt>
<trkpt lat="56.075003" lon="37.560341">
<ele>182.68000000000004</ele>
<time>1970-01-01T00:00:01Z</time>
<link ></link></trkpt>
<trkpt lat="56.075556" lon="37.560464">
<ele>181.72000000000003</ele>
<time>1970-01-01T00:00:01Z</time>
<link ></link></trkpt>
<trkpt lat="56.077338" lon="37.561285">
<ele>180.44000000000005</ele>
<time>1970-01-01T00:00:01Z</time>
<link ></link></trkpt>
<trkpt lat="56.077529" lon="37.561296">
<ele>179.92000000000002</ele>
<time>1970-01-01T00:00:01Z</time>
<link ></link></trkpt>
<trkpt lat="56.078921" lon="37.560593">
<ele>180.20000000000002</ele>
<time>1970-01-01T00:00:01Z</time>
<link ></link></trkpt>
<trkpt lat="56.079152" lon="37.560427">
<ele>180.04000000000002</ele>
<time>1970-01-01T00:00:01Z</time>
<link ></link></trkpt>
<trkpt lat="56.078921" lon="37.560593">
<ele>180.20000000000005</ele>
<time>1970-01-01T00:00:01Z</time>
<link ></link></trkpt>
<trkpt lat="56.077529" lon="37.561296">
<ele>179.92000000000002</ele>
<time>1970-01-01T00:00:01Z</time>
<link ></link></trkpt>
<trkpt lat="56.077335" lon="37.561285">
<ele>180.44000000000005</ele>
<time>1970-01-01T00:00:01Z</time>
<link ></link></trkpt>
<trkpt lat="56.075556" lon="37.560464">
<ele>181.72000000000003</ele>
<time>1970-01-01T00:00:01Z</time>
<link ></link></trkpt>
<trkpt lat="56.075006" lon="37.560341">
<ele>182.68000000000004</ele>
<time>1970-01-01T00:00:01Z</time>
<link ></link></trkpt>
<trkpt lat="56.0747" lon="37.560191">
<ele>183.68</ele>
<time>1970-01-01T00:00:01Z</time>
<link ></link></trkpt>
<trkpt lat="56.074182" lon="37.560443">
<ele>183.84000000000003</ele>
<time>1970-01-01T00:00:01Z</time>
<link ></link></trkpt>
<trkpt lat="56.074044" lon="37.5604">
<ele>184.0</ele>
<time>1970-01-01T00:00:01Z</time>
<link ></link></trkpt>
<trkpt lat="56.073943" lon="37.561242">
<ele>184.0</ele>
<time>1970-01-01T00:00:01Z</time>
<link ></link></trkpt>
<trkpt lat="56.073203" lon="37.560958">
<ele>184.0</ele>
<time>1970-01-01T00:00:01Z</time>
<link ></link></trkpt>
<trkpt lat="56.072718" lon="37.560668">
<ele>184.16000000000003</ele>
<time>1970-01-01T00:00:01Z</time>
<link ></link></trkpt>
<trkpt lat="56.072538" lon="37.56062">
<ele>184.16000000000003</ele>
<time>1970-01-01T00:00:01Z</time>
<link ></link></trkpt>
<trkpt lat="56.07191" lon="37.560341">
<ele>184.36</ele>
<time>1970-01-01T00:00:01Z</time>
<link ></link></trkpt>
<trkpt lat="56.071613" lon="37.560282">
<ele>184.32000000000002</ele>
<time>1970-01-01T00:00:01Z</time>
<link ></link></trkpt>
<trkpt lat="56.071404" lon="37.560142">
<ele>184.48000000000002</ele>
<time>1970-01-01T00:00:01Z</time>
<link ></link></trkpt>
<trkpt lat="56.070859" lon="37.559922">
<ele>184.68</ele>
<time>1970-01-01T00:00:01Z</time>
<link ></link></trkpt>
<trkpt lat="56.070598" lon="37.559928">
<ele>184.84000000000003</ele>
<time>1970-01-01T00:00:01Z</time>
<link ></link></trkpt>
<trkpt lat="56.070401" lon="37.559869">
<ele>184.84000000000003</ele>
<time>1970-01-01T00:00:01Z</time>
<link ></link></trkpt>
<trkpt lat="56.070242" lon="37.559928">
<ele>184.52000000000004</ele>
<time>1970-01-01T00:00:01Z</time>
<link ></link></trkpt>
<trkpt lat="56.070182" lon="37.560464">
<ele>183.68</ele>
<time>1970-01-01T00:00:01Z</time>
<link ></link></trkpt>
<trkpt lat="56.070113" lon="37.56128">
<ele>182.84000000000003</ele>
<time>1970-01-01T00:00:01Z</time>
<link ></link></trkpt>
<trkpt lat="56.070029" lon="37.561762">
<ele>181.8</ele>
<time>1970-01-01T00:00:01Z</time>
<link ></link></trkpt>
<trkpt lat="56.069943" lon="37.561929">
<ele>180.84000000000003</ele>
<time>1970-01-01T00:00:01Z</time>
<link ></link></trkpt>
<trkpt lat="56.069907" lon="37.562191">
<ele>180.04000000000002</ele>
<time>1970-01-01T00:00:01Z</time>
<link ></link></trkpt>
<trkpt lat="56.069329" lon="37.564074">
<ele>179.28</ele>
<time>1970-01-01T00:00:01Z</time>
<link ></link></trkpt>
<trkpt lat="56.06923" lon="37.564697">
<ele>179.12</ele>
<time>1970-01-01T00:00:01Z</time>
<link ></link></trkpt>
<trkpt lat="56.068984" lon="37.565496">
<ele>179.20000000000005</ele>
<time>1970-01-01T00:00:01Z</time>
<link ></link></trkpt>
<trkpt lat="56.068278" lon="37.568264">
<ele>179.36</ele>
<time>1970-01-01T00:00:01Z</time>
<link ></link></trkpt>
<trkpt lat="56.068143" lon="37.568618">
<ele>179.00000000000003</ele>
<time>1970-01-01T00:00:01Z</time>
<link ></link></trkpt>
<trkpt lat="56.067834" lon="37.569155">
<ele>179.00000000000003</ele>
<time>1970-01-01T00:00:01Z</time>
<link ></link></trkpt>
<trkpt lat="56.067691" lon="37.569562">
<ele>178.60000000000002</ele>
<time>1970-01-01T00:00:01Z</time>
<link ></link></trkpt>
<trkpt lat="56.067406" lon="37.571059">
<ele>179.36</ele>
<time>1970-01-01T00:00:01Z</time>
<link ></link></trkpt>
<trkpt lat="56.06731" lon="37.571365">
<ele>179.52</ele>
<time>1970-01-01T00:00:01Z</time>
<link ></link></trkpt>
<trkpt lat="56.06702" lon="37.571933">
<ele>179.68</ele>
<time>1970-01-01T00:00:01Z</time>
<link ></link></trkpt>
<trkpt lat="56.066846" lon="37.572282">
<ele>179.2</ele>
<time>1970-01-01T00:00:01Z</time>
<link ></link></trkpt>
<trkpt lat="56.066634" lon="37.573028">
<ele>177.83999999999997</ele>
<time>1970-01-01T00:00:01Z</time>
<link ></link></trkpt>
<trkpt lat="56.066313" lon="37.573961">
<ele>176.68</ele>
<time>1970-01-01T00:00:01Z</time>
<link ></link></trkpt>
<trkpt lat="56.066137" lon="37.574438">
<ele>173.84000000000003</ele>
<time>1970-01-01T00:00:01Z</time>
<link ></link></trkpt>
<trkpt lat="56.066023" lon="37.574438">
<ele>172.40000000000003</ele>
<time>1970-01-01T00:00:01Z</time>
<link ></link></trkpt>
<trkpt lat="56.065675" lon="37.574267">
<ele>169.52</ele>
<time>1970-01-01T00:00:01Z</time>
<link ></link></trkpt>
<trkpt lat="56.06531" lon="37.573886">
<ele>169.32000000000002</ele>
<time>1970-01-01T00:00:01Z</time>
<link ></link></trkpt>
<trkpt lat="56.065064" lon="37.573494">
<ele>169.16000000000003</ele>
<time>1970-01-01T00:00:01Z</time>
<link ></link></trkpt>
<trkpt lat="56.064858" lon="37.573376">
<ele>170.28000000000003</ele>
<time>1970-01-01T00:00:01Z</time>
<link ></link></trkpt>
<trkpt lat="56.064507" lon="37.573001">
<ele>171.40000000000003</ele>
<time>1970-01-01T00:00:01Z</time>
<link ></link></trkpt>
<trkpt lat="56.064337" lon="37.57284">
<ele>171.72000000000003</ele>
<time>1970-01-01T00:00:01Z</time>
<link ></link></trkpt>
<trkpt lat="56.063786" lon="37.572534">
<ele>171.8</ele>
<time>1970-01-01T00:00:01Z</time>
<link ></link></trkpt>
<trkpt lat="56.063435" lon="37.572561">
<ele>171.64000000000004</ele>
<time>1970-01-01T00:00:01Z</time>
<link ></link></trkpt>
<trkpt lat="56.063247" lon="37.572657">
<ele>171.68</ele>
<time>1970-01-01T00:00:01Z</time>
<link ></link></trkpt>
<trkpt lat="56.062953" lon="37.572786">
<ele>172.16000000000003</ele>
<time>1970-01-01T00:00:01Z</time>
<link ></link></trkpt>
<trkpt lat="56.062564" lon="37.572979">
<ele>172.64</ele>
<time>1970-01-01T00:00:01Z</time>
<link ></link></trkpt>
<trkpt lat="56.062465" lon="37.573076">
<ele>172.88</ele>
<time>1970-01-01T00:00:01Z</time>
<link ></link></trkpt>
<trkpt lat="56.062324" lon="37.573333">
<ele>172.72000000000003</ele>
<time>1970-01-01T00:00:01Z</time>
<link ></link></trkpt>
<trkpt lat="56.062204" lon="37.57373">
<ele>171.48000000000002</ele>
<time>1970-01-01T00:00:01Z</time>
<link ></link></trkpt>
<trkpt lat="56.062016" lon="37.574074">
<ele>171.0</ele>
<time>1970-01-01T00:00:01Z</time>
<link ></link></trkpt>
<trkpt lat="56.061695" lon="37.574261">
<ele>170.4</ele>
<time>1970-01-01T00:00:01Z</time>
<link ></link></trkpt>
<trkpt lat="56.061375" lon="37.574202">
<ele>171.48000000000002</ele>
<time>1970-01-01T00:00:01Z</time>
<link ></link></trkpt>
<trkpt lat="56.061072" lon="37.574084">
<ele>172.88</ele>
<time>1970-01-01T00:00:01Z</time>
<link ></link></trkpt>
<trkpt lat="56.060884" lon="37.574031">
<ele>174.32000000000002</ele>
<time>1970-01-01T00:00:01Z</time>
<link ></link></trkpt>
<trkpt lat="56.06062" lon="37.574074">
<ele>175.68</ele>
<time>1970-01-01T00:00:01Z</time>
<link ></link></trkpt>
<trkpt lat="56.059734" lon="37.574567">
<ele>176.04000000000002</ele>
<time>1970-01-01T00:00:01Z</time>
<link ></link></trkpt>
<trkpt lat="56.059353" lon="37.574814">
<ele>176.20000000000005</ele>
<time>1970-01-01T00:00:01Z</time>
<link ></link></trkpt>
<trkpt lat="56.059149" lon="37.574911">
<ele>175.64000000000001</ele>
<time>1970-01-01T00:00:01Z</time>
<link ></link></trkpt>
<trkpt lat="56.058808" lon="37.575082">
<ele>175.32</ele>
<time>1970-01-01T00:00:01Z</time>
<link ></link></trkpt>
<trkpt lat="56.058437" lon="37.575184">
<ele>175.0</ele>
<time>1970-01-01T00:00:01Z</time>
<link ></link></trkpt>
<trkpt lat="56.058035" lon="37.57535">
<ele>175.0</ele>
<time>1970-01-01T00:00:01Z</time>
<link ></link></trkpt>
<trkpt lat="56.057897" lon="37.57542">
<ele>175.0</ele>
<time>1970-01-01T00:00:01Z</time>
<link ></link></trkpt>
<trkpt lat="56.057748" lon="37.575597">
<ele>175.0</ele>
<time>1970-01-01T00:00:01Z</time>
<link ></link></trkpt>
<trkpt lat="56.057373" lon="37.576305">
<ele>174.84000000000003</ele>
<time>1970-01-01T00:00:01Z</time>
<link ></link></trkpt>
<trkpt lat="56.057161" lon="37.5766">
<ele>174.68000000000004</ele>
<time>1970-01-01T00:00:01Z</time>
<link ></link></trkpt>
<trkpt lat="56.056918" lon="37.576863">
<ele>173.68000000000004</ele>
<time>1970-01-01T00:00:01Z</time>
<link ></link></trkpt>
<trkpt lat="56.056735" lon="37.576981">
<ele>172.40000000000003</ele>
<time>1970-01-01T00:00:01Z</time>
<link ></link></trkpt>
<trkpt lat="56.056472" lon="37.577233">
<ele>170.32000000000002</ele>
<time>1970-01-01T00:00:01Z</time>
<link ></link></trkpt>
<trkpt lat="56.056058" lon="37.577711">
<ele>168.28000000000003</ele>
<time>1970-01-01T00:00:01Z</time>
<link ></link></trkpt>
<trkpt lat="56.055876" lon="37.578172">
<ele>166.84000000000003</ele>
<time>1970-01-01T00:00:01Z</time>
<link ></link></trkpt>
<trkpt lat="56.05581" lon="37.578542">
<ele>165.48000000000002</ele>
<time>1970-01-01T00:00:01Z</time>
<link ></link></trkpt>
<trkpt lat="56.055651" lon="37.578837">
<ele>165.00000000000003</ele>
<time>1970-01-01T00:00:01Z</time>
<link ></link></trkpt>
<trkpt lat="56.05551" lon="37.579288">
<ele>164.32000000000005</ele>
<time>1970-01-01T00:00:01Z</time>
<link ></link></trkpt>
<trkpt lat="56.055504" lon="37.579481">
<ele>164.16000000000003</ele>
<time>1970-01-01T00:00:01Z</time>
<link ></link></trkpt>
<trkpt lat="56.055627" lon="37.579674">
<ele>164.0</ele>
<time>1970-01-01T00:00:01Z</time>
<link ></link></trkpt>
<trkpt lat="56.055672" lon="37.579867">
<ele>164.0</ele>
<time>1970-01-01T00:00:01Z</time>
<link ></link></trkpt>
<trkpt lat="56.055675" lon="37.580189">
<ele>164.0</ele>
<time>1970-01-01T00:00:01Z</time>
<link ></link></trkpt>
<trkpt lat="56.05563" lon="37.580329">
<ele>164.8</ele>
<time>1970-01-01T00:00:01Z</time>
<link ></link></trkpt>
<trkpt lat="56.055507" lon="37.580516">
<ele>165.60000000000002</ele>
<time>1970-01-01T00:00:01Z</time>
<link ></link></trkpt>
<trkpt lat="56.055597" lon="37.58094">
<ele>167.40000000000003</ele>
<time>1970-01-01T00:00:01Z</time>
<link ></link></trkpt>
<trkpt lat="56.055594" lon="37.581246">
<ele>169.16</ele>
<time>1970-01-01T00:00:01Z</time>
<link ></link></trkpt>
<trkpt lat="56.055735" lon="37.581568">
<ele>171.72000000000003</ele>
<time>1970-01-01T00:00:01Z</time>
<link ></link></trkpt>
<trkpt lat="56.055915" lon="37.581632">
<ele>174.68</ele>
<time>1970-01-01T00:00:01Z</time>
<link ></link></trkpt>
<trkpt lat="56.05596" lon="37.581825">
<ele>177.92000000000002</ele>
<time>1970-01-01T00:00:01Z</time>
<link ></link></trkpt>
<trkpt lat="56.055995" lon="37.582303">
<ele>180.16000000000003</ele>
<time>1970-01-01T00:00:01Z</time>
<link ></link></trkpt>
<trkpt lat="56.055992" lon="37.583005">
<ele>181.40000000000003</ele>
<time>1970-01-01T00:00:01Z</time>
<link ></link></trkpt>
<trkpt lat="56.055939" lon="37.583113">
<ele>181.24000000000004</ele>
<time>1970-01-01T00:00:01Z</time>
<link ></link></trkpt>
<trkpt lat="56.055663" lon="37.583059">
<ele>180.28000000000003</ele>
<time>1970-01-01T00:00:01Z</time>
<link ></link></trkpt>
<trkpt lat="56.055489" lon="37.582887">
<ele>179.64000000000004</ele>
<time>1970-01-01T00:00:01Z</time>
<link ></link></trkpt>
<trkpt lat="56.055435" lon="37.582759">
<ele>179.0</ele>
<time>1970-01-01T00:00:01Z</time>
<link ></link></trkpt>
<trkpt lat="56.055339" lon="37.582694">
<ele>179.0</ele>
<time>1970-01-01T00:00:01Z</time>
<link ></link></trkpt>
<trkpt lat="56.055172" lon="37.582684">
<ele>179.0</ele>
<time>1970-01-01T00:00:01Z</time>
<link ></link></trkpt>
<trkpt lat="56.055094" lon="37.582684">
<ele>179.0</ele>
<time>1970-01-01T00:00:01Z</time>
<link ></link></trkpt>
<trkpt lat="56.055109" lon="37.582968">
<ele>178.04000000000002</ele>
<time>1970-01-01T00:00:01Z</time>
<link ></link></trkpt>
<trkpt lat="56.055052" lon="37.583064">
<ele>176.44000000000003</ele>
<time>1970-01-01T00:00:01Z</time>
<link ></link></trkpt>
<trkpt lat="56.054255" lon="37.582539">
<ele>173.64000000000004</ele>
<time>1970-01-01T00:00:01Z</time>
<link ></link></trkpt>
<trkpt lat="56.0543" lon="37.582008">
<ele>171.24</ele>
<time>1970-01-01T00:00:01Z</time>
<link ></link></trkpt>
<trkpt lat="56.054276" lon="37.581686">
<ele>169.64000000000004</ele>
<time>1970-01-01T00:00:01Z</time>
<link ></link></trkpt>
<trkpt lat="56.0543" lon="37.582008">
<ele>168.04000000000002</ele>
<time>1970-01-01T00:00:01Z</time>
<link ></link></trkpt>
<trkpt lat="56.054276" lon="37.581691">
<ele>167.08000000000004</ele>
<time>1970-01-01T00:00:01Z</time>
<link ></link></trkpt>
<trkpt lat="56.054504" lon="37.580935">
<ele>164.92000000000002</ele>
<time>1970-01-01T00:00:01Z</time>
<link ></link></trkpt>
<trkpt lat="56.054561" lon="37.580634">
<ele>163.96000000000004</ele>
<time>1970-01-01T00:00:01Z</time>
<link ></link></trkpt>
<trkpt lat="56.054633" lon="37.580591">
<ele>163.0</ele>
<time>1970-01-01T00:00:01Z</time>
<link ></link></trkpt>
<trkpt lat="56.054767" lon="37.580602">
<ele>163.16000000000003</ele>
<time>1970-01-01T00:00:01Z</time>
<link ></link></trkpt>
<trkpt lat="56.054971" lon="37.580452">
<ele>163.32000000000002</ele>
<time>1970-01-01T00:00:01Z</time>
<link ></link></trkpt>
<trkpt lat="56.055405" lon="37.580532">
<ele>163.68</ele>
<time>1970-01-01T00:00:01Z</time>
<link ></link></trkpt>
<trkpt lat="56.055498" lon="37.580506">
<ele>163.84000000000003</ele>
<time>1970-01-01T00:00:01Z</time>
<link ></link></trkpt>
<trkpt lat="56.055627" lon="37.580318">
<ele>164.0</ele>
<time>1970-01-01T00:00:01Z</time>
<link ></link></trkpt>
<trkpt lat="56.055672" lon="37.580189">
<ele>164.0</ele>
<time>1970-01-01T00:00:01Z</time>
<link ></link></trkpt>
<trkpt lat="56.055666" lon="37.579862">
<ele>164.0</ele>
<time>1970-01-01T00:00:01Z</time>
<link ></link></trkpt>
<trkpt lat="56.055624" lon="37.579685">
<ele>164.0</ele>
<time>1970-01-01T00:00:01Z</time>
<link ></link></trkpt>
<trkpt lat="56.055504" lon="37.57947">
<ele>164.16000000000003</ele>
<time>1970-01-01T00:00:01Z</time>
<link ></link></trkpt>
<trkpt lat="56.05551" lon="37.579288">
<ele>164.32000000000005</ele>
<time>1970-01-01T00:00:01Z</time>
<link ></link></trkpt>
<trkpt lat="56.055651" lon="37.578827">
<ele>165.0</ele>
<time>1970-01-01T00:00:01Z</time>
<link ></link></trkpt>
<trkpt lat="56.055813" lon="37.578526">
<ele>165.16000000000003</ele>
<time>1970-01-01T00:00:01Z</time>
<link ></link></trkpt>
<trkpt lat="56.055879" lon="37.578167">
<ele>166.68</ele>
<time>1970-01-01T00:00:01Z</time>
<link ></link></trkpt>
<trkpt lat="56.055819" lon="37.577019">
<ele>167.40000000000003</ele>
<time>1970-01-01T00:00:01Z</time>
<link ></link></trkpt>
<trkpt lat="56.055834" lon="37.57638">
<ele>169.72000000000003</ele>
<time>1970-01-01T00:00:01Z</time>
<link ></link></trkpt>
<trkpt lat="56.055885" lon="37.575238">
<ele>169.60000000000002</ele>
<time>1970-01-01T00:00:01Z</time>
<link ></link></trkpt>
<trkpt lat="56.055858" lon="37.574809">
<ele>169.92000000000002</ele>
<time>1970-01-01T00:00:01Z</time>
<link ></link></trkpt>
<trkpt lat="56.055768" lon="37.573843">
<ele>168.36</ele>
<time>1970-01-01T00:00:01Z</time>
<link ></link></trkpt>
<trkpt lat="56.055654" lon="37.573097">
<ele>168.44</ele>
<time>1970-01-01T00:00:01Z</time>
<link ></link></trkpt>
<trkpt lat="56.055513" lon="37.572234">
<ele>168.72000000000003</ele>
<time>1970-01-01T00:00:01Z</time>
<link ></link></trkpt>
<trkpt lat="56.055495" lon="37.572024">
<ele>170.16000000000003</ele>
<time>1970-01-01T00:00:01Z</time>
<link ></link></trkpt>
<trkpt lat="56.055561" lon="37.571708">
<ele>171.28000000000003</ele>
<time>1970-01-01T00:00:01Z</time>
<link ></link></trkpt>
<trkpt lat="56.055639" lon="37.571617">
<ele>173.20000000000005</ele>
<time>1970-01-01T00:00:01Z</time>
<link ></link></trkpt>
<trkpt lat="56.055828" lon="37.571493">
<ele>174.00000000000003</ele>
<time>1970-01-01T00:00:01Z</time>
<link ></link></trkpt>
<trkpt lat="56.056235" lon="37.570952">
<ele>175.56</ele>
<time>1970-01-01T00:00:01Z</time>
<link ></link></trkpt>
<trkpt lat="56.056412" lon="37.570775">
<ele>175.48000000000002</ele>
<time>1970-01-01T00:00:01Z</time>
<link ></link></trkpt>
<trkpt lat="56.056684" lon="37.570421">
<ele>176.0</ele>
<time>1970-01-01T00:00:01Z</time>
<link ></link></trkpt>
<trkpt lat="56.05675" lon="37.570265">
<ele>175.84000000000003</ele>
<time>1970-01-01T00:00:01Z</time>
<link ></link></trkpt>
<trkpt lat="56.056792" lon="37.569975">
<ele>176.0</ele>
<time>1970-01-01T00:00:01Z</time>
<link ></link></trkpt>
<trkpt lat="56.056696" lon="37.569584">
<ele>176.64000000000001</ele>
<time>1970-01-01T00:00:01Z</time>
<link ></link></trkpt>
<trkpt lat="56.056361" lon="37.568902">
<ele>176.0</ele>
<time>1970-01-01T00:00:01Z</time>
<link ></link></trkpt>
<trkpt lat="56.056094" lon="37.568253">
<ele>176.32000000000002</ele>
<time>1970-01-01T00:00:01Z</time>
<link ></link></trkpt>
<trkpt lat="56.055825" lon="37.567829">
<ele>174.24</ele>
<time>1970-01-01T00:00:01Z</time>
<link ></link></trkpt>
<trkpt lat="56.055588" lon="37.567003">
<ele>173.96000000000004</ele>
<time>1970-01-01T00:00:01Z</time>
<link ></link></trkpt>
<trkpt lat="56.055483" lon="37.566853">
<ele>173.00000000000003</ele>
<time>1970-01-01T00:00:01Z</time>
<link ></link></trkpt>
<trkpt lat="56.055408" lon="37.566746">
<ele>173.32000000000002</ele>
<time>1970-01-01T00:00:01Z</time>
<link ></link></trkpt>
<trkpt lat="56.055354" lon="37.566558">
<ele>173.68</ele>
<time>1970-01-01T00:00:01Z</time>
<link ></link></trkpt>
<trkpt lat="56.05536" lon="37.566386">
<ele>174.64000000000001</ele>
<time>1970-01-01T00:00:01Z</time>
<link ></link></trkpt>
<trkpt lat="56.055813" lon="37.565094">
<ele>176.40000000000003</ele>
<time>1970-01-01T00:00:01Z</time>
<link ></link></trkpt>
<trkpt lat="56.056475" lon="37.563613">
<ele>179.32000000000002</ele>
<time>1970-01-01T00:00:01Z</time>
<link ></link></trkpt>
<trkpt lat="56.056738" lon="37.5629">
<ele>182.72000000000003</ele>
<time>1970-01-01T00:00:01Z</time>
<link ></link></trkpt>
<trkpt lat="56.056843" lon="37.562132">
<ele>186.0</ele>
<time>1970-01-01T00:00:01Z</time>
<link ></link></trkpt>
<trkpt lat="56.056795" lon="37.561135">
<ele>187.24</ele>
<time>1970-01-01T00:00:01Z</time>
<link ></link></trkpt>
<trkpt lat="56.056753" lon="37.560459">
<ele>188.32000000000002</ele>
<time>1970-01-01T00:00:01Z</time>
<link ></link></trkpt>
<trkpt lat="56.056604" lon="37.559225">
<ele>186.68</ele>
<time>1970-01-01T00:00:01Z</time>
<link ></link></trkpt>
<trkpt lat="56.056439" lon="37.558082">
<ele>187.96</ele>
<time>1970-01-01T00:00:01Z</time>
<link ></link></trkpt>
<trkpt lat="56.056316" lon="37.557659">
<ele>188.12</ele>
<time>1970-01-01T00:00:01Z</time>
<link ></link></trkpt>
<trkpt lat="56.056283" lon="37.557433">
<ele>190.56</ele>
<time>1970-01-01T00:00:01Z</time>
<link ></link></trkpt>
<trkpt lat="56.056211" lon="37.556135">
<ele>191.56000000000006</ele>
<time>1970-01-01T00:00:01Z</time>
<link ></link></trkpt>
<trkpt lat="56.056133" lon="37.555727">
<ele>192.16000000000003</ele>
<time>1970-01-01T00:00:01Z</time>
<link ></link></trkpt>
<trkpt lat="56.056019" lon="37.555513">
<ele>191.52000000000004</ele>
<time>1970-01-01T00:00:01Z</time>
<link ></link></trkpt>
<trkpt lat="56.055974" lon="37.555287">
<ele>189.60000000000002</ele>
<time>1970-01-01T00:00:01Z</time>
<link ></link></trkpt>
<trkpt lat="56.055989" lon="37.554923">
<ele>187.04000000000002</ele>
<time>1970-01-01T00:00:01Z</time>
<link ></link></trkpt>
<trkpt lat="56.056118" lon="37.554134">
<ele>183.24</ele>
<time>1970-01-01T00:00:01Z</time>
<link ></link></trkpt>
<trkpt lat="56.056154" lon="37.553796">
<ele>181.48000000000002</ele>
<time>1970-01-01T00:00:01Z</time>
<link ></link></trkpt>
<trkpt lat="56.056094" lon="37.551017">
<ele>180.52000000000004</ele>
<time>1970-01-01T00:00:01Z</time>
<link ></link></trkpt>
<trkpt lat="56.055861" lon="37.548233">
<ele>181.00000000000006</ele>
<time>1970-01-01T00:00:01Z</time>
<link ></link></trkpt>
<trkpt lat="56.055846" lon="37.54738">
<ele>182.04000000000002</ele>
<time>1970-01-01T00:00:01Z</time>
<link ></link></trkpt>
<trkpt lat="56.055771" lon="37.54715">
<ele>181.72000000000003</ele>
<time>1970-01-01T00:00:01Z</time>
<link ></link></trkpt>
<trkpt lat="56.054974" lon="37.543716">
<ele>182.56</ele>
<time>1970-01-01T00:00:01Z</time>
<link ></link></trkpt>
<trkpt lat="56.054713" lon="37.543153">
<ele>183.88000000000002</ele>
<time>1970-01-01T00:00:01Z</time>
<link ></link></trkpt>
<trkpt lat="56.054411" lon="37.542606">
<ele>185.32</ele>
<time>1970-01-01T00:00:01Z</time>
<link ></link></trkpt>
<trkpt lat="56.05421" lon="37.542316">
<ele>187.40000000000003</ele>
<time>1970-01-01T00:00:01Z</time>
<link ></link></trkpt>
<trkpt lat="56.054018" lon="37.542075">
<ele>187.68</ele>
<time>1970-01-01T00:00:01Z</time>
<link ></link></trkpt>
<trkpt lat="56.053857" lon="37.541994">
<ele>188.0</ele>
<time>1970-01-01T00:00:01Z</time>
<link ></link></trkpt>
<trkpt lat="56.053593" lon="37.541699">
<ele>187.68</ele>
<time>1970-01-01T00:00:01Z</time>
<link ></link></trkpt>
<trkpt lat="56.053111" lon="37.541238">
<ele>187.8</ele>
<time>1970-01-01T00:00:01Z</time>
<link ></link></trkpt>
<trkpt lat="56.052931" lon="37.540868">
<ele>188.12</ele>
<time>1970-01-01T00:00:01Z</time>
<link ></link></trkpt>
<trkpt lat="56.053087" lon="37.540557">
<ele>189.36</ele>
<time>1970-01-01T00:00:01Z</time>
<link ></link></trkpt>
<trkpt lat="56.052994" lon="37.540101">
<ele>190.16000000000003</ele>
<time>1970-01-01T00:00:01Z</time>
<link ></link></trkpt>
<trkpt lat="56.053" lon="37.539859">
<ele>191.36</ele>
<time>1970-01-01T00:00:01Z</time>
<link ></link></trkpt>
<trkpt lat="56.052838" lon="37.539425">
<ele>191.68</ele>
<time>1970-01-01T00:00:01Z</time>
<link ></link></trkpt>
<trkpt lat="56.052772" lon="37.539017">
<ele>191.84000000000003</ele>
<time>1970-01-01T00:00:01Z</time>
<link ></link></trkpt>
<trkpt lat="56.052877" lon="37.538411">
<ele>191.68000000000004</ele>
<time>1970-01-01T00:00:01Z</time>
<link ></link></trkpt>
<trkpt lat="56.052889" lon="37.537987">
<ele>190.84000000000003</ele>
<time>1970-01-01T00:00:01Z</time>
<link ></link></trkpt>
<trkpt lat="56.052991" lon="37.537612">
<ele>190.2</ele>
<time>1970-01-01T00:00:01Z</time>
<link ></link></trkpt>
<trkpt lat="56.053021" lon="37.537317">
<ele>188.95999999999998</ele>
<time>1970-01-01T00:00:01Z</time>
<link ></link></trkpt>
<trkpt lat="56.053075" lon="37.537193">
<ele>189.12</ele>
<time>1970-01-01T00:00:01Z</time>
<link ></link></trkpt>
<trkpt lat="56.053255" lon="37.537097">
<ele>188.64000000000001</ele>
<time>1970-01-01T00:00:01Z</time>
<link ></link></trkpt>
<trkpt lat="56.053392" lon="37.536829">
<ele>189.44000000000005</ele>
<time>1970-01-01T00:00:01Z</time>
<link ></link></trkpt>
<trkpt lat="56.05362" lon="37.536179">
<ele>187.68000000000004</ele>
<time>1970-01-01T00:00:01Z</time>
<link ></link></trkpt>
<trkpt lat="56.053692" lon="37.535852">
<ele>186.72000000000003</ele>
<time>1970-01-01T00:00:01Z</time>
<link ></link></trkpt>
<trkpt lat="56.053695" lon="37.535514">
<ele>183.92000000000002</ele>
<time>1970-01-01T00:00:01Z</time>
<link ></link></trkpt>
<trkpt lat="56.053572" lon="37.535369">
<ele>182.32</ele>
<time>1970-01-01T00:00:01Z</time>
<link ></link></trkpt>
<trkpt lat="56.053524" lon="37.535316">
<ele>180.72000000000003</ele>
<time>1970-01-01T00:00:01Z</time>
<link ></link></trkpt>
<trkpt lat="56.053285" lon="37.534699">
<ele>179.44000000000003</ele>
<time>1970-01-01T00:00:01Z</time>
<link ></link></trkpt>
<trkpt lat="56.053306" lon="37.534533">
<ele>178.96000000000004</ele>
<time>1970-01-01T00:00:01Z</time>
<link ></link></trkpt>
<trkpt lat="56.053596" lon="37.533594">
<ele>178.68</ele>
<time>1970-01-01T00:00:01Z</time>
<link ></link></trkpt>
<trkpt lat="56.053932" lon="37.533041">
<ele>179.32</ele>
<time>1970-01-01T00:00:01Z</time>
<link ></link></trkpt>
<trkpt lat="56.054078" lon="37.532837">
<ele>179.96000000000004</ele>
<time>1970-01-01T00:00:01Z</time>
<link ></link></trkpt>
<trkpt lat="56.05418" lon="37.532746">
<ele>181.2</ele>
<time>1970-01-01T00:00:01Z</time>
<link ></link></trkpt>
<trkpt lat="56.054291" lon="37.532542">
<ele>181.68</ele>
<time>1970-01-01T00:00:01Z</time>
<link ></link></trkpt>
<trkpt lat="56.054267" lon="37.532489">
<ele>182.35999999999999</ele>
<time>1970-01-01T00:00:01Z</time>
<link ></link></trkpt>
<trkpt lat="56.054204" lon="37.532617">
<ele>182.15999999999997</ele>
<time>1970-01-01T00:00:01Z</time>
<link ></link></trkpt>
<trkpt lat="56.053944" lon="37.532033">
<ele>182.15999999999997</ele>
<time>1970-01-01T00:00:01Z</time>
<link ></link></trkpt>
<trkpt lat="56.053899" lon="37.532108">
<ele>182.0</ele>
<time>1970-01-01T00:00:01Z</time>
<link ></link></trkpt>
<trkpt lat="56.053917" lon="37.532161">
<ele>182.15999999999997</ele>
<time>1970-01-01T00:00:01Z</time>
<link ></link></trkpt>
<trkpt lat="56.054069" lon="37.531915">
<ele>182.32</ele>
<time>1970-01-01T00:00:01Z</time>
<link ></link></trkpt>
<trkpt lat="56.053854" lon="37.531303">
<ele>183.0</ele>
<time>1970-01-01T00:00:01Z</time>
<link ></link></trkpt>
<trkpt lat="56.053656" lon="37.530879">
<ele>184.12</ele>
<time>1970-01-01T00:00:01Z</time>
<link ></link></trkpt>
<trkpt lat="56.053794" lon="37.530686">
<ele>185.64000000000004</ele>
<time>1970-01-01T00:00:01Z</time>
<link ></link></trkpt>
<trkpt lat="56.054621" lon="37.529866">
<ele>187.08</ele>
<time>1970-01-01T00:00:01Z</time>
<link ></link></trkpt>
<trkpt lat="56.054659" lon="37.529962">
<ele>188.04000000000002</ele>
<time>1970-01-01T00:00:01Z</time>
<link ></link></trkpt>
<trkpt lat="56.055031" lon="37.52956">
<ele>188.28</ele>
<time>1970-01-01T00:00:01Z</time>
<link ></link></trkpt>
<trkpt lat="56.054662" lon="37.529962">
<ele>188.04000000000002</ele>
<time>1970-01-01T00:00:01Z</time>
<link ></link></trkpt>
<trkpt lat="56.054621" lon="37.52986">
<ele>187.08</ele>
<time>1970-01-01T00:00:01Z</time>
<link ></link></trkpt>
<trkpt lat="56.053794" lon="37.530686">
<ele>185.64000000000001</ele>
<time>1970-01-01T00:00:01Z</time>
<link ></link></trkpt>
<trkpt lat="56.053659" lon="37.530879">
<ele>184.12</ele>
<time>1970-01-01T00:00:01Z</time>
<link ></link></trkpt>
<trkpt lat="56.053467" lon="37.531035">
<ele>182.84000000000003</ele>
<time>1970-01-01T00:00:01Z</time>
<link ></link></trkpt>
<trkpt lat="56.053087" lon="37.531502">
<ele>182.0</ele>
<time>1970-01-01T00:00:01Z</time>
<link ></link></trkpt>
<trkpt lat="56.052745" lon="37.531872">
<ele>181.32</ele>
<time>1970-01-01T00:00:01Z</time>
<link ></link></trkpt>
<trkpt lat="56.051658" lon="37.533154">
<ele>180.68</ele>
<time>1970-01-01T00:00:01Z</time>
<link ></link></trkpt>
<trkpt lat="56.050915" lon="37.53405">
<ele>180.00000000000003</ele>
<time>1970-01-01T00:00:01Z</time>
<link ></link></trkpt>
<trkpt lat="56.050412" lon="37.534726">
<ele>179.48000000000002</ele>
<time>1970-01-01T00:00:01Z</time>
<link ></link></trkpt>
<trkpt lat="56.050193" lon="37.534897">
<ele>179.32000000000005</ele>
<time>1970-01-01T00:00:01Z</time>
<link ></link></trkpt>
<trkpt lat="56.05013" lon="37.534774">
<ele>179.32000000000005</ele>
<time>1970-01-01T00:00:01Z</time>
<link ></link></trkpt>
<trkpt lat="56.049956" lon="37.534935">
<ele>179.68</ele>
<time>1970-01-01T00:00:01Z</time>
<link ></link></trkpt>
<trkpt lat="56.049839" lon="37.534983">
<ele>179.84000000000003</ele>
<time>1970-01-01T00:00:01Z</time>
<link ></link></trkpt>
<trkpt lat="56.049555" lon="37.53406">
<ele>180.0</ele>
<time>1970-01-01T00:00:01Z</time>
<link ></link></trkpt>
<trkpt lat="56.049507" lon="37.532585">
<ele>180.16000000000003</ele>
<time>1970-01-01T00:00:01Z</time>
<link ></link></trkpt>
<trkpt lat="56.049447" lon="37.532526">
<ele>180.32000000000002</ele>
<time>1970-01-01T00:00:01Z</time>
<link ></link></trkpt>
<trkpt lat="56.049378" lon="37.531496">
<ele>180.84000000000003</ele>
<time>1970-01-01T00:00:01Z</time>
<link ></link></trkpt>
<trkpt lat="56.049372" lon="37.530252">
<ele>181.32</ele>
<time>1970-01-01T00:00:01Z</time>
<link ></link></trkpt>
<trkpt lat="56.049462" lon="37.529426">
<ele>181.68</ele>
<time>1970-01-01T00:00:01Z</time>
<link ></link></trkpt>
<trkpt lat="56.049513" lon="37.528428">
<ele>181.88</ele>
<time>1970-01-01T00:00:01Z</time>
<link ></link></trkpt>
<trkpt lat="56.049546" lon="37.52647">
<ele>181.32000000000002</ele>
<time>1970-01-01T00:00:01Z</time>
<link ></link></trkpt>
<trkpt lat="56.049633" lon="37.526003">
<ele>180.68000000000004</ele>
<time>1970-01-01T00:00:01Z</time>
<link ></link></trkpt>
<trkpt lat="56.050142" lon="37.524662">
<ele>179.68000000000004</ele>
<time>1970-01-01T00:00:01Z</time>
<link ></link></trkpt>
<trkpt lat="56.050346" lon="37.5239">
<ele>178.8</ele>
<time>1970-01-01T00:00:01Z</time>
<link ></link></trkpt>
<trkpt lat="56.05037" lon="37.523664">
<ele>178.16000000000003</ele>
<time>1970-01-01T00:00:01Z</time>
<link ></link></trkpt>
<trkpt lat="56.050364" lon="37.523391">
<ele>177.68</ele>
<time>1970-01-01T00:00:01Z</time>
<link ></link></trkpt>
<trkpt lat="56.050358" lon="37.52308">
<ele>177.32</ele>
<time>1970-01-01T00:00:01Z</time>
<link ></link></trkpt>
<trkpt lat="56.050316" lon="37.522924">
<ele>177.32</ele>
<time>1970-01-01T00:00:01Z</time>
<link ></link></trkpt>
<trkpt lat="56.050136" lon="37.522715">
<ele>177.16</ele>
<time>1970-01-01T00:00:01Z</time>
<link ></link></trkpt>
<trkpt lat="56.050058" lon="37.522495">
<ele>177.35999999999999</ele>
<time>1970-01-01T00:00:01Z</time>
<link ></link></trkpt>
<trkpt lat="56.049896" lon="37.522125">
<ele>177.15999999999997</ele>
<time>1970-01-01T00:00:01Z</time>
<link ></link></trkpt>
<trkpt lat="56.049765" lon="37.521969">
<ele>177.15999999999997</ele>
<time>1970-01-01T00:00:01Z</time>
<link ></link></trkpt>
<trkpt lat="56.049573" lon="37.52198">
<ele>177.48</ele>
<time>1970-01-01T00:00:01Z</time>
<link ></link></trkpt>
<trkpt lat="56.049291" lon="37.522066">
<ele>178.28</ele>
<time>1970-01-01T00:00:01Z</time>
<link ></link></trkpt>
<trkpt lat="56.048683" lon="37.522355">
<ele>179.84000000000003</ele>
<time>1970-01-01T00:00:01Z</time>
<link ></link></trkpt>
<trkpt lat="56.048111" lon="37.522548">
<ele>181.20000000000002</ele>
<time>1970-01-01T00:00:01Z</time>
<link ></link></trkpt>
<trkpt lat="56.047302" lon="37.522457">
<ele>182.36</ele>
<time>1970-01-01T00:00:01Z</time>
<link ></link></trkpt>
<trkpt lat="56.04717" lon="37.52242">
<ele>183.00000000000003</ele>
<time>1970-01-01T00:00:01Z</time>
<link ></link></trkpt>
<trkpt lat="56.046825" lon="37.522028">
<ele>183.32000000000002</ele>
<time>1970-01-01T00:00:01Z</time>
<link ></link></trkpt>
<trkpt lat="56.04664" lon="37.521411">
<ele>183.84000000000003</ele>
<time>1970-01-01T00:00:01Z</time>
<link ></link></trkpt>
<trkpt lat="56.04643" lon="37.519255">
<ele>183.84000000000003</ele>
<time>1970-01-01T00:00:01Z</time>
<link ></link></trkpt>
<trkpt lat="56.046349" lon="37.517962">
<ele>184.2</ele>
<time>1970-01-01T00:00:01Z</time>
<link ></link></trkpt>
<trkpt lat="56.046136" lon="37.516186">
<ele>184.44</ele>
<time>1970-01-01T00:00:01Z</time>
<link ></link></trkpt>
<trkpt lat="56.045804" lon="37.514282">
<ele>185.44</ele>
<time>1970-01-01T00:00:01Z</time>
<link ></link></trkpt>
<trkpt lat="56.04527" lon="37.51396">
<ele>186.88</ele>
<time>1970-01-01T00:00:01Z</time>
<link ></link></trkpt>
<trkpt lat="56.044989" lon="37.514024">
<ele>187.24</ele>
<time>1970-01-01T00:00:01Z</time>
<link ></link></trkpt>
<trkpt lat="56.044812" lon="37.514158">
<ele>187.24</ele>
<time>1970-01-01T00:00:01Z</time>
<link ></link></trkpt>
<trkpt lat="56.044515" lon="37.514496">
<ele>185.60000000000002</ele>
<time>1970-01-01T00:00:01Z</time>
<link ></link></trkpt>
<trkpt lat="56.044267" lon="37.514893">
<ele>185.60000000000002</ele>
<time>1970-01-01T00:00:01Z</time>
<link ></link></trkpt>
<trkpt lat="56.044168" lon="37.514856">
<ele>185.60000000000002</ele>
<time>1970-01-01T00:00:01Z</time>
<link ></link></trkpt>
<trkpt lat="56.04409" lon="37.514582">
<ele>187.40000000000003</ele>
<time>1970-01-01T00:00:01Z</time>
<link ></link></trkpt>
<trkpt lat="56.044009" lon="37.514539">
<ele>188.2</ele>
<time>1970-01-01T00:00:01Z</time>
<link ></link></trkpt>
<trkpt lat="56.043784" lon="37.514502">
<ele>189.0</ele>
<time>1970-01-01T00:00:01Z</time>
<link ></link></trkpt>
<trkpt lat="56.043569" lon="37.514325">
<ele>189.48000000000002</ele>
<time>1970-01-01T00:00:01Z</time>
<link ></link></trkpt>
<trkpt lat="56.043506" lon="37.514212">
<ele>190.44000000000003</ele>
<time>1970-01-01T00:00:01Z</time>
<link ></link></trkpt>
<trkpt lat="56.043449" lon="37.513949">
<ele>192.00000000000003</ele>
<time>1970-01-01T00:00:01Z</time>
<link ></link></trkpt>
<trkpt lat="56.043608" lon="37.513322">
<ele>193.56</ele>
<time>1970-01-01T00:00:01Z</time>
<link ></link></trkpt>
<trkpt lat="56.043766" lon="37.513134">
<ele>193.4</ele>
<time>1970-01-01T00:00:01Z</time>
<link ></link></trkpt>
<trkpt lat="56.043967" lon="37.512705">
<ele>192.76</ele>
<time>1970-01-01T00:00:01Z</time>
<link ></link></trkpt>
<trkpt lat="56.044306" lon="37.511117">
<ele>190.07999999999998</ele>
<time>1970-01-01T00:00:01Z</time>
<link ></link></trkpt>
<trkpt lat="56.044431" lon="37.510913">
<ele>188.96</ele>
<time>1970-01-01T00:00:01Z</time>
<link ></link></trkpt>
<trkpt lat="56.044737" lon="37.510339">
<ele>187.48000000000002</ele>
<time>1970-01-01T00:00:01Z</time>
<link ></link></trkpt>
<trkpt lat="56.044596" lon="37.509309">
<ele>187.51999999999998</ele>
<time>1970-01-01T00:00:01Z</time>
<link ></link></trkpt>
<trkpt lat="56.044396" lon="37.508338">
<ele>187.15999999999997</ele>
<time>1970-01-01T00:00:01Z</time>
<link ></link></trkpt>
<trkpt lat="56.044363" lon="37.508059">
<ele>187.15999999999997</ele>
<time>1970-01-01T00:00:01Z</time>
<link ></link></trkpt>
<trkpt lat="56.044384" lon="37.507866">
<ele>187.0</ele>
<time>1970-01-01T00:00:01Z</time>
<link ></link></trkpt>
<trkpt lat="56.044521" lon="37.507512">
<ele>187.0</ele>
<time>1970-01-01T00:00:01Z</time>
<link ></link></trkpt>
<trkpt lat="56.044776" lon="37.50704">
<ele>186.68</ele>
<time>1970-01-01T00:00:01Z</time>
<link ></link></trkpt>
<trkpt lat="56.044821" lon="37.50682">
<ele>186.36</ele>
<time>1970-01-01T00:00:01Z</time>
<link ></link></trkpt>
<trkpt lat="56.044779" lon="37.506498">
<ele>185.64000000000001</ele>
<time>1970-01-01T00:00:01Z</time>
<link ></link></trkpt>
<trkpt lat="56.044794" lon="37.505951">
<ele>185.32</ele>
<time>1970-01-01T00:00:01Z</time>
<link ></link></trkpt>
<trkpt lat="56.044803" lon="37.505533">
<ele>184.84000000000003</ele>
<time>1970-01-01T00:00:01Z</time>
<link ></link></trkpt>
<trkpt lat="56.044728" lon="37.505162">
<ele>184.68000000000004</ele>
<time>1970-01-01T00:00:01Z</time>
<link ></link></trkpt>
<trkpt lat="56.044533" lon="37.50454">
<ele>184.32000000000005</ele>
<time>1970-01-01T00:00:01Z</time>
<link ></link></trkpt>
<trkpt lat="56.044417" lon="37.504363">
<ele>184.48000000000002</ele>
<time>1970-01-01T00:00:01Z</time>
<link ></link></trkpt>
<trkpt lat="56.044303" lon="37.504342">
<ele>184.64000000000001</ele>
<time>1970-01-01T00:00:01Z</time>
<link ></link></trkpt>
<trkpt lat="56.043907" lon="37.504454">
<ele>185.84000000000003</ele>
<time>1970-01-01T00:00:01Z</time>
<link ></link></trkpt>
<trkpt lat="56.043407" lon="37.504465">
<ele>186.64000000000001</ele>
<time>1970-01-01T00:00:01Z</time>
<link ></link></trkpt>
<trkpt lat="56.043164" lon="37.50439">
<ele>187.88000000000002</ele>
<time>1970-01-01T00:00:01Z</time>
<link ></link></trkpt>
<trkpt lat="56.042846" lon="37.504395">
<ele>188.20000000000002</ele>
<time>1970-01-01T00:00:01Z</time>
<link ></link></trkpt>
<trkpt lat="56.042061" lon="37.504776">
<ele>188.00000000000003</ele>
<time>1970-01-01T00:00:01Z</time>
<link ></link></trkpt>
<trkpt lat="56.041837" lon="37.504755">
<ele>188.48000000000002</ele>
<time>1970-01-01T00:00:01Z</time>
<link ></link></trkpt>
<trkpt lat="56.041465" lon="37.504894">
<ele>187.60000000000002</ele>
<time>1970-01-01T00:00:01Z</time>
<link ></link></trkpt>
<trkpt lat="56.041411" lon="37.505034">
<ele>189.44</ele>
<time>1970-01-01T00:00:01Z</time>
<link ></link></trkpt>
<trkpt lat="56.041345" lon="37.504964">
<ele>188.88000000000005</ele>
<time>1970-01-01T00:00:01Z</time>
<link ></link></trkpt>
<trkpt lat="56.041243" lon="37.505023">
<ele>191.04000000000002</ele>
<time>1970-01-01T00:00:01Z</time>
<link ></link></trkpt>
<trkpt lat="56.041186" lon="37.505114">
<ele>190.40000000000003</ele>
<time>1970-01-01T00:00:01Z</time>
<link ></link></trkpt>
<trkpt lat="56.041037" lon="37.505597">
<ele>192.00000000000003</ele>
<time>1970-01-01T00:00:01Z</time>
<link ></link></trkpt>
<trkpt lat="56.040824" lon="37.505774">
<ele>191.84000000000003</ele>
<time>1970-01-01T00:00:01Z</time>
<link ></link></trkpt>
<trkpt lat="56.040674" lon="37.505838">
<ele>192.8</ele>
<time>1970-01-01T00:00:01Z</time>
<link ></link></trkpt>
<trkpt lat="56.040425" lon="37.505865">
<ele>192.16000000000003</ele>
<time>1970-01-01T00:00:01Z</time>
<link ></link></trkpt>
<trkpt lat="56.040254" lon="37.505672">
<ele>191.04000000000002</ele>
<time>1970-01-01T00:00:01Z</time>
<link ></link></trkpt>
<trkpt lat="56.040159" lon="37.505602">
<ele>190.24</ele>
<time>1970-01-01T00:00:01Z</time>
<link ></link></trkpt>
<trkpt lat="56.039916" lon="37.505211">
<ele>190.04000000000002</ele>
<time>1970-01-01T00:00:01Z</time>
<link ></link></trkpt>
<trkpt lat="56.03982" lon="37.505237">
<ele>190.52</ele>
<time>1970-01-01T00:00:01Z</time>
<link ></link></trkpt>
<trkpt lat="56.039766" lon="37.505334">
<ele>190.36</ele>
<time>1970-01-01T00:00:01Z</time>
<link ></link></trkpt>
<trkpt lat="56.03967" lon="37.505366">
<ele>188.92000000000002</ele>
<time>1970-01-01T00:00:01Z</time>
<link ></link></trkpt>
<trkpt lat="56.039628" lon="37.504857">
<ele>186.68</ele>
<time>1970-01-01T00:00:01Z</time>
<link ></link></trkpt>
<trkpt lat="56.039709" lon="37.504036">
<ele>185.36</ele>
<time>1970-01-01T00:00:01Z</time>
<link ></link></trkpt>
<trkpt lat="56.039553" lon="37.503537">
<ele>184.24</ele>
<time>1970-01-01T00:00:01Z</time>
<link ></link></trkpt>
<trkpt lat="56.039158" lon="37.502502">
<ele>185.16</ele>
<time>1970-01-01T00:00:01Z</time>
<link ></link></trkpt>
<trkpt lat="56.038909" lon="37.502335">
<ele>184.48000000000002</ele>
<time>1970-01-01T00:00:01Z</time>
<link ></link></trkpt>
<trkpt lat="56.038834" lon="37.502126">
<ele>184.8</ele>
<time>1970-01-01T00:00:01Z</time>
<link ></link></trkpt>
<trkpt lat="56.038747" lon="37.50196">
<ele>183.68</ele>
<time>1970-01-01T00:00:01Z</time>
<link ></link></trkpt>
<trkpt lat="56.038594" lon="37.501681">
<ele>183.36</ele>
<time>1970-01-01T00:00:01Z</time>
<link ></link></trkpt>
<trkpt lat="56.038507" lon="37.501557">
<ele>183.6</ele>
<time>1970-01-01T00:00:01Z</time>
<link ></link></trkpt>
<trkpt lat="56.038367" lon="37.50152">
<ele>184.24</ele>
<time>1970-01-01T00:00:01Z</time>
<link ></link></trkpt>
<trkpt lat="56.038103" lon="37.501649">
<ele>186.07999999999998</ele>
<time>1970-01-01T00:00:01Z</time>
<link ></link></trkpt>
<trkpt lat="56.037791" lon="37.501627">
<ele>186.88</ele>
<time>1970-01-01T00:00:01Z</time>
<link ></link></trkpt>
<trkpt lat="56.03762" lon="37.501504">
<ele>187.68</ele>
<time>1970-01-01T00:00:01Z</time>
<link ></link></trkpt>
<trkpt lat="56.03745" lon="37.501552">
<ele>187.32</ele>
<time>1970-01-01T00:00:01Z</time>
<link ></link></trkpt>
<trkpt lat="56.037351" lon="37.501525">
<ele>187.15999999999997</ele>
<time>1970-01-01T00:00:01Z</time>
<link ></link></trkpt>
<trkpt lat="56.036934" lon="37.50152">
<ele>187.48</ele>
<time>1970-01-01T00:00:01Z</time>
<link ></link></trkpt>
<trkpt lat="56.036754" lon="37.501461">
<ele>187.96</ele>
<time>1970-01-01T00:00:01Z</time>
<link ></link></trkpt>
<trkpt lat="56.036538" lon="37.501504">
<ele>189.04000000000002</ele>
<time>1970-01-01T00:00:01Z</time>
<link ></link></trkpt>
<trkpt lat="56.036302" lon="37.501407">
<ele>189.52</ele>
<time>1970-01-01T00:00:01Z</time>
<link ></link></trkpt>
<trkpt lat="56.036134" lon="37.501391">
<ele>190.0</ele>
<time>1970-01-01T00:00:01Z</time>
<link ></link></trkpt>
<trkpt lat="56.036053" lon="37.501332">
<ele>190.32</ele>
<time>1970-01-01T00:00:01Z</time>
<link ></link></trkpt>
<trkpt lat="56.035978" lon="37.501021">
<ele>190.48000000000002</ele>
<time>1970-01-01T00:00:01Z</time>
<link ></link></trkpt>
<trkpt lat="56.035765" lon="37.500887">
<ele>191.04000000000002</ele>
<time>1970-01-01T00:00:01Z</time>
<link ></link></trkpt>
<trkpt lat="56.035705" lon="37.500737">
<ele>191.00000000000003</ele>
<time>1970-01-01T00:00:01Z</time>
<link ></link></trkpt>
<trkpt lat="56.035549" lon="37.500511">
<ele>191.16000000000003</ele>
<time>1970-01-01T00:00:01Z</time>
<link ></link></trkpt>
<trkpt lat="56.035451" lon="37.500517">
<ele>191.0</ele>
<time>1970-01-01T00:00:01Z</time>
<link ></link></trkpt>
<trkpt lat="56.035379" lon="37.500436">
<ele>191.64000000000004</ele>
<time>1970-01-01T00:00:01Z</time>
<link ></link></trkpt>
<trkpt lat="56.0351" lon="37.500077">
<ele>192.28000000000003</ele>
<time>1970-01-01T00:00:01Z</time>
<link ></link></trkpt>
<trkpt lat="56.034812" lon="37.500066">
<ele>194.36000000000004</ele>
<time>1970-01-01T00:00:01Z</time>
<link ></link></trkpt>
<trkpt lat="56.034563" lon="37.500072">
<ele>195.64000000000004</ele>
<time>1970-01-01T00:00:01Z</time>
<link ></link></trkpt>
<trkpt lat="56.034021" lon="37.500222">
<ele>197.72000000000003</ele>
<time>1970-01-01T00:00:01Z</time>
<link ></link></trkpt>
<trkpt lat="56.033598" lon="37.500485">
<ele>198.04000000000002</ele>
<time>1970-01-01T00:00:01Z</time>
<link ></link></trkpt>
<trkpt lat="56.033347" lon="37.500715">
<ele>198.36</ele>
<time>1970-01-01T00:00:01Z</time>
<link ></link></trkpt>
<trkpt lat="56.03302" lon="37.500871">
<ele>197.64000000000004</ele>
<time>1970-01-01T00:00:01Z</time>
<link ></link></trkpt>
<trkpt lat="56.032762" lon="37.500946">
<ele>196.84000000000003</ele>
<time>1970-01-01T00:00:01Z</time>
<link ></link></trkpt>
<trkpt lat="56.032501" lon="37.501085">
<ele>196.04000000000002</ele>
<time>1970-01-01T00:00:01Z</time>
<link ></link></trkpt>
<trkpt lat="56.03237" lon="37.501279">
<ele>194.96000000000004</ele>
<time>1970-01-01T00:00:01Z</time>
<link ></link></trkpt>
<trkpt lat="56.032151" lon="37.501364">
<ele>194.48000000000002</ele>
<time>1970-01-01T00:00:01Z</time>
<link ></link></trkpt>
<trkpt lat="56.031794" lon="37.501547">
<ele>193.36</ele>
<time>1970-01-01T00:00:01Z</time>
<link ></link></trkpt>
<trkpt lat="56.031737" lon="37.501622">
<ele>192.72000000000003</ele>
<time>1970-01-01T00:00:01Z</time>
<link ></link></trkpt>
<trkpt lat="56.031515" lon="37.501509">
<ele>190.8</ele>
<time>1970-01-01T00:00:01Z</time>
<link ></link></trkpt>
<trkpt lat="56.031404" lon="37.500994">
<ele>189.52000000000004</ele>
<time>1970-01-01T00:00:01Z</time>
<link ></link></trkpt>
<trkpt lat="56.031291" lon="37.500651">
<ele>187.64000000000001</ele>
<time>1970-01-01T00:00:01Z</time>
<link ></link></trkpt>
<trkpt lat="56.031012" lon="37.499406">
<ele>186.8</ele>
<time>1970-01-01T00:00:01Z</time>
<link ></link></trkpt>
<trkpt lat="56.031018" lon="37.499278">
<ele>186.48000000000002</ele>
<time>1970-01-01T00:00:01Z</time>
<link ></link></trkpt>
<trkpt lat="56.030877" lon="37.498307">
<ele>186.48000000000002</ele>
<time>1970-01-01T00:00:01Z</time>
<link ></link></trkpt>
<trkpt lat="56.030697" lon="37.497722">
<ele>187.04000000000002</ele>
<time>1970-01-01T00:00:01Z</time>
<link ></link></trkpt>
<trkpt lat="56.030487" lon="37.496488">
<ele>187.32000000000002</ele>
<time>1970-01-01T00:00:01Z</time>
<link ></link></trkpt>
<trkpt lat="56.030265" lon="37.49468">
<ele>187.64</ele>
<time>1970-01-01T00:00:01Z</time>
<link ></link></trkpt>
<trkpt lat="56.030083" lon="37.49364">
<ele>188.04000000000002</ele>
<time>1970-01-01T00:00:01Z</time>
<link ></link></trkpt>
<trkpt lat="56.029981" lon="37.493135">
<ele>187.84000000000003</ele>
<time>1970-01-01T00:00:01Z</time>
<link ></link></trkpt>
<trkpt lat="56.029828" lon="37.492872">
<ele>187.68</ele>
<time>1970-01-01T00:00:01Z</time>
<link ></link></trkpt>
<trkpt lat="56.029795" lon="37.492465">
<ele>187.0</ele>
<time>1970-01-01T00:00:01Z</time>
<link ></link></trkpt>
<trkpt lat="56.029585" lon="37.491279">
<ele>186.48000000000002</ele>
<time>1970-01-01T00:00:01Z</time>
<link ></link></trkpt>
<trkpt lat="56.029501" lon="37.491075">
<ele>186.48000000000002</ele>
<time>1970-01-01T00:00:01Z</time>
<link ></link></trkpt>
<trkpt lat="56.029159" lon="37.491188">
<ele>186.64000000000001</ele>
<time>1970-01-01T00:00:01Z</time>
<link ></link></trkpt>
<trkpt lat="56.02918" lon="37.490662">
<ele>187.52000000000004</ele>
<time>1970-01-01T00:00:01Z</time>
<link ></link></trkpt>
<trkpt lat="56.029312" lon="37.490287">
<ele>187.84</ele>
<time>1970-01-01T00:00:01Z</time>
<link ></link></trkpt>
<trkpt lat="56.029363" lon="37.489874">
<ele>188.36</ele>
<time>1970-01-01T00:00:01Z</time>
<link ></link></trkpt>
<trkpt lat="56.029354" lon="37.48908">
<ele>188.16000000000003</ele>
<time>1970-01-01T00:00:01Z</time>
<link ></link></trkpt>
<trkpt lat="56.029441" lon="37.488699">
<ele>188.32000000000002</ele>
<time>1970-01-01T00:00:01Z</time>
<link ></link></trkpt>
<trkpt lat="56.029375" lon="37.487433">
<ele>188.32000000000002</ele>
<time>1970-01-01T00:00:01Z</time>
<link ></link></trkpt>
<trkpt lat="56.029132" lon="37.48732">
<ele>188.68</ele>
<time>1970-01-01T00:00:01Z</time>
<link ></link></trkpt>
<trkpt lat="56.029138" lon="37.487197">
<ele>188.84000000000003</ele>
<time>1970-01-01T00:00:01Z</time>
<link ></link></trkpt>
<trkpt lat="56.028773" lon="37.487127">
<ele>189.0</ele>
<time>1970-01-01T00:00:01Z</time>
<link ></link></trkpt>
<trkpt lat="56.02877" lon="37.48709">
<ele>189</ele>
<time>1970-01-01T00:00:01Z</time>
<link ></link></trkpt></trkseg></trk></gpx>