<?xml version="1.0" encoding="UTF-8"?>
<gpx version="1.1" creator="Veshka">
  <trk>
    <name>Звенигородские холмы</name>
    <trkseg>
      <trkpt lat="55.699972" lon="36.880867"><ele>155</ele></trkpt>
      <trkpt lat="55.699985" lon="36.881026"><ele>155</ele></trkpt>
      <trkpt lat="55.700027" lon="36.881129"><ele>159</ele></trkpt>
      <trkpt lat="55.700079" lon="36.881361"><ele>160</ele></trkpt>
      <trkpt lat="55.700138" lon="36.881681"><ele>157</ele></trkpt>
      <trkpt lat="55.700167" lon="36.881844"><ele>156</ele></trkpt>
      <trkpt lat="55.700299" lon="36.881805"><ele>154</ele></trkpt>
      <trkpt lat="55.700388" lon="36.881707"><ele>154</ele></trkpt>
      <trkpt lat="55.700467" lon="36.881591"><ele>154</ele></trkpt>
      <trkpt lat="55.70054" lon="36.88147"><ele>155</ele></trkpt>
      <trkpt lat="55.700643" lon="36.881505"><ele>157</ele></trkpt>
      <trkpt lat="55.700782" lon="36.881663"><ele>157</ele></trkpt>
      <trkpt lat="55.700885" lon="36.881664"><ele>154</ele></trkpt>
      <trkpt lat="55.700997" lon="36.88163"><ele>153</ele></trkpt>
      <trkpt lat="55.701074" lon="36.881514"><ele>153</ele></trkpt>
      <trkpt lat="55.701088" lon="36.881331"><ele>153</ele></trkpt>
      <trkpt lat="55.70113" lon="36.881182"><ele>155</ele></trkpt>
      <trkpt lat="55.701193" lon="36.881056"><ele>155</ele></trkpt>
      <trkpt lat="55.701244" lon="36.880904"><ele>157</ele></trkpt>
      <trkpt lat="55.701318" lon="36.880756"><ele>159</ele></trkpt>
      <trkpt lat="55.701388" lon="36.880632"><ele>159</ele></trkpt>
      <trkpt lat="55.701455" lon="36.880517"><ele>159</ele></trkpt>
      <trkpt lat="55.701536" lon="36.88043"><ele>159</ele></trkpt>
      <trkpt lat="55.701614" lon="36.880286"><ele>160</ele></trkpt>
      <trkpt lat="55.701727" lon="36.880367"><ele>160</ele></trkpt>
      <trkpt lat="55.701838" lon="36.88024"><ele>160</ele></trkpt>
      <trkpt lat="55.70194" lon="36.880071"><ele>160</ele></trkpt>
      <trkpt lat="55.701998" lon="36.879934"><ele>160</ele></trkpt>
      <trkpt lat="55.702065" lon="36.879782"><ele>160</ele></trkpt>
      <trkpt lat="55.702186" lon="36.879608"><ele>160</ele></trkpt>
      <trkpt lat="55.702313" lon="36.879434"><ele>160</ele></trkpt>
      <trkpt lat="55.702393" lon="36.879314"><ele>159</ele></trkpt>
      <trkpt lat="55.702481" lon="36.879168"><ele>159</ele></trkpt>
      <trkpt lat="55.70254" lon="36.879029"><ele>160</ele></trkpt>
      <trkpt lat="55.702694" lon="36.878806"><ele>160</ele></trkpt>
      <trkpt lat="55.702814" lon="36.878684"><ele>160</ele></trkpt>
      <trkpt lat="55.702871" lon="36.878519"><ele>162</ele></trkpt>
      <trkpt lat="55.702969" lon="36.878428"><ele>160</ele></trkpt>
      <trkpt lat="55.703047" lon="36.87831"><ele>160</ele></trkpt>
      <trkpt lat="55.703104" lon="36.878144"><ele>160</ele></trkpt>
      <trkpt lat="55.703179" lon="36.878038"><ele>160</ele></trkpt>
      <trkpt lat="55.703275" lon="36.877916"><ele>160</ele></trkpt>
      <trkpt lat="55.703346" lon="36.87774"><ele>158</ele></trkpt>
      <trkpt lat="55.703414" lon="36.877599"><ele>158</ele></trkpt>
      <trkpt lat="55.703498" lon="36.87747"><ele>158</ele></trkpt>
      <trkpt lat="55.703636" lon="36.877368"><ele>158</ele></trkpt>
      <trkpt lat="55.703758" lon="36.877221"><ele>159</ele></trkpt>
      <trkpt lat="55.70381" lon="36.876986"><ele>159</ele></trkpt>
      <trkpt lat="55.703834" lon="36.876818"><ele>159</ele></trkpt>
      <trkpt lat="55.70395" lon="36.876806"><ele>159</ele></trkpt>
      <trkpt lat="55.703968" lon="36.87644"><ele>165</ele></trkpt>
      <trkpt lat="55.703852" lon="36.876377"><ele>165</ele></trkpt>
      <trkpt lat="55.703754" lon="36.876302"><ele>164</ele></trkpt>
      <trkpt lat="55.70362" lon="36.876157"><ele>164</ele></trkpt>
      <trkpt lat="55.703498" lon="36.87608"><ele>165</ele></trkpt>
      <trkpt lat="55.703374" lon="36.87605"><ele>163</ele></trkpt>
      <trkpt lat="55.703344" lon="36.875808"><ele>162</ele></trkpt>
      <trkpt lat="55.70322" lon="36.875659"><ele>160</ele></trkpt>
      <trkpt lat="55.703132" lon="36.875459"><ele>160</ele></trkpt>
      <trkpt lat="55.7031" lon="36.875253"><ele>160</ele></trkpt>
      <trkpt lat="55.703036" lon="36.875063"><ele>160</ele></trkpt>
      <trkpt lat="55.70304" lon="36.874848"><ele>160</ele></trkpt>
      <trkpt lat="55.703038" lon="36.874582"><ele>159</ele></trkpt>
      <trkpt lat="55.702978" lon="36.874397"><ele>159</ele></trkpt>
      <trkpt lat="55.702939" lon="36.874197"><ele>159</ele></trkpt>
      <trkpt lat="55.702981" lon="36.874023"><ele>159</ele></trkpt>
      <trkpt lat="55.702908" lon="36.873861"><ele>159</ele></trkpt>
      <trkpt lat="55.702907" lon="36.873681"><ele>159</ele></trkpt>
      <trkpt lat="55.702917" lon="36.873512"><ele>159</ele></trkpt>
      <trkpt lat="55.702963" lon="36.873355"><ele>159</ele></trkpt>
      <trkpt lat="55.703011" lon="36.873177"><ele>159</ele></trkpt>
      <trkpt lat="55.703054" lon="36.873002"><ele>158</ele></trkpt>
      <trkpt lat="55.703116" lon="36.872879"><ele>158</ele></trkpt>
      <trkpt lat="55.703167" lon="36.872719"><ele>158</ele></trkpt>
      <trkpt lat="55.703234" lon="36.872598"><ele>158</ele></trkpt>
      <trkpt lat="55.703277" lon="36.872418"><ele>158</ele></trkpt>
      <trkpt lat="55.703323" lon="36.872254"><ele>158</ele></trkpt>
      <trkpt lat="55.703355" lon="36.872058"><ele>158</ele></trkpt>
      <trkpt lat="55.703375" lon="36.871879"><ele>159</ele></trkpt>
      <trkpt lat="55.703427" lon="36.871693"><ele>159</ele></trkpt>
      <trkpt lat="55.703491" lon="36.87155"><ele>159</ele></trkpt>
      <trkpt lat="55.703514" lon="36.871381"><ele>159</ele></trkpt>
      <trkpt lat="55.703536" lon="36.871184"><ele>159</ele></trkpt>
      <trkpt lat="55.703519" lon="36.871019"><ele>158</ele></trkpt>
      <trkpt lat="55.703487" lon="36.870851"><ele>158</ele></trkpt>
      <trkpt lat="55.703417" lon="36.870719"><ele>156</ele></trkpt>
      <trkpt lat="55.703333" lon="36.870612"><ele>156</ele></trkpt>
      <trkpt lat="55.703261" lon="36.870507"><ele>156</ele></trkpt>
      <trkpt lat="55.703184" lon="36.87032"><ele>156</ele></trkpt>
      <trkpt lat="55.7031" lon="36.870205"><ele>155</ele></trkpt>
      <trkpt lat="55.703008" lon="36.870097"><ele>155</ele></trkpt>
      <trkpt lat="55.702933" lon="36.869972"><ele>153</ele></trkpt>
      <trkpt lat="55.702857" lon="36.86984"><ele>152</ele></trkpt>
      <trkpt lat="55.702735" lon="36.8698"><ele>152</ele></trkpt>
      <trkpt lat="55.702631" lon="36.869724"><ele>151</ele></trkpt>
      <trkpt lat="55.702535" lon="36.869605"><ele>152</ele></trkpt>
      <trkpt lat="55.702577" lon="36.869435"><ele>152</ele></trkpt>
      <trkpt lat="55.702615" lon="36.869273"><ele>152</ele></trkpt>
      <trkpt lat="55.702621" lon="36.869088"><ele>150</ele></trkpt>
      <trkpt lat="55.702621" lon="36.868882"><ele>150</ele></trkpt>
      <trkpt lat="55.702625" lon="36.868679"><ele>149</ele></trkpt>
      <trkpt lat="55.702724" lon="36.868393"><ele>149</ele></trkpt>
      <trkpt lat="55.702748" lon="36.868205"><ele>148</ele></trkpt>
      <trkpt lat="55.702831" lon="36.868014"><ele>148</ele></trkpt>
      <trkpt lat="55.702884" lon="36.867849"><ele>146</ele></trkpt>
      <trkpt lat="55.702924" lon="36.867678"><ele>146</ele></trkpt>
      <trkpt lat="55.70297" lon="36.867486"><ele>144</ele></trkpt>
      <trkpt lat="55.703043" lon="36.867281"><ele>144</ele></trkpt>
      <trkpt lat="55.703102" lon="36.867122"><ele>144</ele></trkpt>
      <trkpt lat="55.703144" lon="36.866949"><ele>142</ele></trkpt>
      <trkpt lat="55.703195" lon="36.866787"><ele>142</ele></trkpt>
      <trkpt lat="55.703229" lon="36.866618"><ele>142</ele></trkpt>
      <trkpt lat="55.703265" lon="36.866448"><ele>141</ele></trkpt>
      <trkpt lat="55.703335" lon="36.866317"><ele>141</ele></trkpt>
      <trkpt lat="55.703394" lon="36.866166"><ele>141</ele></trkpt>
      <trkpt lat="55.703459" lon="36.866035"><ele>140</ele></trkpt>
      <trkpt lat="55.703508" lon="36.865872"><ele>140</ele></trkpt>
      <trkpt lat="55.703528" lon="36.865702"><ele>140</ele></trkpt>
      <trkpt lat="55.703569" lon="36.865559"><ele>140</ele></trkpt>
      <trkpt lat="55.703619" lon="36.865418"><ele>140</ele></trkpt>
      <trkpt lat="55.703645" lon="36.865239"><ele>139</ele></trkpt>
      <trkpt lat="55.703676" lon="36.865043"><ele>138</ele></trkpt>
      <trkpt lat="55.703725" lon="36.864872"><ele>138</ele></trkpt>
      <trkpt lat="55.703737" lon="36.864655"><ele>136</ele></trkpt>
      <trkpt lat="55.703764" lon="36.864487"><ele>135</ele></trkpt>
      <trkpt lat="55.703764" lon="36.864311"><ele>132</ele></trkpt>
      <trkpt lat="55.703802" lon="36.864138"><ele>132</ele></trkpt>
      <trkpt lat="55.703845" lon="36.863986"><ele>130</ele></trkpt>
      <trkpt lat="55.703864" lon="36.86382"><ele>129</ele></trkpt>
      <trkpt lat="55.703901" lon="36.863656"><ele>129</ele></trkpt>
      <trkpt lat="55.703923" lon="36.863477"><ele>128</ele></trkpt>
      <trkpt lat="55.703965" lon="36.863307"><ele>128</ele></trkpt>
      <trkpt lat="55.703978" lon="36.863114"><ele>127</ele></trkpt>
      <trkpt lat="55.703994" lon="36.86302"><ele>127</ele></trkpt>
      <trkpt lat="55.704028" lon="36.862853"><ele>127</ele></trkpt>
      <trkpt lat="55.704058" lon="36.862679"><ele>127</ele></trkpt>
      <trkpt lat="55.704119" lon="36.862515"><ele>125</ele></trkpt>
      <trkpt lat="55.70416" lon="36.862359"><ele>125</ele></trkpt>
      <trkpt lat="55.704185" lon="36.862208"><ele>125</ele></trkpt>
      <trkpt lat="55.704204" lon="36.862104"><ele>125</ele></trkpt>
      <trkpt lat="55.704245" lon="36.861952"><ele>123</ele></trkpt>
      <trkpt lat="55.704267" lon="36.861856"><ele>123</ele></trkpt>
      <trkpt lat="55.704312" lon="36.86168"><ele>123</ele></trkpt>
      <trkpt lat="55.70435" lon="36.861517"><ele>123</ele></trkpt>
      <trkpt lat="55.704399" lon="36.861347"><ele>125</ele></trkpt>
      <trkpt lat="55.704416" lon="36.861249"><ele>125</ele></trkpt>
      <trkpt lat="55.704466" lon="36.861083"><ele>127</ele></trkpt>
      <trkpt lat="55.704503" lon="36.860907"><ele>128</ele></trkpt>
      <trkpt lat="55.704539" lon="36.860748"><ele>128</ele></trkpt>
      <trkpt lat="55.704578" lon="36.860593"><ele>131</ele></trkpt>
      <trkpt lat="55.704679" lon="36.86065"><ele>131</ele></trkpt>
      <trkpt lat="55.704742" lon="36.860503"><ele>131</ele></trkpt>
      <trkpt lat="55.70474" lon="36.860385"><ele>133</ele></trkpt>
      <trkpt lat="55.704767" lon="36.860185"><ele>133</ele></trkpt>
      <trkpt lat="55.704771" lon="36.860013"><ele>133</ele></trkpt>
      <trkpt lat="55.704834" lon="36.859871"><ele>133</ele></trkpt>
      <trkpt lat="55.704886" lon="36.859727"><ele>136</ele></trkpt>
      <trkpt lat="55.705001" lon="36.859785"><ele>135</ele></trkpt>
      <trkpt lat="55.705095" lon="36.859924"><ele>135</ele></trkpt>
      <trkpt lat="55.70515" lon="36.860066"><ele>136</ele></trkpt>
      <trkpt lat="55.705186" lon="36.86022"><ele>136</ele></trkpt>
      <trkpt lat="55.705205" lon="36.860404"><ele>136</ele></trkpt>
      <trkpt lat="55.705222" lon="36.860612"><ele>136</ele></trkpt>
      <trkpt lat="55.705252" lon="36.860781"><ele>136</ele></trkpt>
      <trkpt lat="55.705275" lon="36.86095"><ele>133</ele></trkpt>
      <trkpt lat="55.705321" lon="36.861119"><ele>131</ele></trkpt>
      <trkpt lat="55.705365" lon="36.861266"><ele>129</ele></trkpt>
      <trkpt lat="55.705449" lon="36.861369"><ele>127</ele></trkpt>
      <trkpt lat="55.705502" lon="36.861425"><ele>127</ele></trkpt>
      <trkpt lat="55.705561" lon="36.861443"><ele>127</ele></trkpt>
      <trkpt lat="55.705653" lon="36.861441"><ele>125</ele></trkpt>
      <trkpt lat="55.705752" lon="36.861511"><ele>125</ele></trkpt>
      <trkpt lat="55.705875" lon="36.861539"><ele>125</ele></trkpt>
      <trkpt lat="55.705983" lon="36.861597"><ele>125</ele></trkpt>
      <trkpt lat="55.706078" lon="36.86161"><ele>125</ele></trkpt>
      <trkpt lat="55.70623" lon="36.861632"><ele>125</ele></trkpt>
      <trkpt lat="55.706315" lon="36.861728"><ele>125</ele></trkpt>
      <trkpt lat="55.706414" lon="36.861734"><ele>125</ele></trkpt>
      <trkpt lat="55.706516" lon="36.861746"><ele>124</ele></trkpt>
      <trkpt lat="55.706613" lon="36.861754"><ele>124</ele></trkpt>
      <trkpt lat="55.706722" lon="36.861788"><ele>124</ele></trkpt>
      <trkpt lat="55.706834" lon="36.861839"><ele>124</ele></trkpt>
      <trkpt lat="55.706939" lon="36.861867"><ele>124</ele></trkpt>
      <trkpt lat="55.707031" lon="36.861923"><ele>125</ele></trkpt>
      <trkpt lat="55.70713" lon="36.861932"><ele>125</ele></trkpt>
      <trkpt lat="55.707231" lon="36.861926"><ele>125</ele></trkpt>
      <trkpt lat="55.707334" lon="36.861974"><ele>125</ele></trkpt>
      <trkpt lat="55.707476" lon="36.86198"><ele>126</ele></trkpt>
      <trkpt lat="55.707616" lon="36.86199"><ele>129</ele></trkpt>
      <trkpt lat="55.707721" lon="36.862018"><ele>129</ele></trkpt>
      <trkpt lat="55.707861" lon="36.862079"><ele>130</ele></trkpt>
      <trkpt lat="55.707962" lon="36.862123"><ele>130</ele></trkpt>
      <trkpt lat="55.70807" lon="36.862195"><ele>129</ele></trkpt>
      <trkpt lat="55.708176" lon="36.862217"><ele>128</ele></trkpt>
      <trkpt lat="55.708291" lon="36.862252"><ele>127</ele></trkpt>
      <trkpt lat="55.708421" lon="36.862254"><ele>127</ele></trkpt>
      <trkpt lat="55.708555" lon="36.862349"><ele>127</ele></trkpt>
      <trkpt lat="55.7087" lon="36.862442"><ele>127</ele></trkpt>
      <trkpt lat="55.708942" lon="36.862415"><ele>125</ele></trkpt>
      <trkpt lat="55.709091" lon="36.862396"><ele>125</ele></trkpt>
      <trkpt lat="55.709182" lon="36.862353"><ele>126</ele></trkpt>
      <trkpt lat="55.709254" lon="36.862252"><ele>126</ele></trkpt>
      <trkpt lat="55.709339" lon="36.862335"><ele>126</ele></trkpt>
      <trkpt lat="55.709447" lon="36.862342"><ele>126</ele></trkpt>
      <trkpt lat="55.709549" lon="36.86231"><ele>126</ele></trkpt>
      <trkpt lat="55.709631" lon="36.862241"><ele>126</ele></trkpt>
      <trkpt lat="55.709729" lon="36.862228"><ele>126</ele></trkpt>
      <trkpt lat="55.709825" lon="36.862207"><ele>124</ele></trkpt>
      <trkpt lat="55.71003" lon="36.862171"><ele>121</ele></trkpt>
      <trkpt lat="55.710137" lon="36.862142"><ele>121</ele></trkpt>
      <trkpt lat="55.710234" lon="36.86213"><ele>121</ele></trkpt>
      <trkpt lat="55.710331" lon="36.862087"><ele>121</ele></trkpt>
      <trkpt lat="55.710426" lon="36.862014"><ele>122</ele></trkpt>
      <trkpt lat="55.710533" lon="36.861987"><ele>122</ele></trkpt>
      <trkpt lat="55.710629" lon="36.861983"><ele>122</ele></trkpt>
      <trkpt lat="55.710728" lon="36.861926"><ele>121</ele></trkpt>
      <trkpt lat="55.710826" lon="36.861881"><ele>121</ele></trkpt>
      <trkpt lat="55.710916" lon="36.861834"><ele>121</ele></trkpt>
      <trkpt lat="55.710977" lon="36.861787"><ele>121</ele></trkpt>
      <trkpt lat="55.711039" lon="36.861794"><ele>121</ele></trkpt>
      <trkpt lat="55.711153" lon="36.861729"><ele>120</ele></trkpt>
      <trkpt lat="55.711249" lon="36.861868"><ele>120</ele></trkpt>
      <trkpt lat="55.711296" lon="36.862015"><ele>120</ele></trkpt>
      <trkpt lat="55.711394" lon="36.86203"><ele>120</ele></trkpt>
      <trkpt lat="55.711503" lon="36.862018"><ele>120</ele></trkpt>
      <trkpt lat="55.711604" lon="36.862025"><ele>119</ele></trkpt>
      <trkpt lat="55.711698" lon="36.86206"><ele>119</ele></trkpt>
      <trkpt lat="55.711795" lon="36.862034"><ele>119</ele></trkpt>
      <trkpt lat="55.711889" lon="36.861992"><ele>119</ele></trkpt>
      <trkpt lat="55.711976" lon="36.861929"><ele>119</ele></trkpt>
      <trkpt lat="55.712072" lon="36.861872"><ele>119</ele></trkpt>
      <trkpt lat="55.712162" lon="36.86183"><ele>119</ele></trkpt>
      <trkpt lat="55.712241" lon="36.861706"><ele>120</ele></trkpt>
      <trkpt lat="55.712292" lon="36.861557"><ele>120</ele></trkpt>
      <trkpt lat="55.712376" lon="36.861456"><ele>120</ele></trkpt>
      <trkpt lat="55.712477" lon="36.861451"><ele>121</ele></trkpt>
      <trkpt lat="55.71256" lon="36.861539"><ele>121</ele></trkpt>
      <trkpt lat="55.712606" lon="36.86173"><ele>121</ele></trkpt>
      <trkpt lat="55.712706" lon="36.861773"><ele>123</ele></trkpt>
      <trkpt lat="55.712799" lon="36.861821"><ele>123</ele></trkpt>
      <trkpt lat="55.712885" lon="36.861884"><ele>121</ele></trkpt>
      <trkpt lat="55.712984" lon="36.861931"><ele>121</ele></trkpt>
      <trkpt lat="55.713075" lon="36.862007"><ele>123</ele></trkpt>
      <trkpt lat="55.713174" lon="36.862069"><ele>123</ele></trkpt>
      <trkpt lat="55.713502" lon="36.862351"><ele>124</ele></trkpt>
      <trkpt lat="55.713754" lon="36.862156"><ele>124</ele></trkpt>
      <trkpt lat="55.714034" lon="36.862164"><ele>124</ele></trkpt>
      <trkpt lat="55.714168" lon="36.862232"><ele>124</ele></trkpt>
      <trkpt lat="55.714399" lon="36.862301"><ele>124</ele></trkpt>
      <trkpt lat="55.7147" lon="36.862359"><ele>124</ele></trkpt>
      <trkpt lat="55.714879" lon="36.862441"><ele>124</ele></trkpt>
      <trkpt lat="55.715259" lon="36.8623"><ele>124</ele></trkpt>
      <trkpt lat="55.715355" lon="36.862622"><ele>124</ele></trkpt>
      <trkpt lat="55.715451" lon="36.862729"><ele>124</ele></trkpt>
      <trkpt lat="55.715539" lon="36.862759"><ele>124</ele></trkpt>
      <trkpt lat="55.715634" lon="36.862782"><ele>124</ele></trkpt>
      <trkpt lat="55.715818" lon="36.862858"><ele>124</ele></trkpt>
      <trkpt lat="55.715904" lon="36.862943"><ele>124</ele></trkpt>
      <trkpt lat="55.716009" lon="36.862993"><ele>124</ele></trkpt>
      <trkpt lat="55.716094" lon="36.863092"><ele>124</ele></trkpt>
      <trkpt lat="55.716198" lon="36.863141"><ele>124</ele></trkpt>
      <trkpt lat="55.716299" lon="36.863217"><ele>124</ele></trkpt>
      <trkpt lat="55.716411" lon="36.863268"><ele>124</ele></trkpt>
      <trkpt lat="55.716492" lon="36.863337"><ele>124</ele></trkpt>
      <trkpt lat="55.716594" lon="36.863363"><ele>124</ele></trkpt>
      <trkpt lat="55.716709" lon="36.863341"><ele>124</ele></trkpt>
      <trkpt lat="55.716804" lon="36.863407"><ele>124</ele></trkpt>
      <trkpt lat="55.716905" lon="36.863354"><ele>123</ele></trkpt>
      <trkpt lat="55.716998" lon="36.863331"><ele>123</ele></trkpt>
      <trkpt lat="55.717099" lon="36.863336"><ele>122</ele></trkpt>
      <trkpt lat="55.717118" lon="36.863523"><ele>122</ele></trkpt>
      <trkpt lat="55.71711" lon="36.863772"><ele>122</ele></trkpt>
      <trkpt lat="55.717208" lon="36.863875"><ele>122</ele></trkpt>
      <trkpt lat="55.717102" lon="36.863804"><ele>122</ele></trkpt>
      <trkpt lat="55.717065" lon="36.863541"><ele>123</ele></trkpt>
      <trkpt lat="55.717145" lon="36.863329"><ele>122</ele></trkpt>
      <trkpt lat="55.71725" lon="36.863282"><ele>122</ele></trkpt>
      <trkpt lat="55.717358" lon="36.863219"><ele>122</ele></trkpt>
      <trkpt lat="55.717456" lon="36.863185"><ele>122</ele></trkpt>
      <trkpt lat="55.717534" lon="36.863069"><ele>122</ele></trkpt>
      <trkpt lat="55.717616" lon="36.862976"><ele>122</ele></trkpt>
      <trkpt lat="55.717674" lon="36.862834"><ele>122</ele></trkpt>
      <trkpt lat="55.717757" lon="36.862743"><ele>123</ele></trkpt>
      <trkpt lat="55.717835" lon="36.86267"><ele>123</ele></trkpt>
      <trkpt lat="55.717919" lon="36.862559"><ele>123</ele></trkpt>
      <trkpt lat="55.718057" lon="36.862387"><ele>125</ele></trkpt>
      <trkpt lat="55.718168" lon="36.862119"><ele>125</ele></trkpt>
      <trkpt lat="55.718296" lon="36.861657"><ele>125</ele></trkpt>
      <trkpt lat="55.718601" lon="36.861122"><ele>125</ele></trkpt>
      <trkpt lat="55.718782" lon="36.860569"><ele>115</ele></trkpt>
      <trkpt lat="55.719081" lon="36.86039"><ele>128</ele></trkpt>
      <trkpt lat="55.71899" lon="36.859827"><ele>124</ele></trkpt>
      <trkpt lat="55.719246" lon="36.859079"><ele>124</ele></trkpt>
      <trkpt lat="55.719417" lon="36.858528"><ele>125</ele></trkpt>
      <trkpt lat="55.719622" lon="36.858457"><ele>131</ele></trkpt>
      <trkpt lat="55.719742" lon="36.858387"><ele>131</ele></trkpt>
      <trkpt lat="55.719839" lon="36.858405"><ele>132</ele></trkpt>
      <trkpt lat="55.719931" lon="36.858318"><ele>132</ele></trkpt>
      <trkpt lat="55.720041" lon="36.85827"><ele>135</ele></trkpt>
      <trkpt lat="55.720251" lon="36.857673"><ele>123</ele></trkpt>
      <trkpt lat="55.720252" lon="36.857304"><ele>123</ele></trkpt>
      <trkpt lat="55.720238" lon="36.85692"><ele>116</ele></trkpt>
      <trkpt lat="55.720329" lon="36.856677"><ele>123</ele></trkpt>
      <trkpt lat="55.720479" lon="36.85656"><ele>123</ele></trkpt>
      <trkpt lat="55.720617" lon="36.856483"><ele>123</ele></trkpt>
      <trkpt lat="55.72069" lon="36.856348"><ele>123</ele></trkpt>
      <trkpt lat="55.720743" lon="36.85621"><ele>116</ele></trkpt>
      <trkpt lat="55.720778" lon="36.856023"><ele>115</ele></trkpt>
      <trkpt lat="55.720822" lon="36.855859"><ele>115</ele></trkpt>
      <trkpt lat="55.720859" lon="36.855687"><ele>115</ele></trkpt>
      <trkpt lat="55.720938" lon="36.855606"><ele>123</ele></trkpt>
      <trkpt lat="55.721037" lon="36.855651"><ele>123</ele></trkpt>
      <trkpt lat="55.72113" lon="36.855598"><ele>123</ele></trkpt>
      <trkpt lat="55.721234" lon="36.855479"><ele>123</ele></trkpt>
      <trkpt lat="55.721258" lon="36.855321"><ele>123</ele></trkpt>
      <trkpt lat="55.721341" lon="36.855204"><ele>123</ele></trkpt>
      <trkpt lat="55.721419" lon="36.855081"><ele>123</ele></trkpt>
      <trkpt lat="55.721518" lon="36.855024"><ele>123</ele></trkpt>
      <trkpt lat="55.721626" lon="36.854813"><ele>123</ele></trkpt>
      <trkpt lat="55.721681" lon="36.854632"><ele>123</ele></trkpt>
      <trkpt lat="55.721786" lon="36.854553"><ele>123</ele></trkpt>
      <trkpt lat="55.721877" lon="36.854438"><ele>123</ele></trkpt>
      <trkpt lat="55.721953" lon="36.854318"><ele>123</ele></trkpt>
      <trkpt lat="55.722032" lon="36.854204"><ele>123</ele></trkpt>
      <trkpt lat="55.722101" lon="36.854084"><ele>123</ele></trkpt>
      <trkpt lat="55.722171" lon="36.853975"><ele>122</ele></trkpt>
      <trkpt lat="55.722251" lon="36.853877"><ele>123</ele></trkpt>
      <trkpt lat="55.722311" lon="36.853729"><ele>123</ele></trkpt>
      <trkpt lat="55.72237" lon="36.853572"><ele>123</ele></trkpt>
      <trkpt lat="55.722422" lon="36.8534"><ele>123</ele></trkpt>
      <trkpt lat="55.72234" lon="36.853216"><ele>120</ele></trkpt>
      <trkpt lat="55.722294" lon="36.85306"><ele>120</ele></trkpt>
      <trkpt lat="55.722375" lon="36.852932"><ele>120</ele></trkpt>
      <trkpt lat="55.722548" lon="36.852914"><ele>120</ele></trkpt>
      <trkpt lat="55.72269" lon="36.852842"><ele>120</ele></trkpt>
      <trkpt lat="55.72281" lon="36.852768"><ele>122</ele></trkpt>
      <trkpt lat="55.722904" lon="36.852703"><ele>121</ele></trkpt>
      <trkpt lat="55.723012" lon="36.85273"><ele>121</ele></trkpt>
      <trkpt lat="55.723077" lon="36.852721"><ele>121</ele></trkpt>
      <trkpt lat="55.723189" lon="36.852707"><ele>121</ele></trkpt>
      <trkpt lat="55.723293" lon="36.852694"><ele>121</ele></trkpt>
      <trkpt lat="55.72337" lon="36.852626"><ele>118</ele></trkpt>
      <trkpt lat="55.723467" lon="36.852614"><ele>117</ele></trkpt>
      <trkpt lat="55.723568" lon="36.85255"><ele>117</ele></trkpt>
      <trkpt lat="55.723636" lon="36.852427"><ele>121</ele></trkpt>
      <trkpt lat="55.723768" lon="36.852323"><ele>123</ele></trkpt>
      <trkpt lat="55.723846" lon="36.852238"><ele>120</ele></trkpt>
      <trkpt lat="55.723928" lon="36.852135"><ele>120</ele></trkpt>
      <trkpt lat="55.724016" lon="36.852081"><ele>118</ele></trkpt>
      <trkpt lat="55.724117" lon="36.852029"><ele>118</ele></trkpt>
      <trkpt lat="55.724174" lon="36.85199"><ele>118</ele></trkpt>
      <trkpt lat="55.724248" lon="36.851868"><ele>118</ele></trkpt>
      <trkpt lat="55.724345" lon="36.851809"><ele>120</ele></trkpt>
      <trkpt lat="55.724449" lon="36.851808"><ele>122</ele></trkpt>
      <trkpt lat="55.72455" lon="36.85181"><ele>124</ele></trkpt>
      <trkpt lat="55.724653" lon="36.85177"><ele>125</ele></trkpt>
      <trkpt lat="55.724739" lon="36.851677"><ele>125</ele></trkpt>
      <trkpt lat="55.724827" lon="36.851612"><ele>125</ele></trkpt>
      <trkpt lat="55.724928" lon="36.85154"><ele>125</ele></trkpt>
      <trkpt lat="55.725028" lon="36.851498"><ele>125</ele></trkpt>
      <trkpt lat="55.725117" lon="36.851487"><ele>125</ele></trkpt>
      <trkpt lat="55.725203" lon="36.851394"><ele>126</ele></trkpt>
      <trkpt lat="55.725347" lon="36.851261"><ele>128</ele></trkpt>
      <trkpt lat="55.72545" lon="36.851242"><ele>129</ele></trkpt>
      <trkpt lat="55.725552" lon="36.851172"><ele>128</ele></trkpt>
      <trkpt lat="55.725653" lon="36.851143"><ele>128</ele></trkpt>
      <trkpt lat="55.72578" lon="36.851026"><ele>128</ele></trkpt>
      <trkpt lat="55.725868" lon="36.85092"><ele>128</ele></trkpt>
      <trkpt lat="55.725948" lon="36.850824"><ele>126</ele></trkpt>
      <trkpt lat="55.726046" lon="36.850785"><ele>126</ele></trkpt>
      <trkpt lat="55.726151" lon="36.850735"><ele>126</ele></trkpt>
      <trkpt lat="55.726246" lon="36.850646"><ele>126</ele></trkpt>
      <trkpt lat="55.726328" lon="36.850526"><ele>126</ele></trkpt>
      <trkpt lat="55.726398" lon="36.850393"><ele>126</ele></trkpt>
      <trkpt lat="55.726478" lon="36.850281"><ele>126</ele></trkpt>
      <trkpt lat="55.726576" lon="36.850184"><ele>129</ele></trkpt>
      <trkpt lat="55.72667" lon="36.850125"><ele>130</ele></trkpt>
      <trkpt lat="55.726767" lon="36.850033"><ele>130</ele></trkpt>
      <trkpt lat="55.726845" lon="36.849893"><ele>128</ele></trkpt>
      <trkpt lat="55.726924" lon="36.849776"><ele>127</ele></trkpt>
      <trkpt lat="55.726994" lon="36.849667"><ele>126</ele></trkpt>
      <trkpt lat="55.727076" lon="36.849583"><ele>126</ele></trkpt>
      <trkpt lat="55.727137" lon="36.849433"><ele>126</ele></trkpt>
      <trkpt lat="55.727225" lon="36.849305"><ele>126</ele></trkpt>
      <trkpt lat="55.727285" lon="36.849176"><ele>126</ele></trkpt>
      <trkpt lat="55.727382" lon="36.849106"><ele>126</ele></trkpt>
      <trkpt lat="55.727419" lon="36.848943"><ele>126</ele></trkpt>
      <trkpt lat="55.727506" lon="36.848876"><ele>128</ele></trkpt>
      <trkpt lat="55.727543" lon="36.849033"><ele>128</ele></trkpt>
      <trkpt lat="55.727589" lon="36.849179"><ele>128</ele></trkpt>
      <trkpt lat="55.727645" lon="36.84931"><ele>128</ele></trkpt>
      <trkpt lat="55.727679" lon="36.849378"><ele>129</ele></trkpt>
      <trkpt lat="55.727711" lon="36.849441"><ele>129</ele></trkpt>
      <trkpt lat="55.727735" lon="36.849512"><ele>129</ele></trkpt>
      <trkpt lat="55.72776" lon="36.849586"><ele>129</ele></trkpt>
      <trkpt lat="55.727788" lon="36.849664"><ele>129</ele></trkpt>
      <trkpt lat="55.727817" lon="36.849734"><ele>129</ele></trkpt>
      <trkpt lat="55.727845" lon="36.84981"><ele>127</ele></trkpt>
      <trkpt lat="55.727874" lon="36.849875"><ele>127</ele></trkpt>
      <trkpt lat="55.727904" lon="36.849939"><ele>127</ele></trkpt>
      <trkpt lat="55.727929" lon="36.850012"><ele>127</ele></trkpt>
      <trkpt lat="55.727959" lon="36.850079"><ele>127</ele></trkpt>
      <trkpt lat="55.727987" lon="36.850149"><ele>127</ele></trkpt>
      <trkpt lat="55.728024" lon="36.85023"><ele>127</ele></trkpt>
      <trkpt lat="55.728065" lon="36.850299"><ele>127</ele></trkpt>
      <trkpt lat="55.728094" lon="36.850373"><ele>126</ele></trkpt>
      <trkpt lat="55.728124" lon="36.85044"><ele>126</ele></trkpt>
      <trkpt lat="55.728158" lon="36.850502"><ele>126</ele></trkpt>
      <trkpt lat="55.728191" lon="36.850582"><ele>126</ele></trkpt>
      <trkpt lat="55.728224" lon="36.850658"><ele>127</ele></trkpt>
      <trkpt lat="55.728253" lon="36.850738"><ele>127</ele></trkpt>
      <trkpt lat="55.728279" lon="36.850807"><ele>127</ele></trkpt>
      <trkpt lat="55.728309" lon="36.850881"><ele>127</ele></trkpt>
      <trkpt lat="55.728341" lon="36.850962"><ele>127</ele></trkpt>
      <trkpt lat="55.728375" lon="36.851031"><ele>127</ele></trkpt>
      <trkpt lat="55.728402" lon="36.851103"><ele>127</ele></trkpt>
      <trkpt lat="55.728435" lon="36.85118"><ele>127</ele></trkpt>
      <trkpt lat="55.728459" lon="36.851247"><ele>126</ele></trkpt>
      <trkpt lat="55.728499" lon="36.851326"><ele>126</ele></trkpt>
      <trkpt lat="55.728528" lon="36.85141"><ele>126</ele></trkpt>
      <trkpt lat="55.728554" lon="36.851484"><ele>126</ele></trkpt>
      <trkpt lat="55.72858" lon="36.851555"><ele>126</ele></trkpt>
      <trkpt lat="55.72862" lon="36.851623"><ele>126</ele></trkpt>
      <trkpt lat="55.728658" lon="36.851689"><ele>127</ele></trkpt>
      <trkpt lat="55.728738" lon="36.851789"><ele>128</ele></trkpt>
      <trkpt lat="55.728784" lon="36.851865"><ele>128</ele></trkpt>
      <trkpt lat="55.728882" lon="36.851962"><ele>128</ele></trkpt>
      <trkpt lat="55.728941" lon="36.852109"><ele>130</ele></trkpt>
      <trkpt lat="55.72903" lon="36.852195"><ele>130</ele></trkpt>
      <trkpt lat="55.729087" lon="36.852217"><ele>130</ele></trkpt>
      <trkpt lat="55.729188" lon="36.852292"><ele>129</ele></trkpt>
      <trkpt lat="55.729289" lon="36.852361"><ele>129</ele></trkpt>
      <trkpt lat="55.729386" lon="36.852417"><ele>131</ele></trkpt>
      <trkpt lat="55.729483" lon="36.852473"><ele>133</ele></trkpt>
      <trkpt lat="55.729581" lon="36.852491"><ele>133</ele></trkpt>
      <trkpt lat="55.729689" lon="36.852538"><ele>135</ele></trkpt>
      <trkpt lat="55.729818" lon="36.852486"><ele>135</ele></trkpt>
      <trkpt lat="55.729916" lon="36.852505"><ele>135</ele></trkpt>
      <trkpt lat="55.730008" lon="36.85261"><ele>138</ele></trkpt>
      <trkpt lat="55.730205" lon="36.852697"><ele>136</ele></trkpt>
      <trkpt lat="55.730466" lon="36.852661"><ele>138</ele></trkpt>
      <trkpt lat="55.730467" lon="36.852462"><ele>138</ele></trkpt>
      <trkpt lat="55.730503" lon="36.852276"><ele>138</ele></trkpt>
      <trkpt lat="55.730512" lon="36.852096"><ele>138</ele></trkpt>
      <trkpt lat="55.73056" lon="36.851928"><ele>140</ele></trkpt>
      <trkpt lat="55.730606" lon="36.851765"><ele>138</ele></trkpt>
      <trkpt lat="55.730585" lon="36.851596"><ele>138</ele></trkpt>
      <trkpt lat="55.730635" lon="36.851423"><ele>139</ele></trkpt>
      <trkpt lat="55.730657" lon="36.85126"><ele>139</ele></trkpt>
      <trkpt lat="55.730667" lon="36.851067"><ele>137</ele></trkpt>
      <trkpt lat="55.730587" lon="36.851196"><ele>137</ele></trkpt>
      <trkpt lat="55.730606" lon="36.851034"><ele>135</ele></trkpt>
      <trkpt lat="55.730642" lon="36.850884"><ele>133</ele></trkpt>
      <trkpt lat="55.730596" lon="36.850706"><ele>132</ele></trkpt>
      <trkpt lat="55.730545" lon="36.850532"><ele>131</ele></trkpt>
      <trkpt lat="55.730585" lon="36.85036"><ele>133</ele></trkpt>
      <trkpt lat="55.730621" lon="36.850202"><ele>135</ele></trkpt>
      <trkpt lat="55.730619" lon="36.850009"><ele>133</ele></trkpt>
      <trkpt lat="55.730692" lon="36.849888"><ele>133</ele></trkpt>
      <trkpt lat="55.73086" lon="36.849839"><ele>133</ele></trkpt>
      <trkpt lat="55.730998" lon="36.849854"><ele>133</ele></trkpt>
      <trkpt lat="55.731124" lon="36.849901"><ele>135</ele></trkpt>
      <trkpt lat="55.731266" lon="36.849923"><ele>135</ele></trkpt>
      <trkpt lat="55.731399" lon="36.849846"><ele>136</ele></trkpt>
      <trkpt lat="55.7315" lon="36.8498"><ele>136</ele></trkpt>
      <trkpt lat="55.731642" lon="36.849753"><ele>138</ele></trkpt>
      <trkpt lat="55.731745" lon="36.849699"><ele>138</ele></trkpt>
      <trkpt lat="55.731842" lon="36.849681"><ele>140</ele></trkpt>
      <trkpt lat="55.731942" lon="36.849677"><ele>141</ele></trkpt>
      <trkpt lat="55.732036" lon="36.849716"><ele>141</ele></trkpt>
      <trkpt lat="55.732168" lon="36.849589"><ele>141</ele></trkpt>
      <trkpt lat="55.732143" lon="36.849395"><ele>141</ele></trkpt>
      <trkpt lat="55.732113" lon="36.849224"><ele>141</ele></trkpt>
      <trkpt lat="55.732108" lon="36.849052"><ele>141</ele></trkpt>
      <trkpt lat="55.732056" lon="36.848885"><ele>140</ele></trkpt>
      <trkpt lat="55.732046" lon="36.84907"><ele>136</ele></trkpt>
      <trkpt lat="55.732079" lon="36.849215"><ele>138</ele></trkpt>
      <trkpt lat="55.732142" lon="36.849347"><ele>138</ele></trkpt>
      <trkpt lat="55.732241" lon="36.84926"><ele>138</ele></trkpt>
      <trkpt lat="55.73238" lon="36.849174"><ele>140</ele></trkpt>
      <trkpt lat="55.732494" lon="36.849007"><ele>143</ele></trkpt>
      <trkpt lat="55.732611" lon="36.848855"><ele>147</ele></trkpt>
      <trkpt lat="55.73275" lon="36.848804"><ele>149</ele></trkpt>
      <trkpt lat="55.732897" lon="36.848804"><ele>149</ele></trkpt>
      <trkpt lat="55.73305" lon="36.848672"><ele>149</ele></trkpt>
      <trkpt lat="55.733221" lon="36.848697"><ele>146</ele></trkpt>
      <trkpt lat="55.733384" lon="36.848541"><ele>148</ele></trkpt>
      <trkpt lat="55.73352" lon="36.848404"><ele>149</ele></trkpt>
      <trkpt lat="55.733619" lon="36.848212"><ele>151</ele></trkpt>
      <trkpt lat="55.733697" lon="36.847992"><ele>151</ele></trkpt>
      <trkpt lat="55.733757" lon="36.847753"><ele>153</ele></trkpt>
      <trkpt lat="55.733768" lon="36.847433"><ele>151</ele></trkpt>
      <trkpt lat="55.733767" lon="36.847256"><ele>151</ele></trkpt>
      <trkpt lat="55.733841" lon="36.847127"><ele>153</ele></trkpt>
      <trkpt lat="55.733872" lon="36.846928"><ele>153</ele></trkpt>
      <trkpt lat="55.733945" lon="36.846781"><ele>153</ele></trkpt>
      <trkpt lat="55.734021" lon="36.84658"><ele>154</ele></trkpt>
      <trkpt lat="55.734135" lon="36.846521"><ele>154</ele></trkpt>
      <trkpt lat="55.734243" lon="36.846453"><ele>155</ele></trkpt>
      <trkpt lat="55.734342" lon="36.84629"><ele>155</ele></trkpt>
      <trkpt lat="55.734476" lon="36.846411"><ele>155</ele></trkpt>
      <trkpt lat="55.734639" lon="36.84639"><ele>155</ele></trkpt>
      <trkpt lat="55.734782" lon="36.846353"><ele>155</ele></trkpt>
      <trkpt lat="55.734886" lon="36.846344"><ele>155</ele></trkpt>
      <trkpt lat="55.734986" lon="36.846349"><ele>155</ele></trkpt>
      <trkpt lat="55.734899" lon="36.84605"><ele>155</ele></trkpt>
      <trkpt lat="55.734773" lon="36.846023"><ele>153</ele></trkpt>
      <trkpt lat="55.734713" lon="36.845824"><ele>150</ele></trkpt>
      <trkpt lat="55.734603" lon="36.845618"><ele>150</ele></trkpt>
      <trkpt lat="55.734519" lon="36.845512"><ele>150</ele></trkpt>
      <trkpt lat="55.73433" lon="36.845271"><ele>150</ele></trkpt>
      <trkpt lat="55.734247" lon="36.845136"><ele>152</ele></trkpt>
      <trkpt lat="55.734167" lon="36.844921"><ele>152</ele></trkpt>
      <trkpt lat="55.734133" lon="36.844727"><ele>152</ele></trkpt>
      <trkpt lat="55.734218" lon="36.84454"><ele>152</ele></trkpt>
      <trkpt lat="55.734334" lon="36.844341"><ele>153</ele></trkpt>
      <trkpt lat="55.734235" lon="36.844103"><ele>154</ele></trkpt>
      <trkpt lat="55.734165" lon="36.843947"><ele>156</ele></trkpt>
      <trkpt lat="55.734162" lon="36.843711"><ele>156</ele></trkpt>
      <trkpt lat="55.734223" lon="36.843522"><ele>158</ele></trkpt>
      <trkpt lat="55.734261" lon="36.843204"><ele>161</ele></trkpt>
      <trkpt lat="55.73411" lon="36.843309"><ele>162</ele></trkpt>
      <trkpt lat="55.733956" lon="36.843405"><ele>158</ele></trkpt>
      <trkpt lat="55.733829" lon="36.843284"><ele>155</ele></trkpt>
      <trkpt lat="55.733727" lon="36.843077"><ele>154</ele></trkpt>
      <trkpt lat="55.733661" lon="36.842931"><ele>155</ele></trkpt>
      <trkpt lat="55.733585" lon="36.84276"><ele>155</ele></trkpt>
      <trkpt lat="55.733517" lon="36.842612"><ele>157</ele></trkpt>
      <trkpt lat="55.733562" lon="36.842442"><ele>157</ele></trkpt>
      <trkpt lat="55.733626" lon="36.842202"><ele>155</ele></trkpt>
      <trkpt lat="55.733633" lon="36.84202"><ele>155</ele></trkpt>
      <trkpt lat="55.73357" lon="36.84186"><ele>155</ele></trkpt>
      <trkpt lat="55.733507" lon="36.84169"><ele>155</ele></trkpt>
      <trkpt lat="55.733423" lon="36.841502"><ele>154</ele></trkpt>
      <trkpt lat="55.733352" lon="36.841283"><ele>154</ele></trkpt>
      <trkpt lat="55.733265" lon="36.841048"><ele>154</ele></trkpt>
      <trkpt lat="55.733206" lon="36.840804"><ele>153</ele></trkpt>
      <trkpt lat="55.73315" lon="36.84064"><ele>154</ele></trkpt>
      <trkpt lat="55.733046" lon="36.840466"><ele>154</ele></trkpt>
      <trkpt lat="55.732968" lon="36.840365"><ele>154</ele></trkpt>
      <trkpt lat="55.732925" lon="36.840194"><ele>152</ele></trkpt>
      <trkpt lat="55.733006" lon="36.840026"><ele>152</ele></trkpt>
      <trkpt lat="55.733085" lon="36.839949"><ele>152</ele></trkpt>
      <trkpt lat="55.733201" lon="36.839977"><ele>152</ele></trkpt>
      <trkpt lat="55.733017" lon="36.840037"><ele>152</ele></trkpt>
      <trkpt lat="55.73295" lon="36.840325"><ele>152</ele></trkpt>
      <trkpt lat="55.733031" lon="36.840444"><ele>152</ele></trkpt>
      <trkpt lat="55.733102" lon="36.84058"><ele>152</ele></trkpt>
      <trkpt lat="55.733208" lon="36.840648"><ele>152</ele></trkpt>
      <trkpt lat="55.733309" lon="36.840679"><ele>152</ele></trkpt>
      <trkpt lat="55.733389" lon="36.840558"><ele>152</ele></trkpt>
      <trkpt lat="55.733487" lon="36.840503"><ele>152</ele></trkpt>
      <trkpt lat="55.733592" lon="36.840391"><ele>152</ele></trkpt>
      <trkpt lat="55.733682" lon="36.840361"><ele>150</ele></trkpt>
      <trkpt lat="55.733768" lon="36.840422"><ele>152</ele></trkpt>
      <trkpt lat="55.733835" lon="36.840566"><ele>149</ele></trkpt>
      <trkpt lat="55.733874" lon="36.840723"><ele>149</ele></trkpt>
      <trkpt lat="55.733927" lon="36.84088"><ele>150</ele></trkpt>
      <trkpt lat="55.733998" lon="36.841014"><ele>150</ele></trkpt>
      <trkpt lat="55.734058" lon="36.841167"><ele>150</ele></trkpt>
      <trkpt lat="55.734152" lon="36.841284"><ele>150</ele></trkpt>
      <trkpt lat="55.734236" lon="36.84148"><ele>153</ele></trkpt>
      <trkpt lat="55.734327" lon="36.84158"><ele>153</ele></trkpt>
      <trkpt lat="55.734413" lon="36.841685"><ele>156</ele></trkpt>
      <trkpt lat="55.734473" lon="36.841894"><ele>160</ele></trkpt>
      <trkpt lat="55.734431" lon="36.842067"><ele>160</ele></trkpt>
      <trkpt lat="55.734383" lon="36.842205"><ele>160</ele></trkpt>
      <trkpt lat="55.734346" lon="36.842366"><ele>162</ele></trkpt>
      <trkpt lat="55.734277" lon="36.842494"><ele>162</ele></trkpt>
      <trkpt lat="55.734194" lon="36.842637"><ele>162</ele></trkpt>
      <trkpt lat="55.734117" lon="36.842757"><ele>162</ele></trkpt>
      <trkpt lat="55.733994" lon="36.842864"><ele>161</ele></trkpt>
      <trkpt lat="55.733859" lon="36.842837"><ele>158</ele></trkpt>
      <trkpt lat="55.733775" lon="36.842762"><ele>157</ele></trkpt>
      <trkpt lat="55.733684" lon="36.842667"><ele>155</ele></trkpt>
      <trkpt lat="55.733658" lon="36.842426"><ele>150</ele></trkpt>
      <trkpt lat="55.733599" lon="36.842616"><ele>152</ele></trkpt>
      <trkpt lat="55.733634" lon="36.842785"><ele>152</ele></trkpt>
      <trkpt lat="55.73367" lon="36.842957"><ele>152</ele></trkpt>
      <trkpt lat="55.733747" lon="36.843083"><ele>152</ele></trkpt>
      <trkpt lat="55.733859" lon="36.843225"><ele>153</ele></trkpt>
      <trkpt lat="55.733925" lon="36.843363"><ele>155</ele></trkpt>
      <trkpt lat="55.73403" lon="36.843356"><ele>156</ele></trkpt>
      <trkpt lat="55.734218" lon="36.843346"><ele>156</ele></trkpt>
      <trkpt lat="55.734333" lon="36.843163"><ele>157</ele></trkpt>
      <trkpt lat="55.734445" lon="36.843074"><ele>158</ele></trkpt>
      <trkpt lat="55.734539" lon="36.842953"><ele>161</ele></trkpt>
      <trkpt lat="55.734559" lon="36.842694"><ele>163</ele></trkpt>
      <trkpt lat="55.734609" lon="36.842526"><ele>163</ele></trkpt>
      <trkpt lat="55.734698" lon="36.842401"><ele>163</ele></trkpt>
      <trkpt lat="55.734751" lon="36.842161"><ele>163</ele></trkpt>
      <trkpt lat="55.734692" lon="36.841905"><ele>160</ele></trkpt>
      <trkpt lat="55.734752" lon="36.841751"><ele>156</ele></trkpt>
      <trkpt lat="55.734717" lon="36.841568"><ele>154</ele></trkpt>
      <trkpt lat="55.734696" lon="36.841319"><ele>147</ele></trkpt>
      <trkpt lat="55.734618" lon="36.841077"><ele>140</ele></trkpt>
      <trkpt lat="55.734581" lon="36.840871"><ele>137</ele></trkpt>
      <trkpt lat="55.734435" lon="36.840701"><ele>133</ele></trkpt>
      <trkpt lat="55.734349" lon="36.840596"><ele>132</ele></trkpt>
      <trkpt lat="55.734258" lon="36.840487"><ele>132</ele></trkpt>
      <trkpt lat="55.734241" lon="36.840306"><ele>134</ele></trkpt>
      <trkpt lat="55.734183" lon="36.840151"><ele>134</ele></trkpt>
      <trkpt lat="55.734104" lon="36.840012"><ele>132</ele></trkpt>
      <trkpt lat="55.734053" lon="36.839869"><ele>132</ele></trkpt>
      <trkpt lat="55.734024" lon="36.839702"><ele>132</ele></trkpt>
      <trkpt lat="55.733952" lon="36.83986"><ele>134</ele></trkpt>
      <trkpt lat="55.733956" lon="36.839497"><ele>130</ele></trkpt>
      <trkpt lat="55.733858" lon="36.839329"><ele>132</ele></trkpt>
      <trkpt lat="55.733784" lon="36.839061"><ele>133</ele></trkpt>
      <trkpt lat="55.733688" lon="36.838852"><ele>133</ele></trkpt>
      <trkpt lat="55.733577" lon="36.838703"><ele>133</ele></trkpt>
      <trkpt lat="55.73349" lon="36.838566"><ele>134</ele></trkpt>
      <trkpt lat="55.733415" lon="36.838448"><ele>133</ele></trkpt>
      <trkpt lat="55.733349" lon="36.838327"><ele>133</ele></trkpt>
      <trkpt lat="55.733215" lon="36.838171"><ele>129</ele></trkpt>
      <trkpt lat="55.733108" lon="36.838143"><ele>129</ele></trkpt>
      <trkpt lat="55.733002" lon="36.838045"><ele>128</ele></trkpt>
      <trkpt lat="55.73285" lon="36.838028"><ele>128</ele></trkpt>
      <trkpt lat="55.732755" lon="36.837913"><ele>128</ele></trkpt>
      <trkpt lat="55.732702" lon="36.837748"><ele>128</ele></trkpt>
      <trkpt lat="55.732645" lon="36.8376"><ele>129</ele></trkpt>
      <trkpt lat="55.73253" lon="36.837437"><ele>131</ele></trkpt>
      <trkpt lat="55.732474" lon="36.837198"><ele>131</ele></trkpt>
      <trkpt lat="55.732356" lon="36.837039"><ele>135</ele></trkpt>
      <trkpt lat="55.732248" lon="36.83687"><ele>135</ele></trkpt>
      <trkpt lat="55.732219" lon="36.83669"><ele>135</ele></trkpt>
      <trkpt lat="55.732131" lon="36.836595"><ele>133</ele></trkpt>
      <trkpt lat="55.732044" lon="36.836509"><ele>133</ele></trkpt>
      <trkpt lat="55.731936" lon="36.836514"><ele>132</ele></trkpt>
      <trkpt lat="55.731859" lon="36.836387"><ele>130</ele></trkpt>
      <trkpt lat="55.731827" lon="36.83621"><ele>128</ele></trkpt>
      <trkpt lat="55.731843" lon="36.83603"><ele>128</ele></trkpt>
      <trkpt lat="55.731877" lon="36.835787"><ele>129</ele></trkpt>
      <trkpt lat="55.731848" lon="36.835583"><ele>129</ele></trkpt>
      <trkpt lat="55.731826" lon="36.835387"><ele>129</ele></trkpt>
      <trkpt lat="55.731801" lon="36.835226"><ele>130</ele></trkpt>
      <trkpt lat="55.7318" lon="36.835063"><ele>128</ele></trkpt>
      <trkpt lat="55.73178" lon="36.834881"><ele>128</ele></trkpt>
      <trkpt lat="55.731774" lon="36.83472"><ele>128</ele></trkpt>
      <trkpt lat="55.731774" lon="36.834521"><ele>130</ele></trkpt>
      <trkpt lat="55.731775" lon="36.834266"><ele>130</ele></trkpt>
      <trkpt lat="55.73178" lon="36.834022"><ele>130</ele></trkpt>
      <trkpt lat="55.731806" lon="36.833818"><ele>132</ele></trkpt>
      <trkpt lat="55.731825" lon="36.833641"><ele>134</ele></trkpt>
      <trkpt lat="55.731849" lon="36.833473"><ele>134</ele></trkpt>
      <trkpt lat="55.731873" lon="36.833263"><ele>134</ele></trkpt>
      <trkpt lat="55.731902" lon="36.833091"><ele>134</ele></trkpt>
      <trkpt lat="55.731928" lon="36.832906"><ele>134</ele></trkpt>
      <trkpt lat="55.731936" lon="36.832714"><ele>135</ele></trkpt>
      <trkpt lat="55.731979" lon="36.832533"><ele>135</ele></trkpt>
      <trkpt lat="55.73199" lon="36.832361"><ele>135</ele></trkpt>
      <trkpt lat="55.731992" lon="36.832175"><ele>137</ele></trkpt>
      <trkpt lat="55.731994" lon="36.831997"><ele>137</ele></trkpt>
      <trkpt lat="55.731992" lon="36.831809"><ele>137</ele></trkpt>
      <trkpt lat="55.731976" lon="36.831548"><ele>137</ele></trkpt>
      <trkpt lat="55.731941" lon="36.831303"><ele>137</ele></trkpt>
      <trkpt lat="55.731892" lon="36.831144"><ele>137</ele></trkpt>
      <trkpt lat="55.731883" lon="36.830948"><ele>139</ele></trkpt>
      <trkpt lat="55.731831" lon="36.830766"><ele>139</ele></trkpt>
      <trkpt lat="55.731788" lon="36.830613"><ele>139</ele></trkpt>
      <trkpt lat="55.731754" lon="36.830456"><ele>139</ele></trkpt>
      <trkpt lat="55.731718" lon="36.830294"><ele>139</ele></trkpt>
      <trkpt lat="55.731672" lon="36.830135"><ele>139</ele></trkpt>
      <trkpt lat="55.731611" lon="36.829963"><ele>139</ele></trkpt>
      <trkpt lat="55.73157" lon="36.829778"><ele>139</ele></trkpt>
      <trkpt lat="55.731545" lon="36.829591"><ele>137</ele></trkpt>
      <trkpt lat="55.731498" lon="36.829275"><ele>137</ele></trkpt>
      <trkpt lat="55.731446" lon="36.829125"><ele>136</ele></trkpt>
      <trkpt lat="55.731414" lon="36.828946"><ele>136</ele></trkpt>
      <trkpt lat="55.731381" lon="36.82861"><ele>138</ele></trkpt>
      <trkpt lat="55.73134" lon="36.828441"><ele>136</ele></trkpt>
      <trkpt lat="55.731282" lon="36.828246"><ele>136</ele></trkpt>
      <trkpt lat="55.731227" lon="36.82809"><ele>137</ele></trkpt>
      <trkpt lat="55.731134" lon="36.827855"><ele>137</ele></trkpt>
      <trkpt lat="55.731056" lon="36.827636"><ele>135</ele></trkpt>
      <trkpt lat="55.731" lon="36.827484"><ele>135</ele></trkpt>
      <trkpt lat="55.730993" lon="36.827302"><ele>133</ele></trkpt>
      <trkpt lat="55.730938" lon="36.827158"><ele>132</ele></trkpt>
      <trkpt lat="55.730891" lon="36.827015"><ele>131</ele></trkpt>
      <trkpt lat="55.730849" lon="36.826857"><ele>129</ele></trkpt>
      <trkpt lat="55.73079" lon="36.826711"><ele>129</ele></trkpt>
      <trkpt lat="55.730742" lon="36.82655"><ele>132</ele></trkpt>
      <trkpt lat="55.730689" lon="36.826414"><ele>132</ele></trkpt>
      <trkpt lat="55.730636" lon="36.826245"><ele>132</ele></trkpt>
      <trkpt lat="55.730593" lon="36.826086"><ele>134</ele></trkpt>
      <trkpt lat="55.730544" lon="36.825909"><ele>132</ele></trkpt>
      <trkpt lat="55.730486" lon="36.82573"><ele>132</ele></trkpt>
      <trkpt lat="55.730436" lon="36.825577"><ele>132</ele></trkpt>
      <trkpt lat="55.730373" lon="36.825405"><ele>132</ele></trkpt>
      <trkpt lat="55.730317" lon="36.825258"><ele>132</ele></trkpt>
      <trkpt lat="55.730238" lon="36.825097"><ele>132</ele></trkpt>
      <trkpt lat="55.730179" lon="36.824925"><ele>132</ele></trkpt>
      <trkpt lat="55.730133" lon="36.824769"><ele>132</ele></trkpt>
      <trkpt lat="55.730062" lon="36.824624"><ele>132</ele></trkpt>
      <trkpt lat="55.730022" lon="36.824475"><ele>132</ele></trkpt>
      <trkpt lat="55.729979" lon="36.824315"><ele>131</ele></trkpt>
      <trkpt lat="55.729932" lon="36.824167"><ele>132</ele></trkpt>
      <trkpt lat="55.729882" lon="36.824004"><ele>132</ele></trkpt>
      <trkpt lat="55.729837" lon="36.823854"><ele>132</ele></trkpt>
      <trkpt lat="55.72978" lon="36.823697"><ele>132</ele></trkpt>
      <trkpt lat="55.729714" lon="36.823542"><ele>132</ele></trkpt>
      <trkpt lat="55.729654" lon="36.823378"><ele>130</ele></trkpt>
      <trkpt lat="55.729596" lon="36.823222"><ele>130</ele></trkpt>
      <trkpt lat="55.729548" lon="36.823069"><ele>132</ele></trkpt>
      <trkpt lat="55.729482" lon="36.822925"><ele>132</ele></trkpt>
      <trkpt lat="55.729449" lon="36.822845"><ele>132</ele></trkpt>
      <trkpt lat="55.729397" lon="36.82269"><ele>132</ele></trkpt>
      <trkpt lat="55.729357" lon="36.822579"><ele>131</ele></trkpt>
      <trkpt lat="55.729301" lon="36.822435"><ele>131</ele></trkpt>
      <trkpt lat="55.72923" lon="36.822299"><ele>131</ele></trkpt>
      <trkpt lat="55.729169" lon="36.822153"><ele>131</ele></trkpt>
      <trkpt lat="55.729097" lon="36.82201"><ele>129</ele></trkpt>
      <trkpt lat="55.729043" lon="36.821866"><ele>128</ele></trkpt>
      <trkpt lat="55.728979" lon="36.821732"><ele>128</ele></trkpt>
      <trkpt lat="55.728916" lon="36.821599"><ele>128</ele></trkpt>
      <trkpt lat="55.728856" lon="36.821442"><ele>130</ele></trkpt>
      <trkpt lat="55.728793" lon="36.821319"><ele>132</ele></trkpt>
      <trkpt lat="55.728692" lon="36.821129"><ele>132</ele></trkpt>
      <trkpt lat="55.728617" lon="36.821006"><ele>134</ele></trkpt>
      <trkpt lat="55.728552" lon="36.82088"><ele>134</ele></trkpt>
      <trkpt lat="55.728463" lon="36.820749"><ele>134</ele></trkpt>
      <trkpt lat="55.728424" lon="36.820575"><ele>134</ele></trkpt>
      <trkpt lat="55.728402" lon="36.820408"><ele>134</ele></trkpt>
      <trkpt lat="55.728317" lon="36.820319"><ele>134</ele></trkpt>
      <trkpt lat="55.728253" lon="36.820186"><ele>132</ele></trkpt>
      <trkpt lat="55.728193" lon="36.82004"><ele>132</ele></trkpt>
      <trkpt lat="55.728133" lon="36.819884"><ele>132</ele></trkpt>
      <trkpt lat="55.728064" lon="36.819749"><ele>132</ele></trkpt>
      <trkpt lat="55.728021" lon="36.819573"><ele>132</ele></trkpt>
      <trkpt lat="55.727983" lon="36.819347"><ele>132</ele></trkpt>
      <trkpt lat="55.728093" lon="36.819192"><ele>134</ele></trkpt>
      <trkpt lat="55.728157" lon="36.819067"><ele>137</ele></trkpt>
      <trkpt lat="55.728245" lon="36.818966"><ele>140</ele></trkpt>
      <trkpt lat="55.728324" lon="36.818878"><ele>143</ele></trkpt>
      <trkpt lat="55.728411" lon="36.818601"><ele>147</ele></trkpt>
      <trkpt lat="55.728381" lon="36.818401"><ele>147</ele></trkpt>
      <trkpt lat="55.728462" lon="36.818187"><ele>149</ele></trkpt>
      <trkpt lat="55.728471" lon="36.818025"><ele>151</ele></trkpt>
      <trkpt lat="55.728449" lon="36.817745"><ele>153</ele></trkpt>
      <trkpt lat="55.728475" lon="36.817556"><ele>154</ele></trkpt>
      <trkpt lat="55.728547" lon="36.81739"><ele>156</ele></trkpt>
      <trkpt lat="55.728592" lon="36.817021"><ele>159</ele></trkpt>
      <trkpt lat="55.728483" lon="36.817171"><ele>157</ele></trkpt>
      <trkpt lat="55.728396" lon="36.817285"><ele>157</ele></trkpt>
      <trkpt lat="55.728283" lon="36.817397"><ele>156</ele></trkpt>
      <trkpt lat="55.728188" lon="36.817402"><ele>156</ele></trkpt>
      <trkpt lat="55.728096" lon="36.817389"><ele>155</ele></trkpt>
      <trkpt lat="55.72797" lon="36.817427"><ele>155</ele></trkpt>
      <trkpt lat="55.72786" lon="36.817428"><ele>154</ele></trkpt>
      <trkpt lat="55.727741" lon="36.817126"><ele>154</ele></trkpt>
      <trkpt lat="55.727518" lon="36.81684"><ele>154</ele></trkpt>
      <trkpt lat="55.727371" lon="36.816702"><ele>152</ele></trkpt>
      <trkpt lat="55.727178" lon="36.816766"><ele>151</ele></trkpt>
      <trkpt lat="55.727487" lon="36.816554"><ele>151</ele></trkpt>
      <trkpt lat="55.727355" lon="36.816237"><ele>151</ele></trkpt>
      <trkpt lat="55.727261" lon="36.81606"><ele>150</ele></trkpt>
      <trkpt lat="55.727754" lon="36.815963"><ele>149</ele></trkpt>
      <trkpt lat="55.729525" lon="36.814948"><ele>161</ele></trkpt>
    </trkseg>
  </trk>
</gpx>
