<?xml version="1.0" encoding="UTF-8" standalone="no" ?>
<gpx xmlns="http://www.topografix.com/GPX/1/1" creator="http://nakarte.me" xmlns:xsi="http://www.w3.org/2001/XMLSchema-instance" xsi:schemaLocation="http://www.topografix.com/GPX/1/1 http://www.topografix.com/GPX/1/1/gpx.xsd" version="1.1">
	<metadata>
		<time>2025-09-10T12:18:26.766Z</time>
	</metadata>
	<wpt lat="43.589053" lon="40.376861">
		<name>Перевал Рябчикова</name>
	</wpt>
	<trk>
		<name>22. Тропа Дорога Турья</name>
		<trkseg>
			<trkpt lat="43.591607" lon="40.359931"><time>1970-01-01T00:00:01.000Z</time></trkpt>
			<trkpt lat="43.591478" lon="40.360510"><time>1970-01-01T00:00:01.000Z</time></trkpt>
			<trkpt lat="43.591285" lon="40.360940"><time>1970-01-01T00:00:01.000Z</time></trkpt>
			<trkpt lat="43.591156" lon="40.361068"><time>1970-01-01T00:00:01.000Z</time></trkpt>
			<trkpt lat="43.590834" lon="40.361197"><time>1970-01-01T00:00:01.000Z</time></trkpt>
			<trkpt lat="43.590727" lon="40.361347"><time>1970-01-01T00:00:01.000Z</time></trkpt>
			<trkpt lat="43.590577" lon="40.361433"><time>1970-01-01T00:00:01.000Z</time></trkpt>
			<trkpt lat="43.590255" lon="40.361369"><time>1970-01-01T00:00:01.000Z</time></trkpt>
			<trkpt lat="43.589955" lon="40.361390"><time>1970-01-01T00:00:01.000Z</time></trkpt>
			<trkpt lat="43.589697" lon="40.361455"><time>1970-01-01T00:00:01.000Z</time></trkpt>
			<trkpt lat="43.589440" lon="40.361669"><time>1970-01-01T00:00:01.000Z</time></trkpt>
			<trkpt lat="43.588646" lon="40.362077"><time>1970-01-01T00:00:01.000Z</time></trkpt>
			<trkpt lat="43.588281" lon="40.362098"><time>1970-01-01T00:00:01.000Z</time></trkpt>
			<trkpt lat="43.588131" lon="40.362012"><time>1970-01-01T00:00:01.000Z</time></trkpt>
			<trkpt lat="43.587573" lon="40.360703"><time>1970-01-01T00:00:01.000Z</time></trkpt>
			<trkpt lat="43.587487" lon="40.360575"><time>1970-01-01T00:00:01.000Z</time></trkpt>
			<trkpt lat="43.587337" lon="40.360532"><time>1970-01-01T00:00:01.000Z</time></trkpt>
			<trkpt lat="43.587229" lon="40.360575"><time>1970-01-01T00:00:01.000Z</time></trkpt>
			<trkpt lat="43.586972" lon="40.360875"><time>1970-01-01T00:00:01.000Z</time></trkpt>
			<trkpt lat="43.586800" lon="40.360961"><time>1970-01-01T00:00:01.000Z</time></trkpt>
			<trkpt lat="43.586629" lon="40.360940"><time>1970-01-01T00:00:01.000Z</time></trkpt>
			<trkpt lat="43.586543" lon="40.360854"><time>1970-01-01T00:00:01.000Z</time></trkpt>
			<trkpt lat="43.586242" lon="40.360768"><time>1970-01-01T00:00:01.000Z</time></trkpt>
			<trkpt lat="43.585942" lon="40.360897"><time>1970-01-01T00:00:01.000Z</time></trkpt>
			<trkpt lat="43.585813" lon="40.360897"><time>1970-01-01T00:00:01.000Z</time></trkpt>
			<trkpt lat="43.585685" lon="40.360832"><time>1970-01-01T00:00:01.000Z</time></trkpt>
			<trkpt lat="43.585556" lon="40.360854"><time>1970-01-01T00:00:01.000Z</time></trkpt>
			<trkpt lat="43.585448" lon="40.361004"><time>1970-01-01T00:00:01.000Z</time></trkpt>
			<trkpt lat="43.585427" lon="40.361455"><time>1970-01-01T00:00:01.000Z</time></trkpt>
			<trkpt lat="43.585148" lon="40.362570"><time>1970-01-01T00:00:01.000Z</time></trkpt>
			<trkpt lat="43.585062" lon="40.363321"><time>1970-01-01T00:00:01.000Z</time></trkpt>
			<trkpt lat="43.585084" lon="40.363686"><time>1970-01-01T00:00:01.000Z</time></trkpt>
			<trkpt lat="43.585298" lon="40.364244"><time>1970-01-01T00:00:01.000Z</time></trkpt>
			<trkpt lat="43.585448" lon="40.364459"><time>1970-01-01T00:00:01.000Z</time></trkpt>
			<trkpt lat="43.585727" lon="40.364459"><time>1970-01-01T00:00:01.000Z</time></trkpt>
			<trkpt lat="43.585921" lon="40.364501"><time>1970-01-01T00:00:01.000Z</time></trkpt>
			<trkpt lat="43.586199" lon="40.364952"><time>1970-01-01T00:00:01.000Z</time></trkpt>
			<trkpt lat="43.586500" lon="40.365145"><time>1970-01-01T00:00:01.000Z</time></trkpt>
			<trkpt lat="43.586736" lon="40.365553"><time>1970-01-01T00:00:01.000Z</time></trkpt>
			<trkpt lat="43.587036" lon="40.365918"><time>1970-01-01T00:00:01.000Z</time></trkpt>
			<trkpt lat="43.587229" lon="40.366240"><time>1970-01-01T00:00:01.000Z</time></trkpt>
			<trkpt lat="43.587294" lon="40.366476"><time>1970-01-01T00:00:01.000Z</time></trkpt>
			<trkpt lat="43.587573" lon="40.366797"><time>1970-01-01T00:00:01.000Z</time></trkpt>
			<trkpt lat="43.587723" lon="40.367141"><time>1970-01-01T00:00:01.000Z</time></trkpt>
			<trkpt lat="43.587744" lon="40.367548"><time>1970-01-01T00:00:01.000Z</time></trkpt>
			<trkpt lat="43.587852" lon="40.367913"><time>1970-01-01T00:00:01.000Z</time></trkpt>
			<trkpt lat="43.588002" lon="40.369179"><time>1970-01-01T00:00:01.000Z</time></trkpt>
			<trkpt lat="43.588324" lon="40.369887"><time>1970-01-01T00:00:01.000Z</time></trkpt>
			<trkpt lat="43.588281" lon="40.370080"><time>1970-01-01T00:00:01.000Z</time></trkpt>
			<trkpt lat="43.588152" lon="40.370231"><time>1970-01-01T00:00:01.000Z</time></trkpt>
			<trkpt lat="43.588002" lon="40.370274"><time>1970-01-01T00:00:01.000Z</time></trkpt>
			<trkpt lat="43.587895" lon="40.370209"><time>1970-01-01T00:00:01.000Z</time></trkpt>
			<trkpt lat="43.587830" lon="40.370295"><time>1970-01-01T00:00:01.000Z</time></trkpt>
			<trkpt lat="43.587787" lon="40.370617"><time>1970-01-01T00:00:01.000Z</time></trkpt>
			<trkpt lat="43.587702" lon="40.370810"><time>1970-01-01T00:00:01.000Z</time></trkpt>
			<trkpt lat="43.587616" lon="40.370810"><time>1970-01-01T00:00:01.000Z</time></trkpt>
			<trkpt lat="43.587444" lon="40.370703"><time>1970-01-01T00:00:01.000Z</time></trkpt>
			<trkpt lat="43.587337" lon="40.370724"><time>1970-01-01T00:00:01.000Z</time></trkpt>
			<trkpt lat="43.587294" lon="40.370874"><time>1970-01-01T00:00:01.000Z</time></trkpt>
			<trkpt lat="43.587337" lon="40.371325"><time>1970-01-01T00:00:01.000Z</time></trkpt>
			<trkpt lat="43.587294" lon="40.372119"><time>1970-01-01T00:00:01.000Z</time></trkpt>
			<trkpt lat="43.587208" lon="40.372376"><time>1970-01-01T00:00:01.000Z</time></trkpt>
			<trkpt lat="43.587251" lon="40.372570"><time>1970-01-01T00:00:01.000Z</time></trkpt>
			<trkpt lat="43.587337" lon="40.372741"><time>1970-01-01T00:00:01.000Z</time></trkpt>
			<trkpt lat="43.587551" lon="40.372891"><time>1970-01-01T00:00:01.000Z</time></trkpt>
			<trkpt lat="43.587659" lon="40.373106"><time>1970-01-01T00:00:01.000Z</time></trkpt>
			<trkpt lat="43.587723" lon="40.373664"><time>1970-01-01T00:00:01.000Z</time></trkpt>
			<trkpt lat="43.587895" lon="40.374007"><time>1970-01-01T00:00:01.000Z</time></trkpt>
			<trkpt lat="43.587852" lon="40.374544"><time>1970-01-01T00:00:01.000Z</time></trkpt>
			<trkpt lat="43.588131" lon="40.374930"><time>1970-01-01T00:00:01.000Z</time></trkpt>
			<trkpt lat="43.588238" lon="40.375145"><time>1970-01-01T00:00:01.000Z</time></trkpt>
			<trkpt lat="43.588302" lon="40.375531"><time>1970-01-01T00:00:01.000Z</time></trkpt>
			<trkpt lat="43.588732" lon="40.376625"><time>1970-01-01T00:00:01.000Z</time></trkpt>
			<trkpt lat="43.588796" lon="40.376861"><time>1970-01-01T00:00:01.000Z</time></trkpt>
			<trkpt lat="43.588796" lon="40.377998"><time>1970-01-01T00:00:01.000Z</time></trkpt>
			<trkpt lat="43.588882" lon="40.378513"><time>1970-01-01T00:00:01.000Z</time></trkpt>
			<trkpt lat="43.588839" lon="40.378814"><time>1970-01-01T00:00:01.000Z</time></trkpt>
			<trkpt lat="43.588774" lon="40.379028"><time>1970-01-01T00:00:01.000Z</time></trkpt>
			<trkpt lat="43.588581" lon="40.379179"><time>1970-01-01T00:00:01.000Z</time></trkpt>
			<trkpt lat="43.588410" lon="40.379436"><time>1970-01-01T00:00:01.000Z</time></trkpt>
			<trkpt lat="43.588259" lon="40.379908"><time>1970-01-01T00:00:01.000Z</time></trkpt>
			<trkpt lat="43.588066" lon="40.380809"><time>1970-01-01T00:00:01.000Z</time></trkpt>
			<trkpt lat="43.587980" lon="40.381453"><time>1970-01-01T00:00:01.000Z</time></trkpt>
			<trkpt lat="43.587830" lon="40.381839"><time>1970-01-01T00:00:01.000Z</time></trkpt>
			<trkpt lat="43.587744" lon="40.382204"><time>1970-01-01T00:00:01.000Z</time></trkpt>
			<trkpt lat="43.587744" lon="40.383470"><time>1970-01-01T00:00:01.000Z</time></trkpt>
			<trkpt lat="43.587616" lon="40.383770"><time>1970-01-01T00:00:01.000Z</time></trkpt>
			<trkpt lat="43.587508" lon="40.384243"><time>1970-01-01T00:00:01.000Z</time></trkpt>
			<trkpt lat="43.587380" lon="40.384436"><time>1970-01-01T00:00:01.000Z</time></trkpt>
			<trkpt lat="43.587208" lon="40.385273"><time>1970-01-01T00:00:01.000Z</time></trkpt>
			<trkpt lat="43.587101" lon="40.385551"><time>1970-01-01T00:00:01.000Z</time></trkpt>
			<trkpt lat="43.586886" lon="40.385852"><time>1970-01-01T00:00:01.000Z</time></trkpt>
			<trkpt lat="43.586736" lon="40.385938"><time>1970-01-01T00:00:01.000Z</time></trkpt>
			<trkpt lat="43.586478" lon="40.386260"><time>1970-01-01T00:00:01.000Z</time></trkpt>
			<trkpt lat="43.586393" lon="40.386517"><time>1970-01-01T00:00:01.000Z</time></trkpt>
			<trkpt lat="43.586071" lon="40.386925"><time>1970-01-01T00:00:01.000Z</time></trkpt>
			<trkpt lat="43.585878" lon="40.387032"><time>1970-01-01T00:00:01.000Z</time></trkpt>
			<trkpt lat="43.585727" lon="40.387182"><time>1970-01-01T00:00:01.000Z</time></trkpt>
			<trkpt lat="43.585470" lon="40.387290"><time>1970-01-01T00:00:01.000Z</time></trkpt>
			<trkpt lat="43.585084" lon="40.387547"><time>1970-01-01T00:00:01.000Z</time></trkpt>
			<trkpt lat="43.584762" lon="40.387955"><time>1970-01-01T00:00:01.000Z</time></trkpt>
			<trkpt lat="43.584612" lon="40.388019"><time>1970-01-01T00:00:01.000Z</time></trkpt>
			<trkpt lat="43.584461" lon="40.388019"><time>1970-01-01T00:00:01.000Z</time></trkpt>
			<trkpt lat="43.584247" lon="40.387933"><time>1970-01-01T00:00:01.000Z</time></trkpt>
			<trkpt lat="43.583989" lon="40.387611"><time>1970-01-01T00:00:01.000Z</time></trkpt>
			<trkpt lat="43.583753" lon="40.387461"><time>1970-01-01T00:00:01.000Z</time></trkpt>
			<trkpt lat="43.583603" lon="40.387526"><time>1970-01-01T00:00:01.000Z</time></trkpt>
			<trkpt lat="43.583453" lon="40.387740"><time>1970-01-01T00:00:01.000Z</time></trkpt>
			<trkpt lat="43.583324" lon="40.387826"><time>1970-01-01T00:00:01.000Z</time></trkpt>
			<trkpt lat="43.583024" lon="40.388126"><time>1970-01-01T00:00:01.000Z</time></trkpt>
			<trkpt lat="43.582959" lon="40.388749"><time>1970-01-01T00:00:01.000Z</time></trkpt>
			<trkpt lat="43.582831" lon="40.389156"><time>1970-01-01T00:00:01.000Z</time></trkpt>
			<trkpt lat="43.582144" lon="40.390337"><time>1970-01-01T00:00:01.000Z</time></trkpt>
			<trkpt lat="43.581135" lon="40.391796"><time>1970-01-01T00:00:01.000Z</time></trkpt>
			<trkpt lat="43.581007" lon="40.392053"><time>1970-01-01T00:00:01.000Z</time></trkpt>
			<trkpt lat="43.580427" lon="40.392718"><time>1970-01-01T00:00:01.000Z</time></trkpt>
			<trkpt lat="43.579827" lon="40.393641"><time>1970-01-01T00:00:01.000Z</time></trkpt>
			<trkpt lat="43.579676" lon="40.394092"><time>1970-01-01T00:00:01.000Z</time></trkpt>
			<trkpt lat="43.579526" lon="40.394800"><time>1970-01-01T00:00:01.000Z</time></trkpt>
			<trkpt lat="43.579247" lon="40.395250"><time>1970-01-01T00:00:01.000Z</time></trkpt>
			<trkpt lat="43.579054" lon="40.395443"><time>1970-01-01T00:00:01.000Z</time></trkpt>
			<trkpt lat="43.578539" lon="40.395722"><time>1970-01-01T00:00:01.000Z</time></trkpt>
			<trkpt lat="43.578067" lon="40.395830"><time>1970-01-01T00:00:01.000Z</time></trkpt>
			<trkpt lat="43.577938" lon="40.395894"><time>1970-01-01T00:00:01.000Z</time></trkpt>
			<trkpt lat="43.577488" lon="40.396409"><time>1970-01-01T00:00:01.000Z</time></trkpt>
			<trkpt lat="43.577402" lon="40.396860"><time>1970-01-01T00:00:01.000Z</time></trkpt>
			<trkpt lat="43.577488" lon="40.397890"><time>1970-01-01T00:00:01.000Z</time></trkpt>
			<trkpt lat="43.577466" lon="40.398984"><time>1970-01-01T00:00:01.000Z</time></trkpt>
			<trkpt lat="43.577252" lon="40.399692"><time>1970-01-01T00:00:01.000Z</time></trkpt>
			<trkpt lat="43.577080" lon="40.400507"><time>1970-01-01T00:00:01.000Z</time></trkpt>
			<trkpt lat="43.576865" lon="40.400937"><time>1970-01-01T00:00:01.000Z</time></trkpt>
		</trkseg>
	</trk>
</gpx>