<?xml version="1.0" encoding="UTF-8" standalone="no" ?>
<gpx xmlns="http://www.topografix.com/GPX/1/1" creator="http://nakarte.me" xmlns:xsi="http://www.w3.org/2001/XMLSchema-instance" xsi:schemaLocation="http://www.topografix.com/GPX/1/1 http://www.topografix.com/GPX/1/1/gpx.xsd" version="1.1">
	<trk>
		<name>New track</name>
		<trkseg>
			<trkpt lat="44.488795" lon="34.095964"><time>1970-01-01T00:00:01.000Z</time></trkpt>
			<trkpt lat="44.488774" lon="34.095857"><time>1970-01-01T00:00:01.000Z</time></trkpt>
			<trkpt lat="44.488645" lon="34.095621"><time>1970-01-01T00:00:01.000Z</time></trkpt>
			<trkpt lat="44.488580" lon="34.095149"><time>1970-01-01T00:00:01.000Z</time></trkpt>
			<trkpt lat="44.488409" lon="34.094784"><time>1970-01-01T00:00:01.000Z</time></trkpt>
			<trkpt lat="44.488366" lon="34.094612"><time>1970-01-01T00:00:01.000Z</time></trkpt>
			<trkpt lat="44.488409" lon="34.094226"><time>1970-01-01T00:00:01.000Z</time></trkpt>
			<trkpt lat="44.488409" lon="34.094269"><time>1970-01-01T00:00:01.000Z</time></trkpt>
			<trkpt lat="44.488602" lon="34.093754"><time>1970-01-01T00:00:01.000Z</time></trkpt>
			<trkpt lat="44.488538" lon="34.093411"><time>1970-01-01T00:00:01.000Z</time></trkpt>
			<trkpt lat="44.488559" lon="34.092939"><time>1970-01-01T00:00:01.000Z</time></trkpt>
			<trkpt lat="44.488430" lon="34.092724"><time>1970-01-01T00:00:01.000Z</time></trkpt>
			<trkpt lat="44.488387" lon="34.092316"><time>1970-01-01T00:00:01.000Z</time></trkpt>
			<trkpt lat="44.488430" lon="34.092230"><time>1970-01-01T00:00:01.000Z</time></trkpt>
			<trkpt lat="44.488516" lon="34.092188"><time>1970-01-01T00:00:01.000Z</time></trkpt>
			<trkpt lat="44.488623" lon="34.092037"><time>1970-01-01T00:00:01.000Z</time></trkpt>
			<trkpt lat="44.488709" lon="34.092037"><time>1970-01-01T00:00:01.000Z</time></trkpt>
			<trkpt lat="44.488881" lon="34.092252"><time>1970-01-01T00:00:01.000Z</time></trkpt>
			<trkpt lat="44.488924" lon="34.092424"><time>1970-01-01T00:00:01.000Z</time></trkpt>
			<trkpt lat="44.489160" lon="34.092745"><time>1970-01-01T00:00:01.000Z</time></trkpt>
			<trkpt lat="44.489267" lon="34.093153"><time>1970-01-01T00:00:01.000Z</time></trkpt>
			<trkpt lat="44.489374" lon="34.093239"><time>1970-01-01T00:00:01.000Z</time></trkpt>
			<trkpt lat="44.489439" lon="34.092960"><time>1970-01-01T00:00:01.000Z</time></trkpt>
			<trkpt lat="44.489846" lon="34.092960"><time>1970-01-01T00:00:01.000Z</time></trkpt>
			<trkpt lat="44.489911" lon="34.093067"><time>1970-01-01T00:00:01.000Z</time></trkpt>
			<trkpt lat="44.490233" lon="34.093196"><time>1970-01-01T00:00:01.000Z</time></trkpt>
			<trkpt lat="44.490383" lon="34.092853"><time>1970-01-01T00:00:01.000Z</time></trkpt>
			<trkpt lat="44.490469" lon="34.092810"><time>1970-01-01T00:00:01.000Z</time></trkpt>
			<trkpt lat="44.490619" lon="34.093046"><time>1970-01-01T00:00:01.000Z</time></trkpt>
			<trkpt lat="44.490426" lon="34.093325"><time>1970-01-01T00:00:01.000Z</time></trkpt>
			<trkpt lat="44.490555" lon="34.093368"><time>1970-01-01T00:00:01.000Z</time></trkpt>
			<trkpt lat="44.490640" lon="34.093303"><time>1970-01-01T00:00:01.000Z</time></trkpt>
			<trkpt lat="44.490726" lon="34.093368"><time>1970-01-01T00:00:01.000Z</time></trkpt>
			<trkpt lat="44.490662" lon="34.093582"><time>1970-01-01T00:00:01.000Z</time></trkpt>
			<trkpt lat="44.490683" lon="34.093775"><time>1970-01-01T00:00:01.000Z</time></trkpt>
			<trkpt lat="44.490769" lon="34.093732"><time>1970-01-01T00:00:01.000Z</time></trkpt>
			<trkpt lat="44.490791" lon="34.093926"><time>1970-01-01T00:00:01.000Z</time></trkpt>
			<trkpt lat="44.491112" lon="34.093432"><time>1970-01-01T00:00:01.000Z</time></trkpt>
			<trkpt lat="44.491327" lon="34.093303"><time>1970-01-01T00:00:01.000Z</time></trkpt>
			<trkpt lat="44.491563" lon="34.093303"><time>1970-01-01T00:00:01.000Z</time></trkpt>
			<trkpt lat="44.491692" lon="34.093196"><time>1970-01-01T00:00:01.000Z</time></trkpt>
			<trkpt lat="44.491649" lon="34.092939"><time>1970-01-01T00:00:01.000Z</time></trkpt>
			<trkpt lat="44.491735" lon="34.092896"><time>1970-01-01T00:00:01.000Z</time></trkpt>
			<trkpt lat="44.491821" lon="34.093067"><time>1970-01-01T00:00:01.000Z</time></trkpt>
			<trkpt lat="44.491992" lon="34.093196"><time>1970-01-01T00:00:01.000Z</time></trkpt>
			<trkpt lat="44.492100" lon="34.093067"><time>1970-01-01T00:00:01.000Z</time></trkpt>
			<trkpt lat="44.492293" lon="34.093132"><time>1970-01-01T00:00:01.000Z</time></trkpt>
			<trkpt lat="44.492550" lon="34.092831"><time>1970-01-01T00:00:01.000Z</time></trkpt>
			<trkpt lat="44.492786" lon="34.092660"><time>1970-01-01T00:00:01.000Z</time></trkpt>
			<trkpt lat="44.492872" lon="34.092767"><time>1970-01-01T00:00:01.000Z</time></trkpt>
			<trkpt lat="44.492700" lon="34.093303"><time>1970-01-01T00:00:01.000Z</time></trkpt>
			<trkpt lat="44.492572" lon="34.093539"><time>1970-01-01T00:00:01.000Z</time></trkpt>
			<trkpt lat="44.492572" lon="34.093797"><time>1970-01-01T00:00:01.000Z</time></trkpt>
			<trkpt lat="44.492464" lon="34.094054"><time>1970-01-01T00:00:01.000Z</time></trkpt>
			<trkpt lat="44.492615" lon="34.094247"><time>1970-01-01T00:00:01.000Z</time></trkpt>
			<trkpt lat="44.492529" lon="34.094355"><time>1970-01-01T00:00:01.000Z</time></trkpt>
			<trkpt lat="44.492507" lon="34.094526"><time>1970-01-01T00:00:01.000Z</time></trkpt>
			<trkpt lat="44.492593" lon="34.094634"><time>1970-01-01T00:00:01.000Z</time></trkpt>
			<trkpt lat="44.492786" lon="34.094677"><time>1970-01-01T00:00:01.000Z</time></trkpt>
			<trkpt lat="44.492893" lon="34.095149"><time>1970-01-01T00:00:01.000Z</time></trkpt>
			<trkpt lat="44.492893" lon="34.095299"><time>1970-01-01T00:00:01.000Z</time></trkpt>
			<trkpt lat="44.493130" lon="34.095685"><time>1970-01-01T00:00:01.000Z</time></trkpt>
			<trkpt lat="44.493087" lon="34.095792"><time>1970-01-01T00:00:01.000Z</time></trkpt>
			<trkpt lat="44.493130" lon="34.096093"><time>1970-01-01T00:00:01.000Z</time></trkpt>
			<trkpt lat="44.493237" lon="34.096286"><time>1970-01-01T00:00:01.000Z</time></trkpt>
			<trkpt lat="44.493344" lon="34.096865"><time>1970-01-01T00:00:01.000Z</time></trkpt>
			<trkpt lat="44.493537" lon="34.097316"><time>1970-01-01T00:00:01.000Z</time></trkpt>
			<trkpt lat="44.493623" lon="34.097209"><time>1970-01-01T00:00:01.000Z</time></trkpt>
			<trkpt lat="44.493623" lon="34.097402"><time>1970-01-01T00:00:01.000Z</time></trkpt>
			<trkpt lat="44.493709" lon="34.097337"><time>1970-01-01T00:00:01.000Z</time></trkpt>
			<trkpt lat="44.493795" lon="34.097509"><time>1970-01-01T00:00:01.000Z</time></trkpt>
			<trkpt lat="44.493923" lon="34.097595"><time>1970-01-01T00:00:01.000Z</time></trkpt>
			<trkpt lat="44.494031" lon="34.097488"><time>1970-01-01T00:00:01.000Z</time></trkpt>
			<trkpt lat="44.494138" lon="34.097509"><time>1970-01-01T00:00:01.000Z</time></trkpt>
			<trkpt lat="44.494181" lon="34.097809"><time>1970-01-01T00:00:01.000Z</time></trkpt>
			<trkpt lat="44.494310" lon="34.097960"><time>1970-01-01T00:00:01.000Z</time></trkpt>
			<trkpt lat="44.494417" lon="34.097874"><time>1970-01-01T00:00:01.000Z</time></trkpt>
			<trkpt lat="44.494481" lon="34.097917"><time>1970-01-01T00:00:01.000Z</time></trkpt>
			<trkpt lat="44.494417" lon="34.098131"><time>1970-01-01T00:00:01.000Z</time></trkpt>
			<trkpt lat="44.494481" lon="34.098217"><time>1970-01-01T00:00:01.000Z</time></trkpt>
			<trkpt lat="44.494610" lon="34.098282"><time>1970-01-01T00:00:01.000Z</time></trkpt>
			<trkpt lat="44.494696" lon="34.098582"><time>1970-01-01T00:00:01.000Z</time></trkpt>
			<trkpt lat="44.494782" lon="34.098754"><time>1970-01-01T00:00:01.000Z</time></trkpt>
			<trkpt lat="44.494911" lon="34.098732"><time>1970-01-01T00:00:01.000Z</time></trkpt>
			<trkpt lat="44.494932" lon="34.098668"><time>1970-01-01T00:00:01.000Z</time></trkpt>
			<trkpt lat="44.494996" lon="34.098754"><time>1970-01-01T00:00:01.000Z</time></trkpt>
			<trkpt lat="44.495061" lon="34.098711"><time>1970-01-01T00:00:01.000Z</time></trkpt>
			<trkpt lat="44.495297" lon="34.098732"><time>1970-01-01T00:00:01.000Z</time></trkpt>
			<trkpt lat="44.495383" lon="34.098775"><time>1970-01-01T00:00:01.000Z</time></trkpt>
			<trkpt lat="44.495533" lon="34.098711"><time>1970-01-01T00:00:01.000Z</time></trkpt>
			<trkpt lat="44.495533" lon="34.098582"><time>1970-01-01T00:00:01.000Z</time></trkpt>
			<trkpt lat="44.495340" lon="34.098496"><time>1970-01-01T00:00:01.000Z</time></trkpt>
			<trkpt lat="44.495404" lon="34.098389"><time>1970-01-01T00:00:01.000Z</time></trkpt>
			<trkpt lat="44.495318" lon="34.098174"><time>1970-01-01T00:00:01.000Z</time></trkpt>
			<trkpt lat="44.495211" lon="34.098131"><time>1970-01-01T00:00:01.000Z</time></trkpt>
			<trkpt lat="44.495104" lon="34.097917"><time>1970-01-01T00:00:01.000Z</time></trkpt>
			<trkpt lat="44.495104" lon="34.097809"><time>1970-01-01T00:00:01.000Z</time></trkpt>
			<trkpt lat="44.495189" lon="34.097852"><time>1970-01-01T00:00:01.000Z</time></trkpt>
			<trkpt lat="44.495254" lon="34.097767"><time>1970-01-01T00:00:01.000Z</time></trkpt>
			<trkpt lat="44.495361" lon="34.097809"><time>1970-01-01T00:00:01.000Z</time></trkpt>
			<trkpt lat="44.495340" lon="34.097681"><time>1970-01-01T00:00:01.000Z</time></trkpt>
			<trkpt lat="44.495383" lon="34.097638"><time>1970-01-01T00:00:01.000Z</time></trkpt>
			<trkpt lat="44.495511" lon="34.097702"><time>1970-01-01T00:00:01.000Z</time></trkpt>
			<trkpt lat="44.495597" lon="34.097831"><time>1970-01-01T00:00:01.000Z</time></trkpt>
			<trkpt lat="44.495704" lon="34.097788"><time>1970-01-01T00:00:01.000Z</time></trkpt>
			<trkpt lat="44.495747" lon="34.097809"><time>1970-01-01T00:00:01.000Z</time></trkpt>
			<trkpt lat="44.495833" lon="34.098088"><time>1970-01-01T00:00:01.000Z</time></trkpt>
			<trkpt lat="44.495940" lon="34.098217"><time>1970-01-01T00:00:01.000Z</time></trkpt>
			<trkpt lat="44.496005" lon="34.098217"><time>1970-01-01T00:00:01.000Z</time></trkpt>
			<trkpt lat="44.495940" lon="34.098067"><time>1970-01-01T00:00:01.000Z</time></trkpt>
			<trkpt lat="44.496026" lon="34.097981"><time>1970-01-01T00:00:01.000Z</time></trkpt>
			<trkpt lat="44.496112" lon="34.097981"><time>1970-01-01T00:00:01.000Z</time></trkpt>
			<trkpt lat="44.496413" lon="34.098088"><time>1970-01-01T00:00:01.000Z</time></trkpt>
			<trkpt lat="44.496348" lon="34.098196"><time>1970-01-01T00:00:01.000Z</time></trkpt>
			<trkpt lat="44.496327" lon="34.098324"><time>1970-01-01T00:00:01.000Z</time></trkpt>
			<trkpt lat="44.496391" lon="34.098432"><time>1970-01-01T00:00:01.000Z</time></trkpt>
			<trkpt lat="44.496477" lon="34.098475"><time>1970-01-01T00:00:01.000Z</time></trkpt>
			<trkpt lat="44.496563" lon="34.098432"><time>1970-01-01T00:00:01.000Z</time></trkpt>
			<trkpt lat="44.496670" lon="34.098646"><time>1970-01-01T00:00:01.000Z</time></trkpt>
			<trkpt lat="44.496756" lon="34.098625"><time>1970-01-01T00:00:01.000Z</time></trkpt>
			<trkpt lat="44.496842" lon="34.098711"><time>1970-01-01T00:00:01.000Z</time></trkpt>
			<trkpt lat="44.496992" lon="34.098689"><time>1970-01-01T00:00:01.000Z</time></trkpt>
			<trkpt lat="44.497142" lon="34.098775"><time>1970-01-01T00:00:01.000Z</time></trkpt>
			<trkpt lat="44.497314" lon="34.099011"><time>1970-01-01T00:00:01.000Z</time></trkpt>
			<trkpt lat="44.497335" lon="34.099183"><time>1970-01-01T00:00:01.000Z</time></trkpt>
			<trkpt lat="44.497485" lon="34.099204"><time>1970-01-01T00:00:01.000Z</time></trkpt>
			<trkpt lat="44.497571" lon="34.099397"><time>1970-01-01T00:00:01.000Z</time></trkpt>
			<trkpt lat="44.497485" lon="34.099483"><time>1970-01-01T00:00:01.000Z</time></trkpt>
			<trkpt lat="44.497335" lon="34.099548"><time>1970-01-01T00:00:01.000Z</time></trkpt>
			<trkpt lat="44.497335" lon="34.099676"><time>1970-01-01T00:00:01.000Z</time></trkpt>
			<trkpt lat="44.497421" lon="34.099698"><time>1970-01-01T00:00:01.000Z</time></trkpt>
			<trkpt lat="44.497485" lon="34.099633"><time>1970-01-01T00:00:01.000Z</time></trkpt>
			<trkpt lat="44.497571" lon="34.099698"><time>1970-01-01T00:00:01.000Z</time></trkpt>
			<trkpt lat="44.497464" lon="34.099826"><time>1970-01-01T00:00:01.000Z</time></trkpt>
			<trkpt lat="44.497528" lon="34.099955"><time>1970-01-01T00:00:01.000Z</time></trkpt>
			<trkpt lat="44.497593" lon="34.100535"><time>1970-01-01T00:00:01.000Z</time></trkpt>
			<trkpt lat="44.497829" lon="34.100878"><time>1970-01-01T00:00:01.000Z</time></trkpt>
			<trkpt lat="44.497957" lon="34.100878"><time>1970-01-01T00:00:01.000Z</time></trkpt>
			<trkpt lat="44.498194" lon="34.101028"><time>1970-01-01T00:00:01.000Z</time></trkpt>
		</trkseg>
		<trkseg>
			<trkpt lat="44.498189" lon="34.101053"><time>1970-01-01T00:00:01.000Z</time></trkpt>
			<trkpt lat="44.498258" lon="34.101064"><time>1970-01-01T00:00:01.000Z</time></trkpt>
			<trkpt lat="44.498231" lon="34.101149"><time>1970-01-01T00:00:01.000Z</time></trkpt>
			<trkpt lat="44.498304" lon="34.101284"><time>1970-01-01T00:00:01.000Z</time></trkpt>
			<trkpt lat="44.498365" lon="34.101305"><time>1970-01-01T00:00:01.000Z</time></trkpt>
			<trkpt lat="44.498487" lon="34.101128"><time>1970-01-01T00:00:01.000Z</time></trkpt>
			<trkpt lat="44.498556" lon="34.100967"><time>1970-01-01T00:00:01.000Z</time></trkpt>
			<trkpt lat="44.498529" lon="34.100758"><time>1970-01-01T00:00:01.000Z</time></trkpt>
			<trkpt lat="44.498644" lon="34.100291"><time>1970-01-01T00:00:01.000Z</time></trkpt>
			<trkpt lat="44.498755" lon="34.100232"><time>1970-01-01T00:00:01.000Z</time></trkpt>
			<trkpt lat="44.498797" lon="34.100296"><time>1970-01-01T00:00:01.000Z</time></trkpt>
			<trkpt lat="44.498778" lon="34.100431"><time>1970-01-01T00:00:01.000Z</time></trkpt>
		</trkseg>
		<trkseg>
			<trkpt lat="44.498774" lon="34.100447"><time>1970-01-01T00:00:01.000Z</time></trkpt>
			<trkpt lat="44.498839" lon="34.100516"><time>1970-01-01T00:00:01.000Z</time></trkpt>
			<trkpt lat="44.498839" lon="34.100425"><time>1970-01-01T00:00:01.000Z</time></trkpt>
			<trkpt lat="44.498947" lon="34.100511"><time>1970-01-01T00:00:01.000Z</time></trkpt>
			<trkpt lat="44.498950" lon="34.100393"><time>1970-01-01T00:00:01.000Z</time></trkpt>
			<trkpt lat="44.498878" lon="34.100307"><time>1970-01-01T00:00:01.000Z</time></trkpt>
			<trkpt lat="44.498904" lon="34.100237"><time>1970-01-01T00:00:01.000Z</time></trkpt>
			<trkpt lat="44.498954" lon="34.100286"><time>1970-01-01T00:00:01.000Z</time></trkpt>
			<trkpt lat="44.498947" lon="34.100189"><time>1970-01-01T00:00:01.000Z</time></trkpt>
			<trkpt lat="44.499138" lon="34.099980"><time>1970-01-01T00:00:01.000Z</time></trkpt>
			<trkpt lat="44.499119" lon="34.099690"><time>1970-01-01T00:00:01.000Z</time></trkpt>
			<trkpt lat="44.499276" lon="34.099599"><time>1970-01-01T00:00:01.000Z</time></trkpt>
			<trkpt lat="44.499348" lon="34.099653"><time>1970-01-01T00:00:01.000Z</time></trkpt>
			<trkpt lat="44.499291" lon="34.099723"><time>1970-01-01T00:00:01.000Z</time></trkpt>
			<trkpt lat="44.499387" lon="34.099792"><time>1970-01-01T00:00:01.000Z</time></trkpt>
			<trkpt lat="44.499647" lon="34.099663"><time>1970-01-01T00:00:01.000Z</time></trkpt>
			<trkpt lat="44.499612" lon="34.099503"><time>1970-01-01T00:00:01.000Z</time></trkpt>
			<trkpt lat="44.499666" lon="34.099277"><time>1970-01-01T00:00:01.000Z</time></trkpt>
			<trkpt lat="44.499819" lon="34.099132"><time>1970-01-01T00:00:01.000Z</time></trkpt>
			<trkpt lat="44.500144" lon="34.098961"><time>1970-01-01T00:00:01.000Z</time></trkpt>
			<trkpt lat="44.500358" lon="34.098623"><time>1970-01-01T00:00:01.000Z</time></trkpt>
			<trkpt lat="44.500481" lon="34.098558"><time>1970-01-01T00:00:01.000Z</time></trkpt>
			<trkpt lat="44.500622" lon="34.098558"><time>1970-01-01T00:00:01.000Z</time></trkpt>
			<trkpt lat="44.500722" lon="34.098644"><time>1970-01-01T00:00:01.000Z</time></trkpt>
			<trkpt lat="44.500726" lon="34.098891"><time>1970-01-01T00:00:01.000Z</time></trkpt>
			<trkpt lat="44.500580" lon="34.098923"><time>1970-01-01T00:00:01.000Z</time></trkpt>
			<trkpt lat="44.500496" lon="34.099100"><time>1970-01-01T00:00:01.000Z</time></trkpt>
			<trkpt lat="44.500217" lon="34.099240"><time>1970-01-01T00:00:01.000Z</time></trkpt>
			<trkpt lat="44.500202" lon="34.099653"><time>1970-01-01T00:00:01.000Z</time></trkpt>
			<trkpt lat="44.500098" lon="34.099723"><time>1970-01-01T00:00:01.000Z</time></trkpt>
			<trkpt lat="44.500110" lon="34.099905"><time>1970-01-01T00:00:01.000Z</time></trkpt>
			<trkpt lat="44.500569" lon="34.099653"><time>1970-01-01T00:00:01.000Z</time></trkpt>
			<trkpt lat="44.500615" lon="34.099776"><time>1970-01-01T00:00:01.000Z</time></trkpt>
			<trkpt lat="44.500508" lon="34.100077"><time>1970-01-01T00:00:01.000Z</time></trkpt>
			<trkpt lat="44.500676" lon="34.099996"><time>1970-01-01T00:00:01.000Z</time></trkpt>
			<trkpt lat="44.500707" lon="34.100286"><time>1970-01-01T00:00:01.000Z</time></trkpt>
			<trkpt lat="44.500653" lon="34.100452"><time>1970-01-01T00:00:01.000Z</time></trkpt>
			<trkpt lat="44.500423" lon="34.100511"><time>1970-01-01T00:00:01.000Z</time></trkpt>
			<trkpt lat="44.500492" lon="34.100672"><time>1970-01-01T00:00:01.000Z</time></trkpt>
			<trkpt lat="44.500699" lon="34.100758"><time>1970-01-01T00:00:01.000Z</time></trkpt>
			<trkpt lat="44.500596" lon="34.100908"><time>1970-01-01T00:00:01.000Z</time></trkpt>
			<trkpt lat="44.500431" lon="34.100870"><time>1970-01-01T00:00:01.000Z</time></trkpt>
			<trkpt lat="44.500389" lon="34.100951"><time>1970-01-01T00:00:01.000Z</time></trkpt>
			<trkpt lat="44.500481" lon="34.101208"><time>1970-01-01T00:00:01.000Z</time></trkpt>
			<trkpt lat="44.500343" lon="34.101262"><time>1970-01-01T00:00:01.000Z</time></trkpt>
			<trkpt lat="44.500251" lon="34.101128"><time>1970-01-01T00:00:01.000Z</time></trkpt>
			<trkpt lat="44.500102" lon="34.101176"><time>1970-01-01T00:00:01.000Z</time></trkpt>
			<trkpt lat="44.499953" lon="34.101353"><time>1970-01-01T00:00:01.000Z</time></trkpt>
			<trkpt lat="44.499930" lon="34.101595"><time>1970-01-01T00:00:01.000Z</time></trkpt>
			<trkpt lat="44.500056" lon="34.101782"><time>1970-01-01T00:00:01.000Z</time></trkpt>
			<trkpt lat="44.500213" lon="34.101675"><time>1970-01-01T00:00:01.000Z</time></trkpt>
			<trkpt lat="44.500171" lon="34.101616"><time>1970-01-01T00:00:01.000Z</time></trkpt>
			<trkpt lat="44.500508" lon="34.101697"><time>1970-01-01T00:00:01.000Z</time></trkpt>
			<trkpt lat="44.500668" lon="34.101520"><time>1970-01-01T00:00:01.000Z</time></trkpt>
			<trkpt lat="44.500879" lon="34.101369"><time>1970-01-01T00:00:01.000Z</time></trkpt>
			<trkpt lat="44.501059" lon="34.101546"><time>1970-01-01T00:00:01.000Z</time></trkpt>
			<trkpt lat="44.500921" lon="34.101702"><time>1970-01-01T00:00:01.000Z</time></trkpt>
			<trkpt lat="44.500806" lon="34.101664"><time>1970-01-01T00:00:01.000Z</time></trkpt>
			<trkpt lat="44.500278" lon="34.101799"><time>1970-01-01T00:00:01.000Z</time></trkpt>
			<trkpt lat="44.500619" lon="34.101906"><time>1970-01-01T00:00:01.000Z</time></trkpt>
			<trkpt lat="44.500840" lon="34.101841"><time>1970-01-01T00:00:01.000Z</time></trkpt>
			<trkpt lat="44.501039" lon="34.102013"><time>1970-01-01T00:00:01.000Z</time></trkpt>
			<trkpt lat="44.500378" lon="34.102040"><time>1970-01-01T00:00:01.000Z</time></trkpt>
			<trkpt lat="44.500351" lon="34.102287"><time>1970-01-01T00:00:01.000Z</time></trkpt>
			<trkpt lat="44.500527" lon="34.102394"><time>1970-01-01T00:00:01.000Z</time></trkpt>
			<trkpt lat="44.500557" lon="34.102174"><time>1970-01-01T00:00:01.000Z</time></trkpt>
			<trkpt lat="44.500749" lon="34.102356"><time>1970-01-01T00:00:01.000Z</time></trkpt>
			<trkpt lat="44.500871" lon="34.102228"><time>1970-01-01T00:00:01.000Z</time></trkpt>
			<trkpt lat="44.500959" lon="34.102362"><time>1970-01-01T00:00:01.000Z</time></trkpt>
			<trkpt lat="44.501150" lon="34.102185"><time>1970-01-01T00:00:01.000Z</time></trkpt>
			<trkpt lat="44.501131" lon="34.102426"><time>1970-01-01T00:00:01.000Z</time></trkpt>
			<trkpt lat="44.501334" lon="34.102464"><time>1970-01-01T00:00:01.000Z</time></trkpt>
		</trkseg>
		<trkseg>
			<trkpt lat="44.501342" lon="34.102464"><time>1970-01-01T00:00:01.000Z</time></trkpt>
			<trkpt lat="44.501544" lon="34.102399"><time>1970-01-01T00:00:01.000Z</time></trkpt>
			<trkpt lat="44.501621" lon="34.102496"><time>1970-01-01T00:00:01.000Z</time></trkpt>
			<trkpt lat="44.501564" lon="34.102700"><time>1970-01-01T00:00:01.000Z</time></trkpt>
			<trkpt lat="44.501831" lon="34.102641"><time>1970-01-01T00:00:01.000Z</time></trkpt>
			<trkpt lat="44.501939" lon="34.102818"><time>1970-01-01T00:00:01.000Z</time></trkpt>
			<trkpt lat="44.501755" lon="34.102963"><time>1970-01-01T00:00:01.000Z</time></trkpt>
			<trkpt lat="44.501491" lon="34.102893"><time>1970-01-01T00:00:01.000Z</time></trkpt>
			<trkpt lat="44.501292" lon="34.103038"><time>1970-01-01T00:00:01.000Z</time></trkpt>
			<trkpt lat="44.501330" lon="34.103188"><time>1970-01-01T00:00:01.000Z</time></trkpt>
			<trkpt lat="44.501487" lon="34.103204"><time>1970-01-01T00:00:01.000Z</time></trkpt>
			<trkpt lat="44.501587" lon="34.103156"><time>1970-01-01T00:00:01.000Z</time></trkpt>
			<trkpt lat="44.501820" lon="34.103279"><time>1970-01-01T00:00:01.000Z</time></trkpt>
			<trkpt lat="44.501449" lon="34.103472"><time>1970-01-01T00:00:01.000Z</time></trkpt>
			<trkpt lat="44.501640" lon="34.103590"><time>1970-01-01T00:00:01.000Z</time></trkpt>
			<trkpt lat="44.501506" lon="34.103826"><time>1970-01-01T00:00:01.000Z</time></trkpt>
			<trkpt lat="44.501449" lon="34.103794"><time>1970-01-01T00:00:01.000Z</time></trkpt>
			<trkpt lat="44.501407" lon="34.103816"><time>1970-01-01T00:00:01.000Z</time></trkpt>
			<trkpt lat="44.501372" lon="34.103971"><time>1970-01-01T00:00:01.000Z</time></trkpt>
			<trkpt lat="44.501307" lon="34.104068"><time>1970-01-01T00:00:01.000Z</time></trkpt>
			<trkpt lat="44.501671" lon="34.104293"><time>1970-01-01T00:00:01.000Z</time></trkpt>
			<trkpt lat="44.501705" lon="34.104422"><time>1970-01-01T00:00:01.000Z</time></trkpt>
			<trkpt lat="44.501629" lon="34.104690"><time>1970-01-01T00:00:01.000Z</time></trkpt>
			<trkpt lat="44.501483" lon="34.104620"><time>1970-01-01T00:00:01.000Z</time></trkpt>
			<trkpt lat="44.501296" lon="34.104658"><time>1970-01-01T00:00:01.000Z</time></trkpt>
			<trkpt lat="44.501258" lon="34.104926"><time>1970-01-01T00:00:01.000Z</time></trkpt>
			<trkpt lat="44.501453" lon="34.104803"><time>1970-01-01T00:00:01.000Z</time></trkpt>
			<trkpt lat="44.501625" lon="34.105071"><time>1970-01-01T00:00:01.000Z</time></trkpt>
			<trkpt lat="44.501510" lon="34.105151"><time>1970-01-01T00:00:01.000Z</time></trkpt>
			<trkpt lat="44.501621" lon="34.105484"><time>1970-01-01T00:00:01.000Z</time></trkpt>
			<trkpt lat="44.501376" lon="34.106181"><time>1970-01-01T00:00:01.000Z</time></trkpt>
			<trkpt lat="44.501303" lon="34.106181"><time>1970-01-01T00:00:01.000Z</time></trkpt>
			<trkpt lat="44.501254" lon="34.106122"><time>1970-01-01T00:00:01.000Z</time></trkpt>
			<trkpt lat="44.501219" lon="34.105929"><time>1970-01-01T00:00:01.000Z</time></trkpt>
			<trkpt lat="44.501116" lon="34.105967"><time>1970-01-01T00:00:01.000Z</time></trkpt>
			<trkpt lat="44.501177" lon="34.106423"><time>1970-01-01T00:00:01.000Z</time></trkpt>
			<trkpt lat="44.501437" lon="34.106616"><time>1970-01-01T00:00:01.000Z</time></trkpt>
			<trkpt lat="44.501541" lon="34.106594"><time>1970-01-01T00:00:01.000Z</time></trkpt>
			<trkpt lat="44.501602" lon="34.106503"><time>1970-01-01T00:00:01.000Z</time></trkpt>
			<trkpt lat="44.501839" lon="34.106911"><time>1970-01-01T00:00:01.000Z</time></trkpt>
			<trkpt lat="44.501828" lon="34.107217"><time>1970-01-01T00:00:01.000Z</time></trkpt>
			<trkpt lat="44.501862" lon="34.107243"><time>1970-01-01T00:00:01.000Z</time></trkpt>
			<trkpt lat="44.501893" lon="34.107222"><time>1970-01-01T00:00:01.000Z</time></trkpt>
			<trkpt lat="44.501984" lon="34.107619"><time>1970-01-01T00:00:01.000Z</time></trkpt>
			<trkpt lat="44.501587" lon="34.107646"><time>1970-01-01T00:00:01.000Z</time></trkpt>
			<trkpt lat="44.501464" lon="34.107705"><time>1970-01-01T00:00:01.000Z</time></trkpt>
			<trkpt lat="44.501564" lon="34.107968"><time>1970-01-01T00:00:01.000Z</time></trkpt>
			<trkpt lat="44.501862" lon="34.108155"><time>1970-01-01T00:00:01.000Z</time></trkpt>
			<trkpt lat="44.501808" lon="34.108359"><time>1970-01-01T00:00:01.000Z</time></trkpt>
			<trkpt lat="44.501648" lon="34.108359"><time>1970-01-01T00:00:01.000Z</time></trkpt>
			<trkpt lat="44.501667" lon="34.108751"><time>1970-01-01T00:00:01.000Z</time></trkpt>
			<trkpt lat="44.501801" lon="34.109067"><time>1970-01-01T00:00:01.000Z</time></trkpt>
			<trkpt lat="44.501629" lon="34.109336"><time>1970-01-01T00:00:01.000Z</time></trkpt>
			<trkpt lat="44.501372" lon="34.109051"><time>1970-01-01T00:00:01.000Z</time></trkpt>
			<trkpt lat="44.501143" lon="34.109014"><time>1970-01-01T00:00:01.000Z</time></trkpt>
			<trkpt lat="44.501074" lon="34.109416"><time>1970-01-01T00:00:01.000Z</time></trkpt>
			<trkpt lat="44.501212" lon="34.109792"><time>1970-01-01T00:00:01.000Z</time></trkpt>
			<trkpt lat="44.501192" lon="34.110060"><time>1970-01-01T00:00:01.000Z</time></trkpt>
			<trkpt lat="44.501116" lon="34.110087"><time>1970-01-01T00:00:01.000Z</time></trkpt>
			<trkpt lat="44.500997" lon="34.110054"><time>1970-01-01T00:00:01.000Z</time></trkpt>
			<trkpt lat="44.500814" lon="34.109743"><time>1970-01-01T00:00:01.000Z</time></trkpt>
			<trkpt lat="44.500714" lon="34.109727"><time>1970-01-01T00:00:01.000Z</time></trkpt>
			<trkpt lat="44.500657" lon="34.109496"><time>1970-01-01T00:00:01.000Z</time></trkpt>
			<trkpt lat="44.500653" lon="34.109218"><time>1970-01-01T00:00:01.000Z</time></trkpt>
			<trkpt lat="44.500446" lon="34.108922"><time>1970-01-01T00:00:01.000Z</time></trkpt>
			<trkpt lat="44.500511" lon="34.109357"><time>1970-01-01T00:00:01.000Z</time></trkpt>
			<trkpt lat="44.500435" lon="34.109464"><time>1970-01-01T00:00:01.000Z</time></trkpt>
			<trkpt lat="44.500301" lon="34.109309"><time>1970-01-01T00:00:01.000Z</time></trkpt>
			<trkpt lat="44.500335" lon="34.109148"><time>1970-01-01T00:00:01.000Z</time></trkpt>
			<trkpt lat="44.500244" lon="34.109083"><time>1970-01-01T00:00:01.000Z</time></trkpt>
			<trkpt lat="44.500098" lon="34.109116"><time>1970-01-01T00:00:01.000Z</time></trkpt>
			<trkpt lat="44.500175" lon="34.109303"><time>1970-01-01T00:00:01.000Z</time></trkpt>
			<trkpt lat="44.500018" lon="34.109797"><time>1970-01-01T00:00:01.000Z</time></trkpt>
			<trkpt lat="44.500048" lon="34.110011"><time>1970-01-01T00:00:01.000Z</time></trkpt>
			<trkpt lat="44.500148" lon="34.110135"><time>1970-01-01T00:00:01.000Z</time></trkpt>
			<trkpt lat="44.500136" lon="34.110349"><time>1970-01-01T00:00:01.000Z</time></trkpt>
			<trkpt lat="44.500052" lon="34.110237"><time>1970-01-01T00:00:01.000Z</time></trkpt>
			<trkpt lat="44.499983" lon="34.110269"><time>1970-01-01T00:00:01.000Z</time></trkpt>
			<trkpt lat="44.499949" lon="34.110457"><time>1970-01-01T00:00:01.000Z</time></trkpt>
			<trkpt lat="44.500029" lon="34.110591"><time>1970-01-01T00:00:01.000Z</time></trkpt>
			<trkpt lat="44.500045" lon="34.110768"><time>1970-01-01T00:00:01.000Z</time></trkpt>
			<trkpt lat="44.499872" lon="34.110907"><time>1970-01-01T00:00:01.000Z</time></trkpt>
			<trkpt lat="44.499827" lon="34.111422"><time>1970-01-01T00:00:01.000Z</time></trkpt>
			<trkpt lat="44.499727" lon="34.111513"><time>1970-01-01T00:00:01.000Z</time></trkpt>
			<trkpt lat="44.499486" lon="34.111433"><time>1970-01-01T00:00:01.000Z</time></trkpt>
			<trkpt lat="44.499394" lon="34.111594"><time>1970-01-01T00:00:01.000Z</time></trkpt>
			<trkpt lat="44.499287" lon="34.111594"><time>1970-01-01T00:00:01.000Z</time></trkpt>
			<trkpt lat="44.499184" lon="34.111707"><time>1970-01-01T00:00:01.000Z</time></trkpt>
			<trkpt lat="44.499199" lon="34.111905"><time>1970-01-01T00:00:01.000Z</time></trkpt>
		</trkseg>
		<trkseg>
			<trkpt lat="44.499203" lon="34.111905"><time>1970-01-01T00:00:01.000Z</time></trkpt>
			<trkpt lat="44.499111" lon="34.112104"><time>1970-01-01T00:00:01.000Z</time></trkpt>
		</trkseg>
	</trk>
</gpx>