<?xml version="1.0" encoding="UTF-8" standalone="no" ?>
<gpx xmlns="http://www.topografix.com/GPX/1/1" creator="http://nakarte.me" xmlns:xsi="http://www.w3.org/2001/XMLSchema-instance" xsi:schemaLocation="http://www.topografix.com/GPX/1/1 http://www.topografix.com/GPX/1/1/gpx.xsd" version="1.1">
	<trk>
		<name>Источник_Жизни_Кезеной-Ам-Хой-Нохчи-Келой2</name>
		<trkseg>
			<trkpt lat="42.766950" lon="46.133760"><time>1970-01-01T00:00:01.000Z</time></trkpt>
			<trkpt lat="42.766330" lon="46.134010"><time>1970-01-01T00:00:01.000Z</time></trkpt>
			<trkpt lat="42.766250" lon="46.133990"><time>1970-01-01T00:00:01.000Z</time></trkpt>
			<trkpt lat="42.765890" lon="46.133470"><time>1970-01-01T00:00:01.000Z</time></trkpt>
			<trkpt lat="42.765320" lon="46.133040"><time>1970-01-01T00:00:01.000Z</time></trkpt>
			<trkpt lat="42.764820" lon="46.132490"><time>1970-01-01T00:00:01.000Z</time></trkpt>
			<trkpt lat="42.764350" lon="46.131460"><time>1970-01-01T00:00:01.000Z</time></trkpt>
			<trkpt lat="42.764220" lon="46.131270"><time>1970-01-01T00:00:01.000Z</time></trkpt>
			<trkpt lat="42.763980" lon="46.131080"><time>1970-01-01T00:00:01.000Z</time></trkpt>
			<trkpt lat="42.763640" lon="46.130690"><time>1970-01-01T00:00:01.000Z</time></trkpt>
			<trkpt lat="42.762920" lon="46.130150"><time>1970-01-01T00:00:01.000Z</time></trkpt>
			<trkpt lat="42.762500" lon="46.130020"><time>1970-01-01T00:00:01.000Z</time></trkpt>
			<trkpt lat="42.761790" lon="46.130140"><time>1970-01-01T00:00:01.000Z</time></trkpt>
			<trkpt lat="42.760240" lon="46.130970"><time>1970-01-01T00:00:01.000Z</time></trkpt>
			<trkpt lat="42.759910" lon="46.131240"><time>1970-01-01T00:00:01.000Z</time></trkpt>
			<trkpt lat="42.759730" lon="46.131330"><time>1970-01-01T00:00:01.000Z</time></trkpt>
			<trkpt lat="42.759520" lon="46.131310"><time>1970-01-01T00:00:01.000Z</time></trkpt>
			<trkpt lat="42.759030" lon="46.131080"><time>1970-01-01T00:00:01.000Z</time></trkpt>
			<trkpt lat="42.758770" lon="46.131030"><time>1970-01-01T00:00:01.000Z</time></trkpt>
			<trkpt lat="42.758530" lon="46.131080"><time>1970-01-01T00:00:01.000Z</time></trkpt>
			<trkpt lat="42.758340" lon="46.131300"><time>1970-01-01T00:00:01.000Z</time></trkpt>
			<trkpt lat="42.758080" lon="46.132060"><time>1970-01-01T00:00:01.000Z</time></trkpt>
			<trkpt lat="42.757930" lon="46.132220"><time>1970-01-01T00:00:01.000Z</time></trkpt>
			<trkpt lat="42.757750" lon="46.132310"><time>1970-01-01T00:00:01.000Z</time></trkpt>
			<trkpt lat="42.757370" lon="46.132310"><time>1970-01-01T00:00:01.000Z</time></trkpt>
			<trkpt lat="42.756580" lon="46.132630"><time>1970-01-01T00:00:01.000Z</time></trkpt>
			<trkpt lat="42.756040" lon="46.132700"><time>1970-01-01T00:00:01.000Z</time></trkpt>
			<trkpt lat="42.755730" lon="46.132570"><time>1970-01-01T00:00:01.000Z</time></trkpt>
			<trkpt lat="42.755030" lon="46.132120"><time>1970-01-01T00:00:01.000Z</time></trkpt>
			<trkpt lat="42.754850" lon="46.132050"><time>1970-01-01T00:00:01.000Z</time></trkpt>
			<trkpt lat="42.754470" lon="46.132120"><time>1970-01-01T00:00:01.000Z</time></trkpt>
			<trkpt lat="42.754200" lon="46.131990"><time>1970-01-01T00:00:01.000Z</time></trkpt>
			<trkpt lat="42.754110" lon="46.132000"><time>1970-01-01T00:00:01.000Z</time></trkpt>
			<trkpt lat="42.753720" lon="46.132290"><time>1970-01-01T00:00:01.000Z</time></trkpt>
			<trkpt lat="42.753490" lon="46.132380"><time>1970-01-01T00:00:01.000Z</time></trkpt>
			<trkpt lat="42.753400" lon="46.132360"><time>1970-01-01T00:00:01.000Z</time></trkpt>
			<trkpt lat="42.753180" lon="46.132100"><time>1970-01-01T00:00:01.000Z</time></trkpt>
			<trkpt lat="42.753040" lon="46.131860"><time>1970-01-01T00:00:01.000Z</time></trkpt>
			<trkpt lat="42.753120" lon="46.131560"><time>1970-01-01T00:00:01.000Z</time></trkpt>
			<trkpt lat="42.753340" lon="46.131030"><time>1970-01-01T00:00:01.000Z</time></trkpt>
			<trkpt lat="42.753350" lon="46.130820"><time>1970-01-01T00:00:01.000Z</time></trkpt>
			<trkpt lat="42.753310" lon="46.130580"><time>1970-01-01T00:00:01.000Z</time></trkpt>
			<trkpt lat="42.753100" lon="46.130080"><time>1970-01-01T00:00:01.000Z</time></trkpt>
			<trkpt lat="42.753060" lon="46.129880"><time>1970-01-01T00:00:01.000Z</time></trkpt>
			<trkpt lat="42.753040" lon="46.129170"><time>1970-01-01T00:00:01.000Z</time></trkpt>
			<trkpt lat="42.753070" lon="46.128790"><time>1970-01-01T00:00:01.000Z</time></trkpt>
			<trkpt lat="42.753160" lon="46.128410"><time>1970-01-01T00:00:01.000Z</time></trkpt>
			<trkpt lat="42.753140" lon="46.128070"><time>1970-01-01T00:00:01.000Z</time></trkpt>
			<trkpt lat="42.753180" lon="46.127580"><time>1970-01-01T00:00:01.000Z</time></trkpt>
			<trkpt lat="42.753160" lon="46.127100"><time>1970-01-01T00:00:01.000Z</time></trkpt>
			<trkpt lat="42.753020" lon="46.126870"><time>1970-01-01T00:00:01.000Z</time></trkpt>
			<trkpt lat="42.753200" lon="46.126680"><time>1970-01-01T00:00:01.000Z</time></trkpt>
			<trkpt lat="42.753110" lon="46.126410"><time>1970-01-01T00:00:01.000Z</time></trkpt>
			<trkpt lat="42.753150" lon="46.126090"><time>1970-01-01T00:00:01.000Z</time></trkpt>
			<trkpt lat="42.753580" lon="46.125350"><time>1970-01-01T00:00:01.000Z</time></trkpt>
			<trkpt lat="42.753580" lon="46.125040"><time>1970-01-01T00:00:01.000Z</time></trkpt>
			<trkpt lat="42.753440" lon="46.124800"><time>1970-01-01T00:00:01.000Z</time></trkpt>
			<trkpt lat="42.753380" lon="46.124500"><time>1970-01-01T00:00:01.000Z</time></trkpt>
			<trkpt lat="42.753190" lon="46.123930"><time>1970-01-01T00:00:01.000Z</time></trkpt>
			<trkpt lat="42.753360" lon="46.123740"><time>1970-01-01T00:00:01.000Z</time></trkpt>
			<trkpt lat="42.753420" lon="46.123450"><time>1970-01-01T00:00:01.000Z</time></trkpt>
			<trkpt lat="42.753160" lon="46.122980"><time>1970-01-01T00:00:01.000Z</time></trkpt>
			<trkpt lat="42.753100" lon="46.122170"><time>1970-01-01T00:00:01.000Z</time></trkpt>
			<trkpt lat="42.753140" lon="46.121990"><time>1970-01-01T00:00:01.000Z</time></trkpt>
			<trkpt lat="42.753240" lon="46.121770"><time>1970-01-01T00:00:01.000Z</time></trkpt>
			<trkpt lat="42.753240" lon="46.121430"><time>1970-01-01T00:00:01.000Z</time></trkpt>
			<trkpt lat="42.753160" lon="46.121180"><time>1970-01-01T00:00:01.000Z</time></trkpt>
			<trkpt lat="42.753490" lon="46.120480"><time>1970-01-01T00:00:01.000Z</time></trkpt>
			<trkpt lat="42.753580" lon="46.120090"><time>1970-01-01T00:00:01.000Z</time></trkpt>
			<trkpt lat="42.753540" lon="46.119730"><time>1970-01-01T00:00:01.000Z</time></trkpt>
			<trkpt lat="42.753390" lon="46.119240"><time>1970-01-01T00:00:01.000Z</time></trkpt>
			<trkpt lat="42.753330" lon="46.119140"><time>1970-01-01T00:00:01.000Z</time></trkpt>
			<trkpt lat="42.753170" lon="46.119040"><time>1970-01-01T00:00:01.000Z</time></trkpt>
			<trkpt lat="42.752760" lon="46.118420"><time>1970-01-01T00:00:01.000Z</time></trkpt>
			<trkpt lat="42.752110" lon="46.117790"><time>1970-01-01T00:00:01.000Z</time></trkpt>
			<trkpt lat="42.751880" lon="46.117490"><time>1970-01-01T00:00:01.000Z</time></trkpt>
			<trkpt lat="42.751740" lon="46.117200"><time>1970-01-01T00:00:01.000Z</time></trkpt>
			<trkpt lat="42.751410" lon="46.116720"><time>1970-01-01T00:00:01.000Z</time></trkpt>
			<trkpt lat="42.751190" lon="46.116210"><time>1970-01-01T00:00:01.000Z</time></trkpt>
			<trkpt lat="42.751020" lon="46.115510"><time>1970-01-01T00:00:01.000Z</time></trkpt>
			<trkpt lat="42.751070" lon="46.115410"><time>1970-01-01T00:00:01.000Z</time></trkpt>
			<trkpt lat="42.750840" lon="46.114890"><time>1970-01-01T00:00:01.000Z</time></trkpt>
			<trkpt lat="42.750850" lon="46.114640"><time>1970-01-01T00:00:01.000Z</time></trkpt>
			<trkpt lat="42.750760" lon="46.114370"><time>1970-01-01T00:00:01.000Z</time></trkpt>
			<trkpt lat="42.750770" lon="46.113660"><time>1970-01-01T00:00:01.000Z</time></trkpt>
			<trkpt lat="42.750710" lon="46.113320"><time>1970-01-01T00:00:01.000Z</time></trkpt>
			<trkpt lat="42.750090" lon="46.111590"><time>1970-01-01T00:00:01.000Z</time></trkpt>
			<trkpt lat="42.750000" lon="46.111110"><time>1970-01-01T00:00:01.000Z</time></trkpt>
			<trkpt lat="42.749720" lon="46.110190"><time>1970-01-01T00:00:01.000Z</time></trkpt>
			<trkpt lat="42.749440" lon="46.109090"><time>1970-01-01T00:00:01.000Z</time></trkpt>
			<trkpt lat="42.749490" lon="46.108500"><time>1970-01-01T00:00:01.000Z</time></trkpt>
			<trkpt lat="42.749350" lon="46.108080"><time>1970-01-01T00:00:01.000Z</time></trkpt>
			<trkpt lat="42.749260" lon="46.107270"><time>1970-01-01T00:00:01.000Z</time></trkpt>
			<trkpt lat="42.749260" lon="46.106680"><time>1970-01-01T00:00:01.000Z</time></trkpt>
			<trkpt lat="42.748980" lon="46.105940"><time>1970-01-01T00:00:01.000Z</time></trkpt>
			<trkpt lat="42.748520" lon="46.105230"><time>1970-01-01T00:00:01.000Z</time></trkpt>
			<trkpt lat="42.748280" lon="46.104730"><time>1970-01-01T00:00:01.000Z</time></trkpt>
			<trkpt lat="42.748210" lon="46.104200"><time>1970-01-01T00:00:01.000Z</time></trkpt>
			<trkpt lat="42.748240" lon="46.103140"><time>1970-01-01T00:00:01.000Z</time></trkpt>
			<trkpt lat="42.748050" lon="46.102340"><time>1970-01-01T00:00:01.000Z</time></trkpt>
			<trkpt lat="42.747990" lon="46.102190"><time>1970-01-01T00:00:01.000Z</time></trkpt>
			<trkpt lat="42.747830" lon="46.101960"><time>1970-01-01T00:00:01.000Z</time></trkpt>
			<trkpt lat="42.747980" lon="46.101350"><time>1970-01-01T00:00:01.000Z</time></trkpt>
			<trkpt lat="42.747770" lon="46.100830"><time>1970-01-01T00:00:01.000Z</time></trkpt>
			<trkpt lat="42.747590" lon="46.100210"><time>1970-01-01T00:00:01.000Z</time></trkpt>
			<trkpt lat="42.747470" lon="46.100040"><time>1970-01-01T00:00:01.000Z</time></trkpt>
			<trkpt lat="42.747470" lon="46.098890"><time>1970-01-01T00:00:01.000Z</time></trkpt>
			<trkpt lat="42.747360" lon="46.098220"><time>1970-01-01T00:00:01.000Z</time></trkpt>
			<trkpt lat="42.747400" lon="46.097710"><time>1970-01-01T00:00:01.000Z</time></trkpt>
			<trkpt lat="42.747510" lon="46.097380"><time>1970-01-01T00:00:01.000Z</time></trkpt>
			<trkpt lat="42.747480" lon="46.096710"><time>1970-01-01T00:00:01.000Z</time></trkpt>
			<trkpt lat="42.747510" lon="46.096450"><time>1970-01-01T00:00:01.000Z</time></trkpt>
			<trkpt lat="42.747340" lon="46.096460"><time>1970-01-01T00:00:01.000Z</time></trkpt>
			<trkpt lat="42.747060" lon="46.096350"><time>1970-01-01T00:00:01.000Z</time></trkpt>
			<trkpt lat="42.746990" lon="46.095810"><time>1970-01-01T00:00:01.000Z</time></trkpt>
			<trkpt lat="42.746980" lon="46.094850"><time>1970-01-01T00:00:01.000Z</time></trkpt>
			<trkpt lat="42.746910" lon="46.094260"><time>1970-01-01T00:00:01.000Z</time></trkpt>
			<trkpt lat="42.746710" lon="46.093780"><time>1970-01-01T00:00:01.000Z</time></trkpt>
			<trkpt lat="42.746490" lon="46.093460"><time>1970-01-01T00:00:01.000Z</time></trkpt>
			<trkpt lat="42.746270" lon="46.092480"><time>1970-01-01T00:00:01.000Z</time></trkpt>
			<trkpt lat="42.746230" lon="46.092260"><time>1970-01-01T00:00:01.000Z</time></trkpt>
			<trkpt lat="42.746260" lon="46.092110"><time>1970-01-01T00:00:01.000Z</time></trkpt>
			<trkpt lat="42.746580" lon="46.091240"><time>1970-01-01T00:00:01.000Z</time></trkpt>
			<trkpt lat="42.746570" lon="46.090990"><time>1970-01-01T00:00:01.000Z</time></trkpt>
			<trkpt lat="42.746490" lon="46.090810"><time>1970-01-01T00:00:01.000Z</time></trkpt>
			<trkpt lat="42.746530" lon="46.090680"><time>1970-01-01T00:00:01.000Z</time></trkpt>
			<trkpt lat="42.746530" lon="46.090420"><time>1970-01-01T00:00:01.000Z</time></trkpt>
			<trkpt lat="42.746500" lon="46.090270"><time>1970-01-01T00:00:01.000Z</time></trkpt>
			<trkpt lat="42.746340" lon="46.089970"><time>1970-01-01T00:00:01.000Z</time></trkpt>
			<trkpt lat="42.746150" lon="46.089360"><time>1970-01-01T00:00:01.000Z</time></trkpt>
			<trkpt lat="42.746110" lon="46.089050"><time>1970-01-01T00:00:01.000Z</time></trkpt>
			<trkpt lat="42.745980" lon="46.088620"><time>1970-01-01T00:00:01.000Z</time></trkpt>
			<trkpt lat="42.745980" lon="46.088370"><time>1970-01-01T00:00:01.000Z</time></trkpt>
			<trkpt lat="42.745880" lon="46.087820"><time>1970-01-01T00:00:01.000Z</time></trkpt>
			<trkpt lat="42.745560" lon="46.087460"><time>1970-01-01T00:00:01.000Z</time></trkpt>
			<trkpt lat="42.745090" lon="46.086560"><time>1970-01-01T00:00:01.000Z</time></trkpt>
			<trkpt lat="42.745090" lon="46.086050"><time>1970-01-01T00:00:01.000Z</time></trkpt>
			<trkpt lat="42.745020" lon="46.085740"><time>1970-01-01T00:00:01.000Z</time></trkpt>
			<trkpt lat="42.744780" lon="46.085270"><time>1970-01-01T00:00:01.000Z</time></trkpt>
			<trkpt lat="42.744460" lon="46.084010"><time>1970-01-01T00:00:01.000Z</time></trkpt>
			<trkpt lat="42.744220" lon="46.083550"><time>1970-01-01T00:00:01.000Z</time></trkpt>
			<trkpt lat="42.744090" lon="46.083380"><time>1970-01-01T00:00:01.000Z</time></trkpt>
			<trkpt lat="42.743920" lon="46.082970"><time>1970-01-01T00:00:01.000Z</time></trkpt>
			<trkpt lat="42.743560" lon="46.082510"><time>1970-01-01T00:00:01.000Z</time></trkpt>
			<trkpt lat="42.743340" lon="46.081840"><time>1970-01-01T00:00:01.000Z</time></trkpt>
			<trkpt lat="42.743260" lon="46.081740"><time>1970-01-01T00:00:01.000Z</time></trkpt>
			<trkpt lat="42.743280" lon="46.081520"><time>1970-01-01T00:00:01.000Z</time></trkpt>
			<trkpt lat="42.743140" lon="46.081000"><time>1970-01-01T00:00:01.000Z</time></trkpt>
			<trkpt lat="42.743040" lon="46.080770"><time>1970-01-01T00:00:01.000Z</time></trkpt>
			<trkpt lat="42.742740" lon="46.080480"><time>1970-01-01T00:00:01.000Z</time></trkpt>
			<trkpt lat="42.742390" lon="46.079790"><time>1970-01-01T00:00:01.000Z</time></trkpt>
			<trkpt lat="42.742340" lon="46.079400"><time>1970-01-01T00:00:01.000Z</time></trkpt>
			<trkpt lat="42.742110" lon="46.078490"><time>1970-01-01T00:00:01.000Z</time></trkpt>
			<trkpt lat="42.741770" lon="46.077840"><time>1970-01-01T00:00:01.000Z</time></trkpt>
			<trkpt lat="42.741610" lon="46.077450"><time>1970-01-01T00:00:01.000Z</time></trkpt>
			<trkpt lat="42.741360" lon="46.077140"><time>1970-01-01T00:00:01.000Z</time></trkpt>
			<trkpt lat="42.741140" lon="46.076690"><time>1970-01-01T00:00:01.000Z</time></trkpt>
			<trkpt lat="42.740900" lon="46.076310"><time>1970-01-01T00:00:01.000Z</time></trkpt>
			<trkpt lat="42.740670" lon="46.076170"><time>1970-01-01T00:00:01.000Z</time></trkpt>
			<trkpt lat="42.740550" lon="46.075950"><time>1970-01-01T00:00:01.000Z</time></trkpt>
			<trkpt lat="42.740550" lon="46.075430"><time>1970-01-01T00:00:01.000Z</time></trkpt>
			<trkpt lat="42.740500" lon="46.075100"><time>1970-01-01T00:00:01.000Z</time></trkpt>
			<trkpt lat="42.740200" lon="46.074520"><time>1970-01-01T00:00:01.000Z</time></trkpt>
			<trkpt lat="42.740110" lon="46.074390"><time>1970-01-01T00:00:01.000Z</time></trkpt>
			<trkpt lat="42.739640" lon="46.074000"><time>1970-01-01T00:00:01.000Z</time></trkpt>
			<trkpt lat="42.739580" lon="46.073850"><time>1970-01-01T00:00:01.000Z</time></trkpt>
			<trkpt lat="42.739520" lon="46.073370"><time>1970-01-01T00:00:01.000Z</time></trkpt>
			<trkpt lat="42.739040" lon="46.072420"><time>1970-01-01T00:00:01.000Z</time></trkpt>
			<trkpt lat="42.738840" lon="46.071640"><time>1970-01-01T00:00:01.000Z</time></trkpt>
			<trkpt lat="42.738850" lon="46.071260"><time>1970-01-01T00:00:01.000Z</time></trkpt>
			<trkpt lat="42.738730" lon="46.070410"><time>1970-01-01T00:00:01.000Z</time></trkpt>
			<trkpt lat="42.738670" lon="46.070290"><time>1970-01-01T00:00:01.000Z</time></trkpt>
			<trkpt lat="42.738470" lon="46.070260"><time>1970-01-01T00:00:01.000Z</time></trkpt>
			<trkpt lat="42.738330" lon="46.069880"><time>1970-01-01T00:00:01.000Z</time></trkpt>
			<trkpt lat="42.737930" lon="46.069490"><time>1970-01-01T00:00:01.000Z</time></trkpt>
			<trkpt lat="42.737880" lon="46.069390"><time>1970-01-01T00:00:01.000Z</time></trkpt>
			<trkpt lat="42.737870" lon="46.069140"><time>1970-01-01T00:00:01.000Z</time></trkpt>
			<trkpt lat="42.737770" lon="46.068930"><time>1970-01-01T00:00:01.000Z</time></trkpt>
			<trkpt lat="42.737500" lon="46.068080"><time>1970-01-01T00:00:01.000Z</time></trkpt>
			<trkpt lat="42.737390" lon="46.067870"><time>1970-01-01T00:00:01.000Z</time></trkpt>
			<trkpt lat="42.737290" lon="46.067780"><time>1970-01-01T00:00:01.000Z</time></trkpt>
			<trkpt lat="42.737220" lon="46.067650"><time>1970-01-01T00:00:01.000Z</time></trkpt>
			<trkpt lat="42.737060" lon="46.067180"><time>1970-01-01T00:00:01.000Z</time></trkpt>
			<trkpt lat="42.736920" lon="46.066950"><time>1970-01-01T00:00:01.000Z</time></trkpt>
			<trkpt lat="42.736640" lon="46.066200"><time>1970-01-01T00:00:01.000Z</time></trkpt>
			<trkpt lat="42.736560" lon="46.066130"><time>1970-01-01T00:00:01.000Z</time></trkpt>
			<trkpt lat="42.736370" lon="46.065760"><time>1970-01-01T00:00:01.000Z</time></trkpt>
			<trkpt lat="42.736190" lon="46.065540"><time>1970-01-01T00:00:01.000Z</time></trkpt>
			<trkpt lat="42.736020" lon="46.065250"><time>1970-01-01T00:00:01.000Z</time></trkpt>
			<trkpt lat="42.735870" lon="46.064700"><time>1970-01-01T00:00:01.000Z</time></trkpt>
			<trkpt lat="42.735700" lon="46.064410"><time>1970-01-01T00:00:01.000Z</time></trkpt>
			<trkpt lat="42.735620" lon="46.064020"><time>1970-01-01T00:00:01.000Z</time></trkpt>
			<trkpt lat="42.735420" lon="46.063600"><time>1970-01-01T00:00:01.000Z</time></trkpt>
			<trkpt lat="42.735270" lon="46.063460"><time>1970-01-01T00:00:01.000Z</time></trkpt>
			<trkpt lat="42.735050" lon="46.063130"><time>1970-01-01T00:00:01.000Z</time></trkpt>
			<trkpt lat="42.734770" lon="46.062800"><time>1970-01-01T00:00:01.000Z</time></trkpt>
			<trkpt lat="42.734560" lon="46.062230"><time>1970-01-01T00:00:01.000Z</time></trkpt>
			<trkpt lat="42.734410" lon="46.061970"><time>1970-01-01T00:00:01.000Z</time></trkpt>
			<trkpt lat="42.734150" lon="46.061720"><time>1970-01-01T00:00:01.000Z</time></trkpt>
			<trkpt lat="42.733550" lon="46.061430"><time>1970-01-01T00:00:01.000Z</time></trkpt>
			<trkpt lat="42.733250" lon="46.061000"><time>1970-01-01T00:00:01.000Z</time></trkpt>
			<trkpt lat="42.732890" lon="46.060570"><time>1970-01-01T00:00:01.000Z</time></trkpt>
			<trkpt lat="42.733010" lon="46.059940"><time>1970-01-01T00:00:01.000Z</time></trkpt>
			<trkpt lat="42.732940" lon="46.059360"><time>1970-01-01T00:00:01.000Z</time></trkpt>
			<trkpt lat="42.732430" lon="46.058840"><time>1970-01-01T00:00:01.000Z</time></trkpt>
			<trkpt lat="42.731480" lon="46.057390"><time>1970-01-01T00:00:01.000Z</time></trkpt>
			<trkpt lat="42.731140" lon="46.057110"><time>1970-01-01T00:00:01.000Z</time></trkpt>
			<trkpt lat="42.730940" lon="46.057020"><time>1970-01-01T00:00:01.000Z</time></trkpt>
			<trkpt lat="42.730600" lon="46.056980"><time>1970-01-01T00:00:01.000Z</time></trkpt>
			<trkpt lat="42.730410" lon="46.057080"><time>1970-01-01T00:00:01.000Z</time></trkpt>
			<trkpt lat="42.729910" lon="46.056900"><time>1970-01-01T00:00:01.000Z</time></trkpt>
			<trkpt lat="42.729630" lon="46.056690"><time>1970-01-01T00:00:01.000Z</time></trkpt>
			<trkpt lat="42.729240" lon="46.056270"><time>1970-01-01T00:00:01.000Z</time></trkpt>
			<trkpt lat="42.728750" lon="46.055830"><time>1970-01-01T00:00:01.000Z</time></trkpt>
			<trkpt lat="42.728320" lon="46.055540"><time>1970-01-01T00:00:01.000Z</time></trkpt>
			<trkpt lat="42.728220" lon="46.055280"><time>1970-01-01T00:00:01.000Z</time></trkpt>
			<trkpt lat="42.728400" lon="46.055560"><time>1970-01-01T00:00:01.000Z</time></trkpt>
			<trkpt lat="42.728700" lon="46.055760"><time>1970-01-01T00:00:01.000Z</time></trkpt>
			<trkpt lat="42.728840" lon="46.055760"><time>1970-01-01T00:00:01.000Z</time></trkpt>
			<trkpt lat="42.729080" lon="46.055530"><time>1970-01-01T00:00:01.000Z</time></trkpt>
			<trkpt lat="42.729130" lon="46.055650"><time>1970-01-01T00:00:01.000Z</time></trkpt>
			<trkpt lat="42.729170" lon="46.055600"><time>1970-01-01T00:00:01.000Z</time></trkpt>
			<trkpt lat="42.729200" lon="46.055760"><time>1970-01-01T00:00:01.000Z</time></trkpt>
			<trkpt lat="42.729290" lon="46.055810"><time>1970-01-01T00:00:01.000Z</time></trkpt>
			<trkpt lat="42.729300" lon="46.055780"><time>1970-01-01T00:00:01.000Z</time></trkpt>
			<trkpt lat="42.729390" lon="46.055860"><time>1970-01-01T00:00:01.000Z</time></trkpt>
			<trkpt lat="42.729570" lon="46.055900"><time>1970-01-01T00:00:01.000Z</time></trkpt>
			<trkpt lat="42.729550" lon="46.055810"><time>1970-01-01T00:00:01.000Z</time></trkpt>
			<trkpt lat="42.729640" lon="46.055960"><time>1970-01-01T00:00:01.000Z</time></trkpt>
			<trkpt lat="42.729710" lon="46.055890"><time>1970-01-01T00:00:01.000Z</time></trkpt>
			<trkpt lat="42.729830" lon="46.055990"><time>1970-01-01T00:00:01.000Z</time></trkpt>
			<trkpt lat="42.729880" lon="46.055890"><time>1970-01-01T00:00:01.000Z</time></trkpt>
			<trkpt lat="42.730130" lon="46.055800"><time>1970-01-01T00:00:01.000Z</time></trkpt>
			<trkpt lat="42.730110" lon="46.055850"><time>1970-01-01T00:00:01.000Z</time></trkpt>
			<trkpt lat="42.730230" lon="46.056070"><time>1970-01-01T00:00:01.000Z</time></trkpt>
			<trkpt lat="42.730320" lon="46.056150"><time>1970-01-01T00:00:01.000Z</time></trkpt>
			<trkpt lat="42.730510" lon="46.055990"><time>1970-01-01T00:00:01.000Z</time></trkpt>
			<trkpt lat="42.730370" lon="46.055850"><time>1970-01-01T00:00:01.000Z</time></trkpt>
			<trkpt lat="42.730540" lon="46.055580"><time>1970-01-01T00:00:01.000Z</time></trkpt>
			<trkpt lat="42.730560" lon="46.055320"><time>1970-01-01T00:00:01.000Z</time></trkpt>
			<trkpt lat="42.732520" lon="46.055270"><time>1970-01-01T00:00:01.000Z</time></trkpt>
			<trkpt lat="42.733910" lon="46.055390"><time>1970-01-01T00:00:01.000Z</time></trkpt>
			<trkpt lat="42.733880" lon="46.055080"><time>1970-01-01T00:00:01.000Z</time></trkpt>
			<trkpt lat="42.734170" lon="46.055140"><time>1970-01-01T00:00:01.000Z</time></trkpt>
			<trkpt lat="42.734700" lon="46.055610"><time>1970-01-01T00:00:01.000Z</time></trkpt>
			<trkpt lat="42.734840" lon="46.055780"><time>1970-01-01T00:00:01.000Z</time></trkpt>
			<trkpt lat="42.735370" lon="46.056100"><time>1970-01-01T00:00:01.000Z</time></trkpt>
			<trkpt lat="42.735460" lon="46.055910"><time>1970-01-01T00:00:01.000Z</time></trkpt>
			<trkpt lat="42.735640" lon="46.055720"><time>1970-01-01T00:00:01.000Z</time></trkpt>
			<trkpt lat="42.736330" lon="46.055250"><time>1970-01-01T00:00:01.000Z</time></trkpt>
			<trkpt lat="42.736460" lon="46.055080"><time>1970-01-01T00:00:01.000Z</time></trkpt>
			<trkpt lat="42.736530" lon="46.054890"><time>1970-01-01T00:00:01.000Z</time></trkpt>
			<trkpt lat="42.736550" lon="46.054600"><time>1970-01-01T00:00:01.000Z</time></trkpt>
			<trkpt lat="42.736450" lon="46.054110"><time>1970-01-01T00:00:01.000Z</time></trkpt>
			<trkpt lat="42.736450" lon="46.053890"><time>1970-01-01T00:00:01.000Z</time></trkpt>
			<trkpt lat="42.736540" lon="46.053650"><time>1970-01-01T00:00:01.000Z</time></trkpt>
			<trkpt lat="42.736770" lon="46.053250"><time>1970-01-01T00:00:01.000Z</time></trkpt>
			<trkpt lat="42.737730" lon="46.052310"><time>1970-01-01T00:00:01.000Z</time></trkpt>
			<trkpt lat="42.738290" lon="46.051420"><time>1970-01-01T00:00:01.000Z</time></trkpt>
			<trkpt lat="42.738690" lon="46.051020"><time>1970-01-01T00:00:01.000Z</time></trkpt>
			<trkpt lat="42.739150" lon="46.050720"><time>1970-01-01T00:00:01.000Z</time></trkpt>
			<trkpt lat="42.739410" lon="46.050640"><time>1970-01-01T00:00:01.000Z</time></trkpt>
			<trkpt lat="42.740320" lon="46.051270"><time>1970-01-01T00:00:01.000Z</time></trkpt>
			<trkpt lat="42.740570" lon="46.051310"><time>1970-01-01T00:00:01.000Z</time></trkpt>
			<trkpt lat="42.741520" lon="46.051220"><time>1970-01-01T00:00:01.000Z</time></trkpt>
			<trkpt lat="42.741890" lon="46.051340"><time>1970-01-01T00:00:01.000Z</time></trkpt>
			<trkpt lat="42.741960" lon="46.051340"><time>1970-01-01T00:00:01.000Z</time></trkpt>
			<trkpt lat="42.742020" lon="46.051290"><time>1970-01-01T00:00:01.000Z</time></trkpt>
			<trkpt lat="42.742020" lon="46.051160"><time>1970-01-01T00:00:01.000Z</time></trkpt>
			<trkpt lat="42.741980" lon="46.051110"><time>1970-01-01T00:00:01.000Z</time></trkpt>
			<trkpt lat="42.741300" lon="46.050580"><time>1970-01-01T00:00:01.000Z</time></trkpt>
			<trkpt lat="42.741090" lon="46.050360"><time>1970-01-01T00:00:01.000Z</time></trkpt>
			<trkpt lat="42.740620" lon="46.049670"><time>1970-01-01T00:00:01.000Z</time></trkpt>
			<trkpt lat="42.740320" lon="46.049490"><time>1970-01-01T00:00:01.000Z</time></trkpt>
			<trkpt lat="42.739980" lon="46.049380"><time>1970-01-01T00:00:01.000Z</time></trkpt>
			<trkpt lat="42.739900" lon="46.049300"><time>1970-01-01T00:00:01.000Z</time></trkpt>
			<trkpt lat="42.739850" lon="46.049140"><time>1970-01-01T00:00:01.000Z</time></trkpt>
			<trkpt lat="42.739990" lon="46.048600"><time>1970-01-01T00:00:01.000Z</time></trkpt>
			<trkpt lat="42.740000" lon="46.048450"><time>1970-01-01T00:00:01.000Z</time></trkpt>
			<trkpt lat="42.739730" lon="46.047990"><time>1970-01-01T00:00:01.000Z</time></trkpt>
			<trkpt lat="42.739700" lon="46.047880"><time>1970-01-01T00:00:01.000Z</time></trkpt>
			<trkpt lat="42.739700" lon="46.047650"><time>1970-01-01T00:00:01.000Z</time></trkpt>
			<trkpt lat="42.739840" lon="46.047100"><time>1970-01-01T00:00:01.000Z</time></trkpt>
			<trkpt lat="42.740020" lon="46.046610"><time>1970-01-01T00:00:01.000Z</time></trkpt>
			<trkpt lat="42.740400" lon="46.045880"><time>1970-01-01T00:00:01.000Z</time></trkpt>
			<trkpt lat="42.741060" lon="46.045590"><time>1970-01-01T00:00:01.000Z</time></trkpt>
			<trkpt lat="42.741210" lon="46.045390"><time>1970-01-01T00:00:01.000Z</time></trkpt>
			<trkpt lat="42.741210" lon="46.045280"><time>1970-01-01T00:00:01.000Z</time></trkpt>
			<trkpt lat="42.741180" lon="46.045240"><time>1970-01-01T00:00:01.000Z</time></trkpt>
			<trkpt lat="42.741140" lon="46.045220"><time>1970-01-01T00:00:01.000Z</time></trkpt>
			<trkpt lat="42.740810" lon="46.045310"><time>1970-01-01T00:00:01.000Z</time></trkpt>
			<trkpt lat="42.740290" lon="46.045210"><time>1970-01-01T00:00:01.000Z</time></trkpt>
			<trkpt lat="42.740050" lon="46.045230"><time>1970-01-01T00:00:01.000Z</time></trkpt>
			<trkpt lat="42.739870" lon="46.045310"><time>1970-01-01T00:00:01.000Z</time></trkpt>
			<trkpt lat="42.739520" lon="46.045700"><time>1970-01-01T00:00:01.000Z</time></trkpt>
			<trkpt lat="42.739310" lon="46.045840"><time>1970-01-01T00:00:01.000Z</time></trkpt>
			<trkpt lat="42.739140" lon="46.045880"><time>1970-01-01T00:00:01.000Z</time></trkpt>
			<trkpt lat="42.738800" lon="46.045850"><time>1970-01-01T00:00:01.000Z</time></trkpt>
			<trkpt lat="42.738370" lon="46.045880"><time>1970-01-01T00:00:01.000Z</time></trkpt>
			<trkpt lat="42.737630" lon="46.046050"><time>1970-01-01T00:00:01.000Z</time></trkpt>
			<trkpt lat="42.737480" lon="46.046010"><time>1970-01-01T00:00:01.000Z</time></trkpt>
			<trkpt lat="42.737390" lon="46.045910"><time>1970-01-01T00:00:01.000Z</time></trkpt>
			<trkpt lat="42.737250" lon="46.045570"><time>1970-01-01T00:00:01.000Z</time></trkpt>
			<trkpt lat="42.737260" lon="46.045130"><time>1970-01-01T00:00:01.000Z</time></trkpt>
			<trkpt lat="42.737320" lon="46.044940"><time>1970-01-01T00:00:01.000Z</time></trkpt>
			<trkpt lat="42.737520" lon="46.044620"><time>1970-01-01T00:00:01.000Z</time></trkpt>
			<trkpt lat="42.738180" lon="46.043780"><time>1970-01-01T00:00:01.000Z</time></trkpt>
			<trkpt lat="42.738350" lon="46.043460"><time>1970-01-01T00:00:01.000Z</time></trkpt>
			<trkpt lat="42.738310" lon="46.043020"><time>1970-01-01T00:00:01.000Z</time></trkpt>
			<trkpt lat="42.738300" lon="46.042260"><time>1970-01-01T00:00:01.000Z</time></trkpt>
			<trkpt lat="42.738260" lon="46.042040"><time>1970-01-01T00:00:01.000Z</time></trkpt>
			<trkpt lat="42.737830" lon="46.040850"><time>1970-01-01T00:00:01.000Z</time></trkpt>
			<trkpt lat="42.737590" lon="46.039850"><time>1970-01-01T00:00:01.000Z</time></trkpt>
			<trkpt lat="42.737480" lon="46.039230"><time>1970-01-01T00:00:01.000Z</time></trkpt>
			<trkpt lat="42.737460" lon="46.038690"><time>1970-01-01T00:00:01.000Z</time></trkpt>
			<trkpt lat="42.737510" lon="46.038150"><time>1970-01-01T00:00:01.000Z</time></trkpt>
			<trkpt lat="42.737630" lon="46.037790"><time>1970-01-01T00:00:01.000Z</time></trkpt>
			<trkpt lat="42.737980" lon="46.037090"><time>1970-01-01T00:00:01.000Z</time></trkpt>
			<trkpt lat="42.738060" lon="46.037010"><time>1970-01-01T00:00:01.000Z</time></trkpt>
			<trkpt lat="42.738360" lon="46.036860"><time>1970-01-01T00:00:01.000Z</time></trkpt>
			<trkpt lat="42.738410" lon="46.036800"><time>1970-01-01T00:00:01.000Z</time></trkpt>
			<trkpt lat="42.738420" lon="46.036680"><time>1970-01-01T00:00:01.000Z</time></trkpt>
			<trkpt lat="42.738340" lon="46.036140"><time>1970-01-01T00:00:01.000Z</time></trkpt>
			<trkpt lat="42.738650" lon="46.035270"><time>1970-01-01T00:00:01.000Z</time></trkpt>
			<trkpt lat="42.738840" lon="46.034910"><time>1970-01-01T00:00:01.000Z</time></trkpt>
			<trkpt lat="42.738850" lon="46.034740"><time>1970-01-01T00:00:01.000Z</time></trkpt>
			<trkpt lat="42.738840" lon="46.034690"><time>1970-01-01T00:00:01.000Z</time></trkpt>
			<trkpt lat="42.738760" lon="46.034670"><time>1970-01-01T00:00:01.000Z</time></trkpt>
			<trkpt lat="42.738620" lon="46.034710"><time>1970-01-01T00:00:01.000Z</time></trkpt>
			<trkpt lat="42.738400" lon="46.034840"><time>1970-01-01T00:00:01.000Z</time></trkpt>
			<trkpt lat="42.737980" lon="46.035270"><time>1970-01-01T00:00:01.000Z</time></trkpt>
			<trkpt lat="42.737690" lon="46.035290"><time>1970-01-01T00:00:01.000Z</time></trkpt>
			<trkpt lat="42.737600" lon="46.035250"><time>1970-01-01T00:00:01.000Z</time></trkpt>
			<trkpt lat="42.737550" lon="46.035170"><time>1970-01-01T00:00:01.000Z</time></trkpt>
			<trkpt lat="42.737530" lon="46.034970"><time>1970-01-01T00:00:01.000Z</time></trkpt>
			<trkpt lat="42.737530" lon="46.034140"><time>1970-01-01T00:00:01.000Z</time></trkpt>
			<trkpt lat="42.737500" lon="46.033960"><time>1970-01-01T00:00:01.000Z</time></trkpt>
			<trkpt lat="42.737270" lon="46.033310"><time>1970-01-01T00:00:01.000Z</time></trkpt>
			<trkpt lat="42.736660" lon="46.032290"><time>1970-01-01T00:00:01.000Z</time></trkpt>
			<trkpt lat="42.736650" lon="46.032130"><time>1970-01-01T00:00:01.000Z</time></trkpt>
			<trkpt lat="42.736750" lon="46.031660"><time>1970-01-01T00:00:01.000Z</time></trkpt>
			<trkpt lat="42.737220" lon="46.030640"><time>1970-01-01T00:00:01.000Z</time></trkpt>
			<trkpt lat="42.737200" lon="46.030110"><time>1970-01-01T00:00:01.000Z</time></trkpt>
			<trkpt lat="42.737250" lon="46.029780"><time>1970-01-01T00:00:01.000Z</time></trkpt>
			<trkpt lat="42.737240" lon="46.029360"><time>1970-01-01T00:00:01.000Z</time></trkpt>
			<trkpt lat="42.737420" lon="46.028590"><time>1970-01-01T00:00:01.000Z</time></trkpt>
			<trkpt lat="42.737400" lon="46.028520"><time>1970-01-01T00:00:01.000Z</time></trkpt>
			<trkpt lat="42.737190" lon="46.028440"><time>1970-01-01T00:00:01.000Z</time></trkpt>
			<trkpt lat="42.737120" lon="46.028340"><time>1970-01-01T00:00:01.000Z</time></trkpt>
			<trkpt lat="42.737120" lon="46.028080"><time>1970-01-01T00:00:01.000Z</time></trkpt>
			<trkpt lat="42.737710" lon="46.026060"><time>1970-01-01T00:00:01.000Z</time></trkpt>
			<trkpt lat="42.738150" lon="46.025080"><time>1970-01-01T00:00:01.000Z</time></trkpt>
			<trkpt lat="42.738420" lon="46.024330"><time>1970-01-01T00:00:01.000Z</time></trkpt>
			<trkpt lat="42.738740" lon="46.023630"><time>1970-01-01T00:00:01.000Z</time></trkpt>
			<trkpt lat="42.739080" lon="46.022770"><time>1970-01-01T00:00:01.000Z</time></trkpt>
			<trkpt lat="42.739420" lon="46.022280"><time>1970-01-01T00:00:01.000Z</time></trkpt>
			<trkpt lat="42.739790" lon="46.021810"><time>1970-01-01T00:00:01.000Z</time></trkpt>
			<trkpt lat="42.740240" lon="46.021340"><time>1970-01-01T00:00:01.000Z</time></trkpt>
			<trkpt lat="42.740570" lon="46.020890"><time>1970-01-01T00:00:01.000Z</time></trkpt>
			<trkpt lat="42.740820" lon="46.020700"><time>1970-01-01T00:00:01.000Z</time></trkpt>
			<trkpt lat="42.741310" lon="46.020420"><time>1970-01-01T00:00:01.000Z</time></trkpt>
			<trkpt lat="42.741730" lon="46.019850"><time>1970-01-01T00:00:01.000Z</time></trkpt>
			<trkpt lat="42.741850" lon="46.019540"><time>1970-01-01T00:00:01.000Z</time></trkpt>
			<trkpt lat="42.742190" lon="46.018910"><time>1970-01-01T00:00:01.000Z</time></trkpt>
			<trkpt lat="42.742690" lon="46.018450"><time>1970-01-01T00:00:01.000Z</time></trkpt>
			<trkpt lat="42.743270" lon="46.016820"><time>1970-01-01T00:00:01.000Z</time></trkpt>
			<trkpt lat="42.743770" lon="46.015580"><time>1970-01-01T00:00:01.000Z</time></trkpt>
			<trkpt lat="42.744010" lon="46.014750"><time>1970-01-01T00:00:01.000Z</time></trkpt>
			<trkpt lat="42.744270" lon="46.014180"><time>1970-01-01T00:00:01.000Z</time></trkpt>
			<trkpt lat="42.744540" lon="46.013760"><time>1970-01-01T00:00:01.000Z</time></trkpt>
			<trkpt lat="42.745390" lon="46.011890"><time>1970-01-01T00:00:01.000Z</time></trkpt>
			<trkpt lat="42.745570" lon="46.010840"><time>1970-01-01T00:00:01.000Z</time></trkpt>
			<trkpt lat="42.745920" lon="46.009950"><time>1970-01-01T00:00:01.000Z</time></trkpt>
			<trkpt lat="42.746160" lon="46.009640"><time>1970-01-01T00:00:01.000Z</time></trkpt>
			<trkpt lat="42.746640" lon="46.008730"><time>1970-01-01T00:00:01.000Z</time></trkpt>
			<trkpt lat="42.746660" lon="46.008430"><time>1970-01-01T00:00:01.000Z</time></trkpt>
			<trkpt lat="42.746750" lon="46.008100"><time>1970-01-01T00:00:01.000Z</time></trkpt>
			<trkpt lat="42.746850" lon="46.007790"><time>1970-01-01T00:00:01.000Z</time></trkpt>
			<trkpt lat="42.747030" lon="46.007490"><time>1970-01-01T00:00:01.000Z</time></trkpt>
			<trkpt lat="42.747050" lon="46.007300"><time>1970-01-01T00:00:01.000Z</time></trkpt>
			<trkpt lat="42.747010" lon="46.007140"><time>1970-01-01T00:00:01.000Z</time></trkpt>
			<trkpt lat="42.745920" lon="46.004610"><time>1970-01-01T00:00:01.000Z</time></trkpt>
			<trkpt lat="42.745810" lon="46.004120"><time>1970-01-01T00:00:01.000Z</time></trkpt>
			<trkpt lat="42.745810" lon="46.003490"><time>1970-01-01T00:00:01.000Z</time></trkpt>
			<trkpt lat="42.745910" lon="46.002860"><time>1970-01-01T00:00:01.000Z</time></trkpt>
			<trkpt lat="42.746200" lon="46.001710"><time>1970-01-01T00:00:01.000Z</time></trkpt>
			<trkpt lat="42.746500" lon="46.000290"><time>1970-01-01T00:00:01.000Z</time></trkpt>
			<trkpt lat="42.746680" lon="45.999200"><time>1970-01-01T00:00:01.000Z</time></trkpt>
			<trkpt lat="42.746610" lon="45.998780"><time>1970-01-01T00:00:01.000Z</time></trkpt>
			<trkpt lat="42.746340" lon="45.997870"><time>1970-01-01T00:00:01.000Z</time></trkpt>
			<trkpt lat="42.746140" lon="45.997030"><time>1970-01-01T00:00:01.000Z</time></trkpt>
			<trkpt lat="42.745600" lon="45.995380"><time>1970-01-01T00:00:01.000Z</time></trkpt>
			<trkpt lat="42.745130" lon="45.994280"><time>1970-01-01T00:00:01.000Z</time></trkpt>
			<trkpt lat="42.744260" lon="45.993490"><time>1970-01-01T00:00:01.000Z</time></trkpt>
			<trkpt lat="42.743960" lon="45.993170"><time>1970-01-01T00:00:01.000Z</time></trkpt>
			<trkpt lat="42.743710" lon="45.992790"><time>1970-01-01T00:00:01.000Z</time></trkpt>
			<trkpt lat="42.743050" lon="45.991470"><time>1970-01-01T00:00:01.000Z</time></trkpt>
			<trkpt lat="42.742740" lon="45.991060"><time>1970-01-01T00:00:01.000Z</time></trkpt>
			<trkpt lat="42.742470" lon="45.990560"><time>1970-01-01T00:00:01.000Z</time></trkpt>
			<trkpt lat="42.742360" lon="45.990330"><time>1970-01-01T00:00:01.000Z</time></trkpt>
			<trkpt lat="42.742290" lon="45.990070"><time>1970-01-01T00:00:01.000Z</time></trkpt>
			<trkpt lat="42.742170" lon="45.989120"><time>1970-01-01T00:00:01.000Z</time></trkpt>
			<trkpt lat="42.741860" lon="45.987600"><time>1970-01-01T00:00:01.000Z</time></trkpt>
			<trkpt lat="42.741820" lon="45.986850"><time>1970-01-01T00:00:01.000Z</time></trkpt>
			<trkpt lat="42.741940" lon="45.985440"><time>1970-01-01T00:00:01.000Z</time></trkpt>
			<trkpt lat="42.741920" lon="45.984850"><time>1970-01-01T00:00:01.000Z</time></trkpt>
			<trkpt lat="42.741810" lon="45.984230"><time>1970-01-01T00:00:01.000Z</time></trkpt>
			<trkpt lat="42.741850" lon="45.983710"><time>1970-01-01T00:00:01.000Z</time></trkpt>
			<trkpt lat="42.741730" lon="45.982770"><time>1970-01-01T00:00:01.000Z</time></trkpt>
			<trkpt lat="42.741920" lon="45.981710"><time>1970-01-01T00:00:01.000Z</time></trkpt>
			<trkpt lat="42.742220" lon="45.981260"><time>1970-01-01T00:00:01.000Z</time></trkpt>
			<trkpt lat="42.742550" lon="45.980930"><time>1970-01-01T00:00:01.000Z</time></trkpt>
			<trkpt lat="42.742930" lon="45.980470"><time>1970-01-01T00:00:01.000Z</time></trkpt>
			<trkpt lat="42.743840" lon="45.977770"><time>1970-01-01T00:00:01.000Z</time></trkpt>
			<trkpt lat="42.744050" lon="45.977390"><time>1970-01-01T00:00:01.000Z</time></trkpt>
			<trkpt lat="42.744970" lon="45.976230"><time>1970-01-01T00:00:01.000Z</time></trkpt>
			<trkpt lat="42.745580" lon="45.975340"><time>1970-01-01T00:00:01.000Z</time></trkpt>
			<trkpt lat="42.745860" lon="45.974810"><time>1970-01-01T00:00:01.000Z</time></trkpt>
			<trkpt lat="42.746170" lon="45.974480"><time>1970-01-01T00:00:01.000Z</time></trkpt>
			<trkpt lat="42.746320" lon="45.974370"><time>1970-01-01T00:00:01.000Z</time></trkpt>
			<trkpt lat="42.746490" lon="45.974310"><time>1970-01-01T00:00:01.000Z</time></trkpt>
			<trkpt lat="42.746600" lon="45.974380"><time>1970-01-01T00:00:01.000Z</time></trkpt>
			<trkpt lat="42.746630" lon="45.974580"><time>1970-01-01T00:00:01.000Z</time></trkpt>
			<trkpt lat="42.746710" lon="45.974700"><time>1970-01-01T00:00:01.000Z</time></trkpt>
			<trkpt lat="42.746970" lon="45.974850"><time>1970-01-01T00:00:01.000Z</time></trkpt>
			<trkpt lat="42.747090" lon="45.975100"><time>1970-01-01T00:00:01.000Z</time></trkpt>
			<trkpt lat="42.747380" lon="45.975100"><time>1970-01-01T00:00:01.000Z</time></trkpt>
			<trkpt lat="42.747630" lon="45.975010"><time>1970-01-01T00:00:01.000Z</time></trkpt>
			<trkpt lat="42.748200" lon="45.974520"><time>1970-01-01T00:00:01.000Z</time></trkpt>
			<trkpt lat="42.748300" lon="45.974380"><time>1970-01-01T00:00:01.000Z</time></trkpt>
			<trkpt lat="42.748970" lon="45.974210"><time>1970-01-01T00:00:01.000Z</time></trkpt>
			<trkpt lat="42.749330" lon="45.974170"><time>1970-01-01T00:00:01.000Z</time></trkpt>
			<trkpt lat="42.749540" lon="45.974210"><time>1970-01-01T00:00:01.000Z</time></trkpt>
			<trkpt lat="42.749780" lon="45.974410"><time>1970-01-01T00:00:01.000Z</time></trkpt>
			<trkpt lat="42.750040" lon="45.974500"><time>1970-01-01T00:00:01.000Z</time></trkpt>
			<trkpt lat="42.750490" lon="45.974760"><time>1970-01-01T00:00:01.000Z</time></trkpt>
			<trkpt lat="42.751200" lon="45.974920"><time>1970-01-01T00:00:01.000Z</time></trkpt>
			<trkpt lat="42.751710" lon="45.975110"><time>1970-01-01T00:00:01.000Z</time></trkpt>
			<trkpt lat="42.751930" lon="45.974970"><time>1970-01-01T00:00:01.000Z</time></trkpt>
			<trkpt lat="42.752040" lon="45.974780"><time>1970-01-01T00:00:01.000Z</time></trkpt>
			<trkpt lat="42.752100" lon="45.974590"><time>1970-01-01T00:00:01.000Z</time></trkpt>
			<trkpt lat="42.752100" lon="45.974270"><time>1970-01-01T00:00:01.000Z</time></trkpt>
			<trkpt lat="42.752040" lon="45.974070"><time>1970-01-01T00:00:01.000Z</time></trkpt>
			<trkpt lat="42.751860" lon="45.973770"><time>1970-01-01T00:00:01.000Z</time></trkpt>
			<trkpt lat="42.751790" lon="45.973460"><time>1970-01-01T00:00:01.000Z</time></trkpt>
			<trkpt lat="42.751780" lon="45.973110"><time>1970-01-01T00:00:01.000Z</time></trkpt>
			<trkpt lat="42.751870" lon="45.972810"><time>1970-01-01T00:00:01.000Z</time></trkpt>
			<trkpt lat="42.752010" lon="45.972090"><time>1970-01-01T00:00:01.000Z</time></trkpt>
			<trkpt lat="42.752580" lon="45.972160"><time>1970-01-01T00:00:01.000Z</time></trkpt>
			<trkpt lat="42.752830" lon="45.972120"><time>1970-01-01T00:00:01.000Z</time></trkpt>
			<trkpt lat="42.753140" lon="45.971960"><time>1970-01-01T00:00:01.000Z</time></trkpt>
			<trkpt lat="42.753320" lon="45.971790"><time>1970-01-01T00:00:01.000Z</time></trkpt>
			<trkpt lat="42.753550" lon="45.971750"><time>1970-01-01T00:00:01.000Z</time></trkpt>
			<trkpt lat="42.753810" lon="45.971600"><time>1970-01-01T00:00:01.000Z</time></trkpt>
			<trkpt lat="42.754060" lon="45.971350"><time>1970-01-01T00:00:01.000Z</time></trkpt>
			<trkpt lat="42.754200" lon="45.971020"><time>1970-01-01T00:00:01.000Z</time></trkpt>
			<trkpt lat="42.754210" lon="45.970780"><time>1970-01-01T00:00:01.000Z</time></trkpt>
			<trkpt lat="42.754150" lon="45.970610"><time>1970-01-01T00:00:01.000Z</time></trkpt>
			<trkpt lat="42.754040" lon="45.970510"><time>1970-01-01T00:00:01.000Z</time></trkpt>
			<trkpt lat="42.753750" lon="45.970090"><time>1970-01-01T00:00:01.000Z</time></trkpt>
			<trkpt lat="42.753770" lon="45.969880"><time>1970-01-01T00:00:01.000Z</time></trkpt>
			<trkpt lat="42.753890" lon="45.969730"><time>1970-01-01T00:00:01.000Z</time></trkpt>
			<trkpt lat="42.754250" lon="45.969430"><time>1970-01-01T00:00:01.000Z</time></trkpt>
			<trkpt lat="42.754580" lon="45.969360"><time>1970-01-01T00:00:01.000Z</time></trkpt>
			<trkpt lat="42.754750" lon="45.969100"><time>1970-01-01T00:00:01.000Z</time></trkpt>
			<trkpt lat="42.754870" lon="45.968700"><time>1970-01-01T00:00:01.000Z</time></trkpt>
			<trkpt lat="42.755080" lon="45.968420"><time>1970-01-01T00:00:01.000Z</time></trkpt>
			<trkpt lat="42.755160" lon="45.968230"><time>1970-01-01T00:00:01.000Z</time></trkpt>
			<trkpt lat="42.755250" lon="45.968190"><time>1970-01-01T00:00:01.000Z</time></trkpt>
			<trkpt lat="42.755400" lon="45.968020"><time>1970-01-01T00:00:01.000Z</time></trkpt>
			<trkpt lat="42.755500" lon="45.967830"><time>1970-01-01T00:00:01.000Z</time></trkpt>
			<trkpt lat="42.756110" lon="45.967220"><time>1970-01-01T00:00:01.000Z</time></trkpt>
			<trkpt lat="42.756130" lon="45.967140"><time>1970-01-01T00:00:01.000Z</time></trkpt>
			<trkpt lat="42.756240" lon="45.967000"><time>1970-01-01T00:00:01.000Z</time></trkpt>
			<trkpt lat="42.756990" lon="45.966120"><time>1970-01-01T00:00:01.000Z</time></trkpt>
			<trkpt lat="42.757240" lon="45.965900"><time>1970-01-01T00:00:01.000Z</time></trkpt>
			<trkpt lat="42.757420" lon="45.965630"><time>1970-01-01T00:00:01.000Z</time></trkpt>
			<trkpt lat="42.757460" lon="45.965020"><time>1970-01-01T00:00:01.000Z</time></trkpt>
			<trkpt lat="42.757430" lon="45.964590"><time>1970-01-01T00:00:01.000Z</time></trkpt>
			<trkpt lat="42.757360" lon="45.964240"><time>1970-01-01T00:00:01.000Z</time></trkpt>
			<trkpt lat="42.757470" lon="45.963830"><time>1970-01-01T00:00:01.000Z</time></trkpt>
			<trkpt lat="42.757420" lon="45.963400"><time>1970-01-01T00:00:01.000Z</time></trkpt>
			<trkpt lat="42.757450" lon="45.963340"><time>1970-01-01T00:00:01.000Z</time></trkpt>
			<trkpt lat="42.757620" lon="45.963380"><time>1970-01-01T00:00:01.000Z</time></trkpt>
			<trkpt lat="42.759160" lon="45.964790"><time>1970-01-01T00:00:01.000Z</time></trkpt>
			<trkpt lat="42.759290" lon="45.964790"><time>1970-01-01T00:00:01.000Z</time></trkpt>
			<trkpt lat="42.759470" lon="45.964560"><time>1970-01-01T00:00:01.000Z</time></trkpt>
			<trkpt lat="42.759640" lon="45.964230"><time>1970-01-01T00:00:01.000Z</time></trkpt>
			<trkpt lat="42.760110" lon="45.963580"><time>1970-01-01T00:00:01.000Z</time></trkpt>
			<trkpt lat="42.760660" lon="45.963270"><time>1970-01-01T00:00:01.000Z</time></trkpt>
			<trkpt lat="42.760740" lon="45.963050"><time>1970-01-01T00:00:01.000Z</time></trkpt>
			<trkpt lat="42.760780" lon="45.962810"><time>1970-01-01T00:00:01.000Z</time></trkpt>
			<trkpt lat="42.760730" lon="45.962270"><time>1970-01-01T00:00:01.000Z</time></trkpt>
			<trkpt lat="42.760990" lon="45.962290"><time>1970-01-01T00:00:01.000Z</time></trkpt>
			<trkpt lat="42.761160" lon="45.962590"><time>1970-01-01T00:00:01.000Z</time></trkpt>
			<trkpt lat="42.761260" lon="45.962630"><time>1970-01-01T00:00:01.000Z</time></trkpt>
			<trkpt lat="42.761300" lon="45.961860"><time>1970-01-01T00:00:01.000Z</time></trkpt>
			<trkpt lat="42.761060" lon="45.961410"><time>1970-01-01T00:00:01.000Z</time></trkpt>
			<trkpt lat="42.761130" lon="45.961340"><time>1970-01-01T00:00:01.000Z</time></trkpt>
			<trkpt lat="42.761930" lon="45.961150"><time>1970-01-01T00:00:01.000Z</time></trkpt>
			<trkpt lat="42.762180" lon="45.960850"><time>1970-01-01T00:00:01.000Z</time></trkpt>
			<trkpt lat="42.762240" lon="45.960640"><time>1970-01-01T00:00:01.000Z</time></trkpt>
			<trkpt lat="42.762380" lon="45.960540"><time>1970-01-01T00:00:01.000Z</time></trkpt>
			<trkpt lat="42.762370" lon="45.960120"><time>1970-01-01T00:00:01.000Z</time></trkpt>
			<trkpt lat="42.762570" lon="45.959690"><time>1970-01-01T00:00:01.000Z</time></trkpt>
			<trkpt lat="42.762750" lon="45.959480"><time>1970-01-01T00:00:01.000Z</time></trkpt>
			<trkpt lat="42.762780" lon="45.959370"><time>1970-01-01T00:00:01.000Z</time></trkpt>
			<trkpt lat="42.762780" lon="45.958900"><time>1970-01-01T00:00:01.000Z</time></trkpt>
			<trkpt lat="42.762930" lon="45.958490"><time>1970-01-01T00:00:01.000Z</time></trkpt>
			<trkpt lat="42.763400" lon="45.956580"><time>1970-01-01T00:00:01.000Z</time></trkpt>
			<trkpt lat="42.763460" lon="45.955560"><time>1970-01-01T00:00:01.000Z</time></trkpt>
			<trkpt lat="42.763390" lon="45.954870"><time>1970-01-01T00:00:01.000Z</time></trkpt>
			<trkpt lat="42.763440" lon="45.954800"><time>1970-01-01T00:00:01.000Z</time></trkpt>
			<trkpt lat="42.764940" lon="45.955920"><time>1970-01-01T00:00:01.000Z</time></trkpt>
			<trkpt lat="42.765010" lon="45.956050"><time>1970-01-01T00:00:01.000Z</time></trkpt>
			<trkpt lat="42.765050" lon="45.956180"><time>1970-01-01T00:00:01.000Z</time></trkpt>
			<trkpt lat="42.765050" lon="45.956360"><time>1970-01-01T00:00:01.000Z</time></trkpt>
			<trkpt lat="42.764960" lon="45.956750"><time>1970-01-01T00:00:01.000Z</time></trkpt>
			<trkpt lat="42.764970" lon="45.956880"><time>1970-01-01T00:00:01.000Z</time></trkpt>
			<trkpt lat="42.765460" lon="45.957410"><time>1970-01-01T00:00:01.000Z</time></trkpt>
			<trkpt lat="42.765540" lon="45.957590"><time>1970-01-01T00:00:01.000Z</time></trkpt>
			<trkpt lat="42.765590" lon="45.958080"><time>1970-01-01T00:00:01.000Z</time></trkpt>
			<trkpt lat="42.765730" lon="45.958350"><time>1970-01-01T00:00:01.000Z</time></trkpt>
			<trkpt lat="42.765940" lon="45.959010"><time>1970-01-01T00:00:01.000Z</time></trkpt>
			<trkpt lat="42.766100" lon="45.959220"><time>1970-01-01T00:00:01.000Z</time></trkpt>
			<trkpt lat="42.766200" lon="45.959440"><time>1970-01-01T00:00:01.000Z</time></trkpt>
			<trkpt lat="42.766660" lon="45.960070"><time>1970-01-01T00:00:01.000Z</time></trkpt>
			<trkpt lat="42.767120" lon="45.960880"><time>1970-01-01T00:00:01.000Z</time></trkpt>
			<trkpt lat="42.767450" lon="45.961350"><time>1970-01-01T00:00:01.000Z</time></trkpt>
			<trkpt lat="42.767840" lon="45.962110"><time>1970-01-01T00:00:01.000Z</time></trkpt>
			<trkpt lat="42.768210" lon="45.963420"><time>1970-01-01T00:00:01.000Z</time></trkpt>
			<trkpt lat="42.768490" lon="45.964160"><time>1970-01-01T00:00:01.000Z</time></trkpt>
			<trkpt lat="42.768530" lon="45.964460"><time>1970-01-01T00:00:01.000Z</time></trkpt>
			<trkpt lat="42.769020" lon="45.964680"><time>1970-01-01T00:00:01.000Z</time></trkpt>
			<trkpt lat="42.769230" lon="45.964730"><time>1970-01-01T00:00:01.000Z</time></trkpt>
			<trkpt lat="42.769320" lon="45.964620"><time>1970-01-01T00:00:01.000Z</time></trkpt>
			<trkpt lat="42.769400" lon="45.964440"><time>1970-01-01T00:00:01.000Z</time></trkpt>
			<trkpt lat="42.769510" lon="45.964320"><time>1970-01-01T00:00:01.000Z</time></trkpt>
			<trkpt lat="42.769660" lon="45.964350"><time>1970-01-01T00:00:01.000Z</time></trkpt>
			<trkpt lat="42.769780" lon="45.964440"><time>1970-01-01T00:00:01.000Z</time></trkpt>
			<trkpt lat="42.769910" lon="45.964470"><time>1970-01-01T00:00:01.000Z</time></trkpt>
			<trkpt lat="42.770030" lon="45.964250"><time>1970-01-01T00:00:01.000Z</time></trkpt>
			<trkpt lat="42.770050" lon="45.964060"><time>1970-01-01T00:00:01.000Z</time></trkpt>
			<trkpt lat="42.770150" lon="45.963980"><time>1970-01-01T00:00:01.000Z</time></trkpt>
			<trkpt lat="42.770220" lon="45.963810"><time>1970-01-01T00:00:01.000Z</time></trkpt>
			<trkpt lat="42.770200" lon="45.963620"><time>1970-01-01T00:00:01.000Z</time></trkpt>
			<trkpt lat="42.770310" lon="45.962980"><time>1970-01-01T00:00:01.000Z</time></trkpt>
			<trkpt lat="42.770300" lon="45.962530"><time>1970-01-01T00:00:01.000Z</time></trkpt>
			<trkpt lat="42.770130" lon="45.961620"><time>1970-01-01T00:00:01.000Z</time></trkpt>
			<trkpt lat="42.769840" lon="45.960890"><time>1970-01-01T00:00:01.000Z</time></trkpt>
			<trkpt lat="42.769510" lon="45.960560"><time>1970-01-01T00:00:01.000Z</time></trkpt>
			<trkpt lat="42.769410" lon="45.960260"><time>1970-01-01T00:00:01.000Z</time></trkpt>
			<trkpt lat="42.769180" lon="45.959950"><time>1970-01-01T00:00:01.000Z</time></trkpt>
			<trkpt lat="42.768690" lon="45.958940"><time>1970-01-01T00:00:01.000Z</time></trkpt>
			<trkpt lat="42.768630" lon="45.958680"><time>1970-01-01T00:00:01.000Z</time></trkpt>
			<trkpt lat="42.768660" lon="45.957960"><time>1970-01-01T00:00:01.000Z</time></trkpt>
			<trkpt lat="42.768540" lon="45.957550"><time>1970-01-01T00:00:01.000Z</time></trkpt>
			<trkpt lat="42.768490" lon="45.957490"><time>1970-01-01T00:00:01.000Z</time></trkpt>
			<trkpt lat="42.768480" lon="45.957290"><time>1970-01-01T00:00:01.000Z</time></trkpt>
			<trkpt lat="42.768500" lon="45.957070"><time>1970-01-01T00:00:01.000Z</time></trkpt>
			<trkpt lat="42.768630" lon="45.956840"><time>1970-01-01T00:00:01.000Z</time></trkpt>
			<trkpt lat="42.768780" lon="45.956410"><time>1970-01-01T00:00:01.000Z</time></trkpt>
			<trkpt lat="42.768750" lon="45.955940"><time>1970-01-01T00:00:01.000Z</time></trkpt>
			<trkpt lat="42.768870" lon="45.955440"><time>1970-01-01T00:00:01.000Z</time></trkpt>
			<trkpt lat="42.768800" lon="45.955310"><time>1970-01-01T00:00:01.000Z</time></trkpt>
			<trkpt lat="42.768240" lon="45.955140"><time>1970-01-01T00:00:01.000Z</time></trkpt>
			<trkpt lat="42.768140" lon="45.955040"><time>1970-01-01T00:00:01.000Z</time></trkpt>
			<trkpt lat="42.768100" lon="45.954940"><time>1970-01-01T00:00:01.000Z</time></trkpt>
			<trkpt lat="42.768130" lon="45.954820"><time>1970-01-01T00:00:01.000Z</time></trkpt>
			<trkpt lat="42.768310" lon="45.954810"><time>1970-01-01T00:00:01.000Z</time></trkpt>
			<trkpt lat="42.768680" lon="45.954570"><time>1970-01-01T00:00:01.000Z</time></trkpt>
			<trkpt lat="42.768750" lon="45.954590"><time>1970-01-01T00:00:01.000Z</time></trkpt>
			<trkpt lat="42.769050" lon="45.954540"><time>1970-01-01T00:00:01.000Z</time></trkpt>
			<trkpt lat="42.769120" lon="45.954490"><time>1970-01-01T00:00:01.000Z</time></trkpt>
			<trkpt lat="42.769100" lon="45.954440"><time>1970-01-01T00:00:01.000Z</time></trkpt>
			<trkpt lat="42.769030" lon="45.954410"><time>1970-01-01T00:00:01.000Z</time></trkpt>
			<trkpt lat="42.768830" lon="45.953890"><time>1970-01-01T00:00:01.000Z</time></trkpt>
			<trkpt lat="42.768520" lon="45.953740"><time>1970-01-01T00:00:01.000Z</time></trkpt>
			<trkpt lat="42.768300" lon="45.953440"><time>1970-01-01T00:00:01.000Z</time></trkpt>
			<trkpt lat="42.768170" lon="45.953060"><time>1970-01-01T00:00:01.000Z</time></trkpt>
			<trkpt lat="42.768140" lon="45.952660"><time>1970-01-01T00:00:01.000Z</time></trkpt>
			<trkpt lat="42.767930" lon="45.952220"><time>1970-01-01T00:00:01.000Z</time></trkpt>
			<trkpt lat="42.767750" lon="45.952240"><time>1970-01-01T00:00:01.000Z</time></trkpt>
			<trkpt lat="42.767430" lon="45.952440"><time>1970-01-01T00:00:01.000Z</time></trkpt>
			<trkpt lat="42.767150" lon="45.952160"><time>1970-01-01T00:00:01.000Z</time></trkpt>
			<trkpt lat="42.766730" lon="45.951520"><time>1970-01-01T00:00:01.000Z</time></trkpt>
			<trkpt lat="42.766360" lon="45.950820"><time>1970-01-01T00:00:01.000Z</time></trkpt>
			<trkpt lat="42.766020" lon="45.950630"><time>1970-01-01T00:00:01.000Z</time></trkpt>
			<trkpt lat="42.764840" lon="45.950130"><time>1970-01-01T00:00:01.000Z</time></trkpt>
			<trkpt lat="42.764550" lon="45.950050"><time>1970-01-01T00:00:01.000Z</time></trkpt>
			<trkpt lat="42.764340" lon="45.950050"><time>1970-01-01T00:00:01.000Z</time></trkpt>
			<trkpt lat="42.764080" lon="45.949890"><time>1970-01-01T00:00:01.000Z</time></trkpt>
			<trkpt lat="42.763740" lon="45.949740"><time>1970-01-01T00:00:01.000Z</time></trkpt>
			<trkpt lat="42.763400" lon="45.949380"><time>1970-01-01T00:00:01.000Z</time></trkpt>
			<trkpt lat="42.762730" lon="45.949250"><time>1970-01-01T00:00:01.000Z</time></trkpt>
			<trkpt lat="42.761990" lon="45.949240"><time>1970-01-01T00:00:01.000Z</time></trkpt>
			<trkpt lat="42.761610" lon="45.949140"><time>1970-01-01T00:00:01.000Z</time></trkpt>
			<trkpt lat="42.761380" lon="45.948970"><time>1970-01-01T00:00:01.000Z</time></trkpt>
			<trkpt lat="42.760800" lon="45.948030"><time>1970-01-01T00:00:01.000Z</time></trkpt>
			<trkpt lat="42.760560" lon="45.948010"><time>1970-01-01T00:00:01.000Z</time></trkpt>
			<trkpt lat="42.760320" lon="45.947830"><time>1970-01-01T00:00:01.000Z</time></trkpt>
			<trkpt lat="42.760070" lon="45.948080"><time>1970-01-01T00:00:01.000Z</time></trkpt>
			<trkpt lat="42.759960" lon="45.948300"><time>1970-01-01T00:00:01.000Z</time></trkpt>
			<trkpt lat="42.759670" lon="45.948040"><time>1970-01-01T00:00:01.000Z</time></trkpt>
			<trkpt lat="42.759582" lon="45.947885"><time>1970-01-01T00:00:01.000Z</time></trkpt>
		</trkseg>
	</trk>
</gpx>