<?xml version="1.0" encoding="UTF-8"?>
<gpx xmlns="http://www.topografix.com/GPX/1/1" version="1.1" creator="http://nakarte.me">
	<metadata>
		<author></author>
	</metadata>
	<wpt lat="54.114799" lon="55.721622">
		<name>Пещера</name>
	</wpt>
	<wpt lat="54.112843" lon="55.725946">
		<name>Старт\Финиш</name>
	</wpt>
	<wpt lat="54.121458" lon="55.701628">
		<name>Родник</name>
	</wpt>
	<wpt lat="54.124144" lon="55.681071">
		<name>Стоянка</name>
	</wpt>
	<wpt lat="54.127664" lon="55.672188">
		<name>Стоянка</name>
	</wpt>
	<wpt lat="54.127036" lon="55.679955">
		<name>Стоянка</name>
	</wpt>
	<wpt lat="54.140493" lon="55.604639">
		<name>Стоянка</name>
	</wpt>
	<wpt lat="54.141951" lon="55.598202">
		<name>Стоянка</name>
	</wpt>
	<trk>
		<name>Аургазинские скальники редактирование</name>
		<trkseg>
			<trkpt lat="54.112836" lon="55.725961">
				<ele>133</ele>
				<time>1970-01-01T00:00:01Z</time>
			</trkpt>
			<trkpt lat="54.113296" lon="55.724416">
				<ele>132.00800000000004</ele>
				<time>1970-01-01T00:00:01Z</time>
			</trkpt>
			<trkpt lat="54.113321" lon="55.723493">
				<ele>131.41600000000003</ele>
				<time>1970-01-01T00:00:01Z</time>
			</trkpt>
			<trkpt lat="54.113535" lon="55.723064">
				<ele>130.48000000000002</ele>
				<time>1970-01-01T00:00:01Z</time>
			</trkpt>
			<trkpt lat="54.114277" lon="55.721927">
				<ele>130.17600000000002</ele>
				<time>1970-01-01T00:00:01Z</time>
			</trkpt>
			<trkpt lat="54.115157" lon="55.721497">
				<ele>129.4</ele>
				<time>1970-01-01T00:00:01Z</time>
			</trkpt>
			<trkpt lat="54.115472" lon="55.721283">
				<ele>128.84000000000003</ele>
				<time>1970-01-01T00:00:01Z</time>
			</trkpt>
			<trkpt lat="54.115774" lon="55.720982">
				<ele>127.94400000000002</ele>
				<time>1970-01-01T00:00:01Z</time>
			</trkpt>
			<trkpt lat="54.115975" lon="55.720639">
				<ele>127.00000000000003</ele>
				<time>1970-01-01T00:00:01Z</time>
			</trkpt>
			<trkpt lat="54.116226" lon="55.719888">
				<ele>126.24800000000002</ele>
				<time>1970-01-01T00:00:01Z</time>
			</trkpt>
			<trkpt lat="54.116678" lon="55.719859">
				<ele>125.76800000000003</ele>
				<time>1970-01-01T00:00:01Z</time>
			</trkpt>
			<trkpt lat="54.117346" lon="55.719513">
				<ele>126.31200000000003</ele>
				<time>1970-01-01T00:00:01Z</time>
			</trkpt>
			<trkpt lat="54.117726" lon="55.719322">
				<ele>127.03200000000002</ele>
				<time>1970-01-01T00:00:01Z</time>
			</trkpt>
			<trkpt lat="54.118092" lon="55.718693">
				<ele>128.76000000000005</ele>
				<time>1970-01-01T00:00:01Z</time>
			</trkpt>
			<trkpt lat="54.118567" lon="55.717724">
				<ele>129.67200000000003</ele>
				<time>1970-01-01T00:00:01Z</time>
			</trkpt>
			<trkpt lat="54.118875" lon="55.717421">
				<ele>130.45600000000002</ele>
				<time>1970-01-01T00:00:01Z</time>
			</trkpt>
			<trkpt lat="54.119101" lon="55.716991">
				<ele>129.848</ele>
				<time>1970-01-01T00:00:01Z</time>
			</trkpt>
			<trkpt lat="54.119453" lon="55.716133">
				<ele>128.92000000000002</ele>
				<time>1970-01-01T00:00:01Z</time>
			</trkpt>
			<trkpt lat="54.11968" lon="55.715275">
				<ele>128.64800000000002</ele>
				<time>1970-01-01T00:00:01Z</time>
			</trkpt>
			<trkpt lat="54.119982" lon="55.714459">
				<ele>130.264</ele>
				<time>1970-01-01T00:00:01Z</time>
			</trkpt>
			<trkpt lat="54.120496" lon="55.713468">
				<ele>134.20000000000002</ele>
				<time>1970-01-01T00:00:01Z</time>
			</trkpt>
			<trkpt lat="54.120848" lon="55.71261">
				<ele>138.39200000000002</ele>
				<time>1970-01-01T00:00:01Z</time>
			</trkpt>
			<trkpt lat="54.121164" lon="55.711198">
				<ele>141.08</ele>
				<time>1970-01-01T00:00:01Z</time>
			</trkpt>
			<trkpt lat="54.121415" lon="55.709824">
				<ele>140.27200000000002</ele>
				<time>1970-01-01T00:00:01Z</time>
			</trkpt>
			<trkpt lat="54.122005" lon="55.707503">
				<ele>137.44</ele>
				<time>1970-01-01T00:00:01Z</time>
			</trkpt>
			<trkpt lat="54.122156" lon="55.706344">
				<ele>133.94400000000002</ele>
				<time>1970-01-01T00:00:01Z</time>
			</trkpt>
			<trkpt lat="54.12217" lon="55.704031">
				<ele>132.12800000000001</ele>
				<time>1970-01-01T00:00:01Z</time>
			</trkpt>
			<trkpt lat="54.121678" lon="55.701881">
				<ele>131.46400000000003</ele>
				<time>1970-01-01T00:00:01Z</time>
			</trkpt>
			<trkpt lat="54.121541" lon="55.700254">
				<ele>132.56000000000003</ele>
				<time>1970-01-01T00:00:01Z</time>
			</trkpt>
			<trkpt lat="54.122226" lon="55.697744">
				<ele>133.20000000000005</ele>
				<time>1970-01-01T00:00:01Z</time>
			</trkpt>
			<trkpt lat="54.123629" lon="55.69416">
				<ele>134.66400000000002</ele>
				<time>1970-01-01T00:00:01Z</time>
			</trkpt>
			<trkpt lat="54.123729" lon="55.693345">
				<ele>135.144</ele>
				<time>1970-01-01T00:00:01Z</time>
			</trkpt>
			<trkpt lat="54.123629" lon="55.692487">
				<ele>135.58400000000003</ele>
				<time>1970-01-01T00:00:01Z</time>
			</trkpt>
			<trkpt lat="54.123578" lon="55.691585">
				<ele>135.04800000000003</ele>
				<time>1970-01-01T00:00:01Z</time>
			</trkpt>
			<trkpt lat="54.123402" lon="55.690727">
				<ele>133.69600000000003</ele>
				<time>1970-01-01T00:00:01Z</time>
			</trkpt>
			<trkpt lat="54.123075" lon="55.68974">
				<ele>131.64000000000001</ele>
				<time>1970-01-01T00:00:01Z</time>
			</trkpt>
			<trkpt lat="54.123251" lon="55.688496">
				<ele>129.42400000000004</ele>
				<time>1970-01-01T00:00:01Z</time>
			</trkpt>
			<trkpt lat="54.123679" lon="55.686951">
				<ele>127.20000000000002</ele>
				<time>1970-01-01T00:00:01Z</time>
			</trkpt>
			<trkpt lat="54.123981" lon="55.686092">
				<ele>125.98400000000001</ele>
				<time>1970-01-01T00:00:01Z</time>
			</trkpt>
			<trkpt lat="54.124433" lon="55.685449">
				<ele>125.05600000000001</ele>
				<time>1970-01-01T00:00:01Z</time>
			</trkpt>
			<trkpt lat="54.124936" lon="55.684934">
				<ele>125.80800000000002</ele>
				<time>1970-01-01T00:00:01Z</time>
			</trkpt>
			<trkpt lat="54.125414" lon="55.684075">
				<ele>126.87200000000004</ele>
				<time>1970-01-01T00:00:01Z</time>
			</trkpt>
			<trkpt lat="54.125791" lon="55.68296">
				<ele>129.728</ele>
				<time>1970-01-01T00:00:01Z</time>
			</trkpt>
			<trkpt lat="54.126029" lon="55.681925">
				<ele>132.16000000000003</ele>
				<time>1970-01-01T00:00:01Z</time>
			</trkpt>
			<trkpt lat="54.126068" lon="55.681329">
				<ele>134.744</ele>
				<time>1970-01-01T00:00:01Z</time>
			</trkpt>
			<trkpt lat="54.126043" lon="55.680427">
				<ele>135.288</ele>
				<time>1970-01-01T00:00:01Z</time>
			</trkpt>
			<trkpt lat="54.126129" lon="55.679865">
				<ele>134.232</ele>
				<time>1970-01-01T00:00:01Z</time>
			</trkpt>
			<trkpt lat="54.126106" lon="55.678539">
				<ele>131.48800000000003</ele>
				<time>1970-01-01T00:00:01Z</time>
			</trkpt>
			<trkpt lat="54.126005" lon="55.677681">
				<ele>128.168</ele>
				<time>1970-01-01T00:00:01Z</time>
			</trkpt>
			<trkpt lat="54.125704" lon="55.676737">
				<ele>125.32000000000002</ele>
				<time>1970-01-01T00:00:01Z</time>
			</trkpt>
			<trkpt lat="54.125576" lon="55.675316">
				<ele>123.61600000000001</ele>
				<time>1970-01-01T00:00:01Z</time>
			</trkpt>
			<trkpt lat="54.125576" lon="55.674501">
				<ele>122.80000000000001</ele>
				<time>1970-01-01T00:00:01Z</time>
			</trkpt>
			<trkpt lat="54.125752" lon="55.673299">
				<ele>122.96000000000001</ele>
				<time>1970-01-01T00:00:01Z</time>
			</trkpt>
			<trkpt lat="54.125953" lon="55.671153">
				<ele>122.64000000000001</ele>
				<time>1970-01-01T00:00:01Z</time>
			</trkpt>
			<trkpt lat="54.126155" lon="55.669995">
				<ele>122.56000000000002</ele>
				<time>1970-01-01T00:00:01Z</time>
			</trkpt>
			<trkpt lat="54.126255" lon="55.669051">
				<ele>121.78400000000002</ele>
				<time>1970-01-01T00:00:01Z</time>
			</trkpt>
			<trkpt lat="54.126834" lon="55.666948">
				<ele>121.54400000000001</ele>
				<time>1970-01-01T00:00:01Z</time>
			</trkpt>
			<trkpt lat="54.12711" lon="55.665703">
				<ele>121.25600000000001</ele>
				<time>1970-01-01T00:00:01Z</time>
			</trkpt>
			<trkpt lat="54.127313" lon="55.664978">
				<ele>121.41600000000003</ele>
				<time>1970-01-01T00:00:01Z</time>
			</trkpt>
			<trkpt lat="54.127915" lon="55.663686">
				<ele>121.17600000000002</ele>
				<time>1970-01-01T00:00:01Z</time>
			</trkpt>
			<trkpt lat="54.128418" lon="55.662098">
				<ele>120.92000000000002</ele>
				<time>1970-01-01T00:00:01Z</time>
			</trkpt>
			<trkpt lat="54.129172" lon="55.660682">
				<ele>120.256</ele>
				<time>1970-01-01T00:00:01Z</time>
			</trkpt>
			<trkpt lat="54.1297" lon="55.659824">
				<ele>119.97600000000003</ele>
				<time>1970-01-01T00:00:01Z</time>
			</trkpt>
			<trkpt lat="54.129928" lon="55.659571">
				<ele>120.00800000000001</ele>
				<time>1970-01-01T00:00:01Z</time>
			</trkpt>
			<trkpt lat="54.130807" lon="55.657163">
				<ele>120.49600000000004</ele>
				<time>1970-01-01T00:00:01Z</time>
			</trkpt>
			<trkpt lat="54.131184" lon="55.656434">
				<ele>121.12000000000003</ele>
				<time>1970-01-01T00:00:01Z</time>
			</trkpt>
			<trkpt lat="54.131387" lon="55.655708">
				<ele>121.28800000000003</ele>
				<time>1970-01-01T00:00:01Z</time>
			</trkpt>
			<trkpt lat="54.131511" lon="55.654931">
				<ele>121.25600000000003</ele>
				<time>1970-01-01T00:00:01Z</time>
			</trkpt>
			<trkpt lat="54.131611" lon="55.653987">
				<ele>120.55200000000002</ele>
				<time>1970-01-01T00:00:01Z</time>
			</trkpt>
			<trkpt lat="54.131662" lon="55.652871">
				<ele>120.16800000000003</ele>
				<time>1970-01-01T00:00:01Z</time>
			</trkpt>
			<trkpt lat="54.131637" lon="55.651069">
				<ele>119.58400000000002</ele>
				<time>1970-01-01T00:00:01Z</time>
			</trkpt>
			<trkpt lat="54.131461" lon="55.650082">
				<ele>120.29600000000002</ele>
				<time>1970-01-01T00:00:01Z</time>
			</trkpt>
			<trkpt lat="54.131586" lon="55.64828">
				<ele>121.48000000000002</ele>
				<time>1970-01-01T00:00:01Z</time>
			</trkpt>
			<trkpt lat="54.131611" lon="55.647464">
				<ele>124.43200000000002</ele>
				<time>1970-01-01T00:00:01Z</time>
			</trkpt>
			<trkpt lat="54.131787" lon="55.646434">
				<ele>126.83200000000002</ele>
				<time>1970-01-01T00:00:01Z</time>
			</trkpt>
			<trkpt lat="54.131838" lon="55.645447">
				<ele>129.22400000000002</ele>
				<time>1970-01-01T00:00:01Z</time>
			</trkpt>
			<trkpt lat="54.13194" lon="55.644636">
				<ele>129.40800000000002</ele>
				<time>1970-01-01T00:00:01Z</time>
			</trkpt>
			<trkpt lat="54.132315" lon="55.643902">
				<ele>128.86400000000003</ele>
				<time>1970-01-01T00:00:01Z</time>
			</trkpt>
			<trkpt lat="54.133097" lon="55.64292">
				<ele>126.76800000000003</ele>
				<time>1970-01-01T00:00:01Z</time>
			</trkpt>
			<trkpt lat="54.133247" lon="55.640774">
				<ele>124.84800000000001</ele>
				<time>1970-01-01T00:00:01Z</time>
			</trkpt>
			<trkpt lat="54.133247" lon="55.63983">
				<ele>122.76000000000002</ele>
				<time>1970-01-01T00:00:01Z</time>
			</trkpt>
			<trkpt lat="54.133599" lon="55.638971">
				<ele>121.45600000000002</ele>
				<time>1970-01-01T00:00:01Z</time>
			</trkpt>
			<trkpt lat="54.134126" lon="55.638581">
				<ele>120.89600000000002</ele>
				<time>1970-01-01T00:00:01Z</time>
			</trkpt>
			<trkpt lat="54.134654" lon="55.637679">
				<ele>120.56000000000002</ele>
				<time>1970-01-01T00:00:01Z</time>
			</trkpt>
			<trkpt lat="54.134956" lon="55.636607">
				<ele>120.72000000000001</ele>
				<time>1970-01-01T00:00:01Z</time>
			</trkpt>
			<trkpt lat="54.135257" lon="55.635877">
				<ele>120.39200000000001</ele>
				<time>1970-01-01T00:00:01Z</time>
			</trkpt>
			<trkpt lat="54.13546" lon="55.635109">
				<ele>120.432</ele>
				<time>1970-01-01T00:00:01Z</time>
			</trkpt>
			<trkpt lat="54.135862" lon="55.633993">
				<ele>120.19200000000001</ele>
				<time>1970-01-01T00:00:01Z</time>
			</trkpt>
			<trkpt lat="54.136288" lon="55.633345">
				<ele>120.304</ele>
				<time>1970-01-01T00:00:01Z</time>
			</trkpt>
			<trkpt lat="54.137168" lon="55.632487">
				<ele>120.328</ele>
				<time>1970-01-01T00:00:01Z</time>
			</trkpt>
			<trkpt lat="54.137522" lon="55.632276">
				<ele>120.56000000000002</ele>
				<time>1970-01-01T00:00:01Z</time>
			</trkpt>
			<trkpt lat="54.137998" lon="55.632186">
				<ele>120.89600000000002</ele>
				<time>1970-01-01T00:00:01Z</time>
			</trkpt>
			<trkpt lat="54.138425" lon="55.632015">
				<ele>121.32800000000003</ele>
				<time>1970-01-01T00:00:01Z</time>
			</trkpt>
			<trkpt lat="54.138779" lon="55.63159">
				<ele>122.41600000000003</ele>
				<time>1970-01-01T00:00:01Z</time>
			</trkpt>
			<trkpt lat="54.139104" lon="55.630942">
				<ele>123.58400000000003</ele>
				<time>1970-01-01T00:00:01Z</time>
			</trkpt>
			<trkpt lat="54.139406" lon="55.630083">
				<ele>125.94400000000003</ele>
				<time>1970-01-01T00:00:01Z</time>
			</trkpt>
			<trkpt lat="54.140839" lon="55.626994">
				<ele>127.85600000000002</ele>
				<time>1970-01-01T00:00:01Z</time>
			</trkpt>
			<trkpt lat="54.141142" lon="55.626268">
				<ele>130.40000000000003</ele>
				<time>1970-01-01T00:00:01Z</time>
			</trkpt>
			<trkpt lat="54.141695" lon="55.624552">
				<ele>132.23200000000003</ele>
				<time>1970-01-01T00:00:01Z</time>
			</trkpt>
			<trkpt lat="54.141896" lon="55.624123">
				<ele>134.08800000000002</ele>
				<time>1970-01-01T00:00:01Z</time>
			</trkpt>
			<trkpt lat="54.141695" lon="55.623007">
				<ele>135.824</ele>
				<time>1970-01-01T00:00:01Z</time>
			</trkpt>
			<trkpt lat="54.141744" lon="55.620814">
				<ele>137.104</ele>
				<time>1970-01-01T00:00:01Z</time>
			</trkpt>
			<trkpt lat="54.141846" lon="55.619488">
				<ele>138.096</ele>
				<time>1970-01-01T00:00:01Z</time>
			</trkpt>
			<trkpt lat="54.14197" lon="55.618368">
				<ele>138.52800000000002</ele>
				<time>1970-01-01T00:00:01Z</time>
			</trkpt>
			<trkpt lat="54.142272" lon="55.616308">
				<ele>138.448</ele>
				<time>1970-01-01T00:00:01Z</time>
			</trkpt>
			<trkpt lat="54.142347" lon="55.615364">
				<ele>138.856</ele>
				<time>1970-01-01T00:00:01Z</time>
			</trkpt>
			<trkpt lat="54.142573" lon="55.614333">
				<ele>139.22400000000002</ele>
				<time>1970-01-01T00:00:01Z</time>
			</trkpt>
			<trkpt lat="54.1426" lon="55.613394">
				<ele>140.76000000000002</ele>
				<time>1970-01-01T00:00:01Z</time>
			</trkpt>
			<trkpt lat="54.142774" lon="55.612917">
				<ele>142.16000000000003</ele>
				<time>1970-01-01T00:00:01Z</time>
			</trkpt>
			<trkpt lat="54.142902" lon="55.612106">
				<ele>143.38400000000004</ele>
				<time>1970-01-01T00:00:01Z</time>
			</trkpt>
			<trkpt lat="54.14255" lon="55.610819">
				<ele>143.39200000000005</ele>
				<time>1970-01-01T00:00:01Z</time>
			</trkpt>
			<trkpt lat="54.141846" lon="55.609703">
				<ele>141.06400000000002</ele>
				<time>1970-01-01T00:00:01Z</time>
			</trkpt>
			<trkpt lat="54.141293" lon="55.608673">
				<ele>138.21600000000004</ele>
				<time>1970-01-01T00:00:01Z</time>
			</trkpt>
			<trkpt lat="54.14104" lon="55.607682">
				<ele>133.376</ele>
				<time>1970-01-01T00:00:01Z</time>
			</trkpt>
			<trkpt lat="54.140639" lon="55.606828">
				<ele>130.8</ele>
				<time>1970-01-01T00:00:01Z</time>
			</trkpt>
			<trkpt lat="54.140382" lon="55.606064">
				<ele>127.23200000000001</ele>
				<time>1970-01-01T00:00:01Z</time>
			</trkpt>
			<trkpt lat="54.140674" lon="55.604673">
				<ele>126.26400000000002</ele>
				<time>1970-01-01T00:00:01Z</time>
			</trkpt>
			<trkpt lat="54.14093" lon="55.602691">
				<ele>123.88800000000002</ele>
				<time>1970-01-01T00:00:01Z</time>
			</trkpt>
			<trkpt lat="54.141297" lon="55.60033">
				<ele>122.85600000000002</ele>
				<time>1970-01-01T00:00:01Z</time>
			</trkpt>
			<trkpt lat="54.141709" lon="55.598545">
				<ele>120.80800000000002</ele>
				<time>1970-01-01T00:00:01Z</time>
			</trkpt>
			<trkpt lat="54.142333" lon="55.597455">
				<ele>119.78400000000002</ele>
				<time>1970-01-01T00:00:01Z</time>
			</trkpt>
			<trkpt lat="54.143057" lon="55.596914">
				<ele>118.77600000000002</ele>
				<time>1970-01-01T00:00:01Z</time>
			</trkpt>
			<trkpt lat="54.143907" lon="55.596056">
				<ele>118.64800000000001</ele>
				<time>1970-01-01T00:00:01Z</time>
			</trkpt>
			<trkpt lat="54.144812" lon="55.595026">
				<ele>119.016</ele>
				<time>1970-01-01T00:00:01Z</time>
			</trkpt>
			<trkpt lat="54.145338" lon="55.594721">
				<ele>119.944</ele>
				<time>1970-01-01T00:00:01Z</time>
			</trkpt>
			<trkpt lat="54.145917" lon="55.594507">
				<ele>121.36000000000001</ele>
				<time>1970-01-01T00:00:01Z</time>
			</trkpt>
			<trkpt lat="54.146897" lon="55.594807">
				<ele>123.06400000000002</ele>
				<time>1970-01-01T00:00:01Z</time>
			</trkpt>
			<trkpt lat="54.147324" lon="55.595193">
				<ele>125.05600000000004</ele>
				<time>1970-01-01T00:00:01Z</time>
			</trkpt>
			<trkpt lat="54.147577" lon="55.595627">
				<ele>127.28800000000001</ele>
				<time>1970-01-01T00:00:01Z</time>
			</trkpt>
			<trkpt lat="54.147902" lon="55.596331">
				<ele>129.60000000000002</ele>
				<time>1970-01-01T00:00:01Z</time>
			</trkpt>
			<trkpt lat="54.14818" lon="55.597172">
				<ele>131.69600000000003</ele>
				<time>1970-01-01T00:00:01Z</time>
			</trkpt>
			<trkpt lat="54.148178" lon="55.598176">
				<ele>133.336</ele>
				<time>1970-01-01T00:00:01Z</time>
			</trkpt>
			<trkpt lat="54.147952" lon="55.599077">
				<ele>134.17600000000002</ele>
				<time>1970-01-01T00:00:01Z</time>
			</trkpt>
			<trkpt lat="54.147477" lon="55.599747">
				<ele>134.68</ele>
				<time>1970-01-01T00:00:01Z</time>
			</trkpt>
			<trkpt lat="54.147072" lon="55.600279">
				<ele>134.82400000000004</ele>
				<time>1970-01-01T00:00:01Z</time>
			</trkpt>
			<trkpt lat="54.146117" lon="55.601051">
				<ele>135.12000000000003</ele>
				<time>1970-01-01T00:00:01Z</time>
			</trkpt>
			<trkpt lat="54.145665" lon="55.60148">
				<ele>135.69600000000003</ele>
				<time>1970-01-01T00:00:01Z</time>
			</trkpt>
			<trkpt lat="54.145315" lon="55.601892">
				<ele>136.60800000000003</ele>
				<time>1970-01-01T00:00:01Z</time>
			</trkpt>
			<trkpt lat="54.14471" lon="55.60294">
				<ele>138.01600000000002</ele>
				<time>1970-01-01T00:00:01Z</time>
			</trkpt>
			<trkpt lat="54.144081" lon="55.603884">
				<ele>140.12</ele>
				<time>1970-01-01T00:00:01Z</time>
			</trkpt>
			<trkpt lat="54.143706" lon="55.604467">
				<ele>142.62400000000002</ele>
				<time>1970-01-01T00:00:01Z</time>
			</trkpt>
			<trkpt lat="54.143754" lon="55.605042">
				<ele>145.93600000000004</ele>
				<time>1970-01-01T00:00:01Z</time>
			</trkpt>
			<trkpt lat="54.143679" lon="55.606845">
				<ele>148.312</ele>
				<time>1970-01-01T00:00:01Z</time>
			</trkpt>
			<trkpt lat="54.143656" lon="55.609274">
				<ele>149.984</ele>
				<time>1970-01-01T00:00:01Z</time>
			</trkpt>
			<trkpt lat="54.143553" lon="55.609849">
				<ele>149.08800000000002</ele>
				<time>1970-01-01T00:00:01Z</time>
			</trkpt>
			<trkpt lat="54.143277" lon="55.610836">
				<ele>147.38400000000001</ele>
				<time>1970-01-01T00:00:01Z</time>
			</trkpt>
			<trkpt lat="54.143103" lon="55.611935">
				<ele>144.55200000000002</ele>
				<time>1970-01-01T00:00:01Z</time>
			</trkpt>
			<trkpt lat="54.142774" lon="55.612917">
				<ele>142.32</ele>
				<time>1970-01-01T00:00:01Z</time>
			</trkpt>
			<trkpt lat="54.1426" lon="55.613394">
				<ele>140.568</ele>
				<time>1970-01-01T00:00:01Z</time>
			</trkpt>
			<trkpt lat="54.142573" lon="55.614333">
				<ele>139.352</ele>
				<time>1970-01-01T00:00:01Z</time>
			</trkpt>
			<trkpt lat="54.142347" lon="55.615364">
				<ele>139.048</ele>
				<time>1970-01-01T00:00:01Z</time>
			</trkpt>
			<trkpt lat="54.142272" lon="55.616308">
				<ele>138.92800000000003</ele>
				<time>1970-01-01T00:00:01Z</time>
			</trkpt>
			<trkpt lat="54.142047" lon="55.617771">
				<ele>139.18400000000003</ele>
				<time>1970-01-01T00:00:01Z</time>
			</trkpt>
			<trkpt lat="54.141846" lon="55.619488">
				<ele>138.89600000000004</ele>
				<time>1970-01-01T00:00:01Z</time>
			</trkpt>
			<trkpt lat="54.141793" lon="55.620234">
				<ele>138.48000000000002</ele>
				<time>1970-01-01T00:00:01Z</time>
			</trkpt>
			<trkpt lat="54.141796" lon="55.621204">
				<ele>137.312</ele>
				<time>1970-01-01T00:00:01Z</time>
			</trkpt>
			<trkpt lat="54.141594" lon="55.621977">
				<ele>136.20800000000003</ele>
				<time>1970-01-01T00:00:01Z</time>
			</trkpt>
			<trkpt lat="54.141743" lon="55.622638">
				<ele>134.54400000000004</ele>
				<time>1970-01-01T00:00:01Z</time>
			</trkpt>
			<trkpt lat="54.141896" lon="55.624123">
				<ele>132.48800000000003</ele>
				<time>1970-01-01T00:00:01Z</time>
			</trkpt>
			<trkpt lat="54.141442" lon="55.625728">
				<ele>130.53600000000003</ele>
				<time>1970-01-01T00:00:01Z</time>
			</trkpt>
			<trkpt lat="54.141142" lon="55.626268">
				<ele>127.96800000000002</ele>
				<time>1970-01-01T00:00:01Z</time>
			</trkpt>
			<trkpt lat="54.140285" lon="55.628217">
				<ele>126.19200000000002</ele>
				<time>1970-01-01T00:00:01Z</time>
			</trkpt>
			<trkpt lat="54.139986" lon="55.628672">
				<ele>124.38400000000003</ele>
				<time>1970-01-01T00:00:01Z</time>
			</trkpt>
			<trkpt lat="54.139682" lon="55.629483">
				<ele>123.33600000000003</ele>
				<time>1970-01-01T00:00:01Z</time>
			</trkpt>
			<trkpt lat="54.139231" lon="55.630388">
				<ele>122.69600000000003</ele>
				<time>1970-01-01T00:00:01Z</time>
			</trkpt>
			<trkpt lat="54.139104" lon="55.630942">
				<ele>122.78400000000002</ele>
				<time>1970-01-01T00:00:01Z</time>
			</trkpt>
			<trkpt lat="54.13903" lon="55.63165">
				<ele>123.53600000000003</ele>
				<time>1970-01-01T00:00:01Z</time>
			</trkpt>
			<trkpt lat="54.139055" lon="55.63238">
				<ele>125.31200000000001</ele>
				<time>1970-01-01T00:00:01Z</time>
			</trkpt>
			<trkpt lat="54.139206" lon="55.633366">
				<ele>127.32000000000001</ele>
				<time>1970-01-01T00:00:01Z</time>
			</trkpt>
			<trkpt lat="54.139181" lon="55.634251">
				<ele>129.144</ele>
				<time>1970-01-01T00:00:01Z</time>
			</trkpt>
			<trkpt lat="54.13893" lon="55.634482">
				<ele>130.4</ele>
				<time>1970-01-01T00:00:01Z</time>
			</trkpt>
			<trkpt lat="54.138527" lon="55.634954">
				<ele>131.136</ele>
				<time>1970-01-01T00:00:01Z</time>
			</trkpt>
			<trkpt lat="54.138125" lon="55.635281">
				<ele>132.264</ele>
				<time>1970-01-01T00:00:01Z</time>
			</trkpt>
			<trkpt lat="54.137748" lon="55.636027">
				<ele>133.144</ele>
				<time>1970-01-01T00:00:01Z</time>
			</trkpt>
			<trkpt lat="54.137119" lon="55.637014">
				<ele>133.85600000000002</ele>
				<time>1970-01-01T00:00:01Z</time>
			</trkpt>
			<trkpt lat="54.136818" lon="55.637744">
				<ele>132.85600000000002</ele>
				<time>1970-01-01T00:00:01Z</time>
			</trkpt>
			<trkpt lat="54.136063" lon="55.639332">
				<ele>131.28</ele>
				<time>1970-01-01T00:00:01Z</time>
			</trkpt>
			<trkpt lat="54.135711" lon="55.639915">
				<ele>129.32000000000002</ele>
				<time>1970-01-01T00:00:01Z</time>
			</trkpt>
			<trkpt lat="54.135711" lon="55.640748">
				<ele>128.976</ele>
				<time>1970-01-01T00:00:01Z</time>
			</trkpt>
			<trkpt lat="54.135812" lon="55.641546">
				<ele>130.216</ele>
				<time>1970-01-01T00:00:01Z</time>
			</trkpt>
			<trkpt lat="54.136114" lon="55.642293">
				<ele>133.28000000000003</ele>
				<time>1970-01-01T00:00:01Z</time>
			</trkpt>
			<trkpt lat="54.13624" lon="55.642937">
				<ele>137.27200000000002</ele>
				<time>1970-01-01T00:00:01Z</time>
			</trkpt>
			<trkpt lat="54.136717" lon="55.643752">
				<ele>142.15200000000002</ele>
				<time>1970-01-01T00:00:01Z</time>
			</trkpt>
			<trkpt lat="54.137119" lon="55.644653">
				<ele>147</ele>
				<time>1970-01-01T00:00:01Z</time>
			</trkpt>
			<trkpt lat="54.13722" lon="55.645065">
				<ele>151.848</ele>
				<time>1970-01-01T00:00:01Z</time>
			</trkpt>
			<trkpt lat="54.137823" lon="55.646009">
				<ele>155.288</ele>
				<time>1970-01-01T00:00:01Z</time>
			</trkpt>
			<trkpt lat="54.137949" lon="55.646413">
				<ele>157.73600000000005</ele>
				<time>1970-01-01T00:00:01Z</time>
			</trkpt>
			<trkpt lat="54.138175" lon="55.647469">
				<ele>158.41600000000003</ele>
				<time>1970-01-01T00:00:01Z</time>
			</trkpt>
			<trkpt lat="54.138025" lon="55.649185">
				<ele>158.64000000000001</ele>
				<time>1970-01-01T00:00:01Z</time>
			</trkpt>
			<trkpt lat="54.137899" lon="55.64976">
				<ele>158.51200000000003</ele>
				<time>1970-01-01T00:00:01Z</time>
			</trkpt>
			<trkpt lat="54.137673" lon="55.650215">
				<ele>158.704</ele>
				<time>1970-01-01T00:00:01Z</time>
			</trkpt>
			<trkpt lat="54.137597" lon="55.650661">
				<ele>159.44000000000003</ele>
				<time>1970-01-01T00:00:01Z</time>
			</trkpt>
			<trkpt lat="54.137371" lon="55.651262">
				<ele>159.872</ele>
				<time>1970-01-01T00:00:01Z</time>
			</trkpt>
			<trkpt lat="54.137094" lon="55.651734">
				<ele>159.67200000000003</ele>
				<time>1970-01-01T00:00:01Z</time>
			</trkpt>
			<trkpt lat="54.136843" lon="55.652292">
				<ele>157.22400000000002</ele>
				<time>1970-01-01T00:00:01Z</time>
			</trkpt>
			<trkpt lat="54.136516" lon="55.652876">
				<ele>153.36800000000002</ele>
				<time>1970-01-01T00:00:01Z</time>
			</trkpt>
			<trkpt lat="54.136114" lon="55.654678">
				<ele>147.94400000000002</ele>
				<time>1970-01-01T00:00:01Z</time>
			</trkpt>
			<trkpt lat="54.135913" lon="55.65624">
				<ele>144.288</ele>
				<time>1970-01-01T00:00:01Z</time>
			</trkpt>
			<trkpt lat="54.135435" lon="55.658343">
				<ele>141.94400000000002</ele>
				<time>1970-01-01T00:00:01Z</time>
			</trkpt>
			<trkpt lat="54.135133" lon="55.659373">
				<ele>142.11200000000002</ele>
				<time>1970-01-01T00:00:01Z</time>
			</trkpt>
			<trkpt lat="54.134831" lon="55.660232">
				<ele>143.41600000000003</ele>
				<time>1970-01-01T00:00:01Z</time>
			</trkpt>
			<trkpt lat="54.134555" lon="55.661219">
				<ele>143.63200000000003</ele>
				<time>1970-01-01T00:00:01Z</time>
			</trkpt>
			<trkpt lat="54.133951" lon="55.662918">
				<ele>143.79200000000003</ele>
				<time>1970-01-01T00:00:01Z</time>
			</trkpt>
			<trkpt lat="54.1337" lon="55.66345">
				<ele>140.96000000000004</ele>
				<time>1970-01-01T00:00:01Z</time>
			</trkpt>
			<trkpt lat="54.133247" lon="55.664205">
				<ele>138.69600000000003</ele>
				<time>1970-01-01T00:00:01Z</time>
			</trkpt>
			<trkpt lat="54.133147" lon="55.665038">
				<ele>135.99200000000002</ele>
				<time>1970-01-01T00:00:01Z</time>
			</trkpt>
			<trkpt lat="54.132845" lon="55.66618">
				<ele>136.336</ele>
				<time>1970-01-01T00:00:01Z</time>
			</trkpt>
			<trkpt lat="54.132694" lon="55.667055">
				<ele>138.832</ele>
				<time>1970-01-01T00:00:01Z</time>
			</trkpt>
			<trkpt lat="54.132443" lon="55.668042">
				<ele>143.648</ele>
				<time>1970-01-01T00:00:01Z</time>
			</trkpt>
			<trkpt lat="54.132292" lon="55.670557">
				<ele>147.57600000000002</ele>
				<time>1970-01-01T00:00:01Z</time>
			</trkpt>
			<trkpt lat="54.131915" lon="55.671218">
				<ele>150.16000000000003</ele>
				<time>1970-01-01T00:00:01Z</time>
			</trkpt>
			<trkpt lat="54.131412" lon="55.671819">
				<ele>149.23200000000003</ele>
				<time>1970-01-01T00:00:01Z</time>
			</trkpt>
			<trkpt lat="54.130808" lon="55.672462">
				<ele>147.67200000000003</ele>
				<time>1970-01-01T00:00:01Z</time>
			</trkpt>
			<trkpt lat="54.130482" lon="55.672617">
				<ele>144.73600000000002</ele>
				<time>1970-01-01T00:00:01Z</time>
			</trkpt>
			<trkpt lat="54.129702" lon="55.673106">
				<ele>143.10400000000004</ele>
				<time>1970-01-01T00:00:01Z</time>
			</trkpt>
			<trkpt lat="54.128948" lon="55.673364">
				<ele>141.17600000000002</ele>
				<time>1970-01-01T00:00:01Z</time>
			</trkpt>
			<trkpt lat="54.12857" lon="55.673475">
				<ele>139.48000000000002</ele>
				<time>1970-01-01T00:00:01Z</time>
			</trkpt>
			<trkpt lat="54.128319" lon="55.674136">
				<ele>137.29600000000002</ele>
				<time>1970-01-01T00:00:01Z</time>
			</trkpt>
			<trkpt lat="54.128067" lon="55.674419">
				<ele>134.632</ele>
				<time>1970-01-01T00:00:01Z</time>
			</trkpt>
			<trkpt lat="54.12759" lon="55.675295">
				<ele>132.15200000000002</ele>
				<time>1970-01-01T00:00:01Z</time>
			</trkpt>
			<trkpt lat="54.127263" lon="55.675621">
				<ele>130.15200000000002</ele>
				<time>1970-01-01T00:00:01Z</time>
			</trkpt>
			<trkpt lat="54.126936" lon="55.676926">
				<ele>129.62400000000002</ele>
				<time>1970-01-01T00:00:01Z</time>
			</trkpt>
			<trkpt lat="54.126735" lon="55.678127">
				<ele>130.248</ele>
				<time>1970-01-01T00:00:01Z</time>
			</trkpt>
			<trkpt lat="54.126609" lon="55.679157">
				<ele>131.616</ele>
				<time>1970-01-01T00:00:01Z</time>
			</trkpt>
			<trkpt lat="54.126332" lon="55.68023">
				<ele>132.18400000000003</ele>
				<time>1970-01-01T00:00:01Z</time>
			</trkpt>
			<trkpt lat="54.126018" lon="55.682187">
				<ele>131.32800000000003</ele>
				<time>1970-01-01T00:00:01Z</time>
			</trkpt>
			<trkpt lat="54.125729" lon="55.683277">
				<ele>129.47200000000004</ele>
				<time>1970-01-01T00:00:01Z</time>
			</trkpt>
			<trkpt lat="54.125414" lon="55.684075">
				<ele>126.87200000000001</ele>
				<time>1970-01-01T00:00:01Z</time>
			</trkpt>
			<trkpt lat="54.124946" lon="55.684917">
				<ele>125.61600000000001</ele>
				<time>1970-01-01T00:00:01Z</time>
			</trkpt>
			<trkpt lat="54.124584" lon="55.685191">
				<ele>124.70400000000001</ele>
				<time>1970-01-01T00:00:01Z</time>
			</trkpt>
			<trkpt lat="54.12415" lon="55.685685">
				<ele>125.58400000000003</ele>
				<time>1970-01-01T00:00:01Z</time>
			</trkpt>
			<trkpt lat="54.123679" lon="55.686951">
				<ele>126.59200000000003</ele>
				<time>1970-01-01T00:00:01Z</time>
			</trkpt>
			<trkpt lat="54.123516" lon="55.687826">
				<ele>128.43200000000002</ele>
				<time>1970-01-01T00:00:01Z</time>
			</trkpt>
			<trkpt lat="54.123251" lon="55.688496">
				<ele>130.12800000000001</ele>
				<time>1970-01-01T00:00:01Z</time>
			</trkpt>
			<trkpt lat="54.123075" lon="55.68974">
				<ele>131.88</ele>
				<time>1970-01-01T00:00:01Z</time>
			</trkpt>
			<trkpt lat="54.123578" lon="55.691585">
				<ele>132.776</ele>
				<time>1970-01-01T00:00:01Z</time>
			</trkpt>
			<trkpt lat="54.123666" lon="55.693748">
				<ele>133.41600000000003</ele>
				<time>1970-01-01T00:00:01Z</time>
			</trkpt>
			<trkpt lat="54.123534" lon="55.694482">
				<ele>133.056</ele>
				<time>1970-01-01T00:00:01Z</time>
			</trkpt>
			<trkpt lat="54.1231" lon="55.695491">
				<ele>133.67200000000003</ele>
				<time>1970-01-01T00:00:01Z</time>
			</trkpt>
			<trkpt lat="54.122421" lon="55.697336">
				<ele>133.456</ele>
				<time>1970-01-01T00:00:01Z</time>
			</trkpt>
			<trkpt lat="54.122208" lon="55.698297">
				<ele>134.032</ele>
				<time>1970-01-01T00:00:01Z</time>
			</trkpt>
			<trkpt lat="54.121874" lon="55.698946">
				<ele>133.00000000000003</ele>
				<time>1970-01-01T00:00:01Z</time>
			</trkpt>
			<trkpt lat="54.121516" lon="55.700726">
				<ele>132.36800000000002</ele>
				<time>1970-01-01T00:00:01Z</time>
			</trkpt>
			<trkpt lat="54.121466" lon="55.701671">
				<ele>131.44000000000005</ele>
				<time>1970-01-01T00:00:01Z</time>
			</trkpt>
			<trkpt lat="54.121893" lon="55.702915">
				<ele>132.21600000000004</ele>
				<time>1970-01-01T00:00:01Z</time>
			</trkpt>
			<trkpt lat="54.12217" lon="55.704031">
				<ele>133.48800000000006</ele>
				<time>1970-01-01T00:00:01Z</time>
			</trkpt>
			<trkpt lat="54.122123" lon="55.706938">
				<ele>137.02400000000003</ele>
				<time>1970-01-01T00:00:01Z</time>
			</trkpt>
			<trkpt lat="54.121478" lon="55.709288">
				<ele>138.54400000000004</ele>
				<time>1970-01-01T00:00:01Z</time>
			</trkpt>
			<trkpt lat="54.121038" lon="55.71197">
				<ele>140.02400000000003</ele>
				<time>1970-01-01T00:00:01Z</time>
			</trkpt>
			<trkpt lat="54.120848" lon="55.71261">
				<ele>137.43200000000002</ele>
				<time>1970-01-01T00:00:01Z</time>
			</trkpt>
			<trkpt lat="54.120309" lon="55.713751">
				<ele>134.39200000000002</ele>
				<time>1970-01-01T00:00:01Z</time>
			</trkpt>
			<trkpt lat="54.119944" lon="55.714395">
				<ele>131.57600000000002</ele>
				<time>1970-01-01T00:00:01Z</time>
			</trkpt>
			<trkpt lat="54.119318" lon="55.716463">
				<ele>129.78400000000002</ele>
				<time>1970-01-01T00:00:01Z</time>
			</trkpt>
			<trkpt lat="54.119101" lon="55.716991">
				<ele>129.94400000000002</ele>
				<time>1970-01-01T00:00:01Z</time>
			</trkpt>
			<trkpt lat="54.118488" lon="55.717872">
				<ele>128.96800000000002</ele>
				<time>1970-01-01T00:00:01Z</time>
			</trkpt>
			<trkpt lat="54.117726" lon="55.719322">
				<ele>128.40800000000002</ele>
				<time>1970-01-01T00:00:01Z</time>
			</trkpt>
			<trkpt lat="54.116906" lon="55.719656">
				<ele>127.08000000000003</ele>
				<time>1970-01-01T00:00:01Z</time>
			</trkpt>
			<trkpt lat="54.116553" lon="55.719883">
				<ele>126.82400000000004</ele>
				<time>1970-01-01T00:00:01Z</time>
			</trkpt>
			<trkpt lat="54.115975" lon="55.720639">
				<ele>127.19200000000004</ele>
				<time>1970-01-01T00:00:01Z</time>
			</trkpt>
			<trkpt lat="54.115774" lon="55.720982">
				<ele>128.04000000000002</ele>
				<time>1970-01-01T00:00:01Z</time>
			</trkpt>
			<trkpt lat="54.115157" lon="55.721497">
				<ele>129.08</ele>
				<time>1970-01-01T00:00:01Z</time>
			</trkpt>
			<trkpt lat="54.114591" lon="55.721755">
				<ele>129.6</ele>
				<time>1970-01-01T00:00:01Z</time>
			</trkpt>
			<trkpt lat="54.114209" lon="55.722244">
				<ele>130.416</ele>
				<time>1970-01-01T00:00:01Z</time>
			</trkpt>
			<trkpt lat="54.11366" lon="55.722721">
				<ele>130.57600000000002</ele>
				<time>1970-01-01T00:00:01Z</time>
			</trkpt>
			<trkpt lat="54.113321" lon="55.723493">
				<ele>131.73600000000002</ele>
				<time>1970-01-01T00:00:01Z</time>
			</trkpt>
			<trkpt lat="54.113296" lon="55.724416">
				<ele>132.64800000000002</ele>
				<time>1970-01-01T00:00:01Z</time>
			</trkpt>
			<trkpt lat="54.113145" lon="55.724909">
				<ele>134.792</ele>
				<time>1970-01-01T00:00:01Z</time>
			</trkpt>
			<trkpt lat="54.113001" lon="55.725635">
				<ele>137</ele>
				<time>1970-01-01T00:00:01Z</time>
			</trkpt>
		</trkseg>
	</trk>
</gpx>