<?xml version="1.0" encoding="UTF-8" standalone="no" ?>
<gpx xmlns="http://www.topografix.com/GPX/1/1" creator="http://nakarte.me" xmlns:xsi="http://www.w3.org/2001/XMLSchema-instance" xsi:schemaLocation="http://www.topografix.com/GPX/1/1 http://www.topografix.com/GPX/1/1/gpx.xsd" version="1.1">
	<trk>
		<name>50926</name>
		<trkseg>
			<trkpt lat="51.087165" lon="87.996133"><time>1970-01-01T00:00:01.000Z</time></trkpt>
			<trkpt lat="51.087446" lon="87.995877"><time>1970-01-01T00:00:01.000Z</time></trkpt>
			<trkpt lat="51.087447" lon="87.995899"><time>1970-01-01T00:00:01.000Z</time></trkpt>
			<trkpt lat="51.087506" lon="87.995874"><time>1970-01-01T00:00:01.000Z</time></trkpt>
		</trkseg>
		<trkseg>
			<trkpt lat="51.087445" lon="87.995916"><time>1970-01-01T00:00:01.000Z</time></trkpt>
			<trkpt lat="51.088390" lon="87.995829"><time>1970-01-01T00:00:01.000Z</time></trkpt>
			<trkpt lat="51.088334" lon="87.995823"><time>1970-01-01T00:00:01.000Z</time></trkpt>
			<trkpt lat="51.088359" lon="87.995787"><time>1970-01-01T00:00:01.000Z</time></trkpt>
			<trkpt lat="51.088537" lon="87.996028"><time>1970-01-01T00:00:01.000Z</time></trkpt>
			<trkpt lat="51.088688" lon="87.996155"><time>1970-01-01T00:00:01.000Z</time></trkpt>
			<trkpt lat="51.089063" lon="87.996231"><time>1970-01-01T00:00:01.000Z</time></trkpt>
			<trkpt lat="51.089250" lon="87.996467"><time>1970-01-01T00:00:01.000Z</time></trkpt>
			<trkpt lat="51.089159" lon="87.996657"><time>1970-01-01T00:00:01.000Z</time></trkpt>
			<trkpt lat="51.089310" lon="87.997160"><time>1970-01-01T00:00:01.000Z</time></trkpt>
			<trkpt lat="51.089371" lon="87.997787"><time>1970-01-01T00:00:01.000Z</time></trkpt>
			<trkpt lat="51.089588" lon="87.999091"><time>1970-01-01T00:00:01.000Z</time></trkpt>
			<trkpt lat="51.089757" lon="87.999567"><time>1970-01-01T00:00:01.000Z</time></trkpt>
			<trkpt lat="51.089833" lon="87.999984"><time>1970-01-01T00:00:01.000Z</time></trkpt>
			<trkpt lat="51.089980" lon="88.000221"><time>1970-01-01T00:00:01.000Z</time></trkpt>
			<trkpt lat="51.090225" lon="88.001032"><time>1970-01-01T00:00:01.000Z</time></trkpt>
			<trkpt lat="51.090419" lon="88.001879"><time>1970-01-01T00:00:01.000Z</time></trkpt>
			<trkpt lat="51.090534" lon="88.002987"><time>1970-01-01T00:00:01.000Z</time></trkpt>
			<trkpt lat="51.090662" lon="88.003700"><time>1970-01-01T00:00:01.000Z</time></trkpt>
			<trkpt lat="51.090927" lon="88.004099"><time>1970-01-01T00:00:01.000Z</time></trkpt>
			<trkpt lat="51.091179" lon="88.005303"><time>1970-01-01T00:00:01.000Z</time></trkpt>
			<trkpt lat="51.091201" lon="88.005637"><time>1970-01-01T00:00:01.000Z</time></trkpt>
			<trkpt lat="51.091348" lon="88.005892"><time>1970-01-01T00:00:01.000Z</time></trkpt>
			<trkpt lat="51.091630" lon="88.006219"><time>1970-01-01T00:00:01.000Z</time></trkpt>
			<trkpt lat="51.091676" lon="88.006325"><time>1970-01-01T00:00:01.000Z</time></trkpt>
			<trkpt lat="51.091835" lon="88.006922"><time>1970-01-01T00:00:01.000Z</time></trkpt>
			<trkpt lat="51.092041" lon="88.007402"><time>1970-01-01T00:00:01.000Z</time></trkpt>
			<trkpt lat="51.092230" lon="88.008033"><time>1970-01-01T00:00:01.000Z</time></trkpt>
			<trkpt lat="51.092236" lon="88.008472"><time>1970-01-01T00:00:01.000Z</time></trkpt>
			<trkpt lat="51.092182" lon="88.008663"><time>1970-01-01T00:00:01.000Z</time></trkpt>
			<trkpt lat="51.092233" lon="88.009325"><time>1970-01-01T00:00:01.000Z</time></trkpt>
			<trkpt lat="51.092592" lon="88.010793"><time>1970-01-01T00:00:01.000Z</time></trkpt>
			<trkpt lat="51.092723" lon="88.012092"><time>1970-01-01T00:00:01.000Z</time></trkpt>
			<trkpt lat="51.092706" lon="88.012771"><time>1970-01-01T00:00:01.000Z</time></trkpt>
			<trkpt lat="51.092745" lon="88.013656"><time>1970-01-01T00:00:01.000Z</time></trkpt>
			<trkpt lat="51.092874" lon="88.014307"><time>1970-01-01T00:00:01.000Z</time></trkpt>
			<trkpt lat="51.093106" lon="88.015047"><time>1970-01-01T00:00:01.000Z</time></trkpt>
			<trkpt lat="51.093113" lon="88.015209"><time>1970-01-01T00:00:01.000Z</time></trkpt>
			<trkpt lat="51.093238" lon="88.015688"><time>1970-01-01T00:00:01.000Z</time></trkpt>
			<trkpt lat="51.093239" lon="88.016120"><time>1970-01-01T00:00:01.000Z</time></trkpt>
			<trkpt lat="51.093281" lon="88.016368"><time>1970-01-01T00:00:01.000Z</time></trkpt>
			<trkpt lat="51.093399" lon="88.016729"><time>1970-01-01T00:00:01.000Z</time></trkpt>
			<trkpt lat="51.093591" lon="88.017114"><time>1970-01-01T00:00:01.000Z</time></trkpt>
			<trkpt lat="51.093713" lon="88.017218"><time>1970-01-01T00:00:01.000Z</time></trkpt>
			<trkpt lat="51.093912" lon="88.017315"><time>1970-01-01T00:00:01.000Z</time></trkpt>
			<trkpt lat="51.093974" lon="88.017563"><time>1970-01-01T00:00:01.000Z</time></trkpt>
			<trkpt lat="51.094117" lon="88.017859"><time>1970-01-01T00:00:01.000Z</time></trkpt>
			<trkpt lat="51.094109" lon="88.017925"><time>1970-01-01T00:00:01.000Z</time></trkpt>
			<trkpt lat="51.094148" lon="88.017998"><time>1970-01-01T00:00:01.000Z</time></trkpt>
			<trkpt lat="51.094212" lon="88.018039"><time>1970-01-01T00:00:01.000Z</time></trkpt>
			<trkpt lat="51.094316" lon="88.018022"><time>1970-01-01T00:00:01.000Z</time></trkpt>
			<trkpt lat="51.094405" lon="88.018110"><time>1970-01-01T00:00:01.000Z</time></trkpt>
			<trkpt lat="51.094474" lon="88.018118"><time>1970-01-01T00:00:01.000Z</time></trkpt>
			<trkpt lat="51.094552" lon="88.018366"><time>1970-01-01T00:00:01.000Z</time></trkpt>
			<trkpt lat="51.094668" lon="88.018577"><time>1970-01-01T00:00:01.000Z</time></trkpt>
			<trkpt lat="51.094689" lon="88.018701"><time>1970-01-01T00:00:01.000Z</time></trkpt>
			<trkpt lat="51.094644" lon="88.019009"><time>1970-01-01T00:00:01.000Z</time></trkpt>
			<trkpt lat="51.094797" lon="88.019411"><time>1970-01-01T00:00:01.000Z</time></trkpt>
			<trkpt lat="51.094728" lon="88.019733"><time>1970-01-01T00:00:01.000Z</time></trkpt>
			<trkpt lat="51.094702" lon="88.020259"><time>1970-01-01T00:00:01.000Z</time></trkpt>
			<trkpt lat="51.094765" lon="88.020680"><time>1970-01-01T00:00:01.000Z</time></trkpt>
			<trkpt lat="51.094767" lon="88.021312"><time>1970-01-01T00:00:01.000Z</time></trkpt>
			<trkpt lat="51.094851" lon="88.021733"><time>1970-01-01T00:00:01.000Z</time></trkpt>
			<trkpt lat="51.094932" lon="88.021945"><time>1970-01-01T00:00:01.000Z</time></trkpt>
			<trkpt lat="51.094988" lon="88.022535"><time>1970-01-01T00:00:01.000Z</time></trkpt>
			<trkpt lat="51.095034" lon="88.022552"><time>1970-01-01T00:00:01.000Z</time></trkpt>
			<trkpt lat="51.095123" lon="88.022716"><time>1970-01-01T00:00:01.000Z</time></trkpt>
			<trkpt lat="51.095261" lon="88.022862"><time>1970-01-01T00:00:01.000Z</time></trkpt>
			<trkpt lat="51.095398" lon="88.023509"><time>1970-01-01T00:00:01.000Z</time></trkpt>
			<trkpt lat="51.095448" lon="88.023522"><time>1970-01-01T00:00:01.000Z</time></trkpt>
			<trkpt lat="51.095578" lon="88.023742"><time>1970-01-01T00:00:01.000Z</time></trkpt>
			<trkpt lat="51.095832" lon="88.023971"><time>1970-01-01T00:00:01.000Z</time></trkpt>
			<trkpt lat="51.095876" lon="88.024116"><time>1970-01-01T00:00:01.000Z</time></trkpt>
			<trkpt lat="51.096084" lon="88.024385"><time>1970-01-01T00:00:01.000Z</time></trkpt>
			<trkpt lat="51.096421" lon="88.024495"><time>1970-01-01T00:00:01.000Z</time></trkpt>
			<trkpt lat="51.096690" lon="88.024433"><time>1970-01-01T00:00:01.000Z</time></trkpt>
			<trkpt lat="51.096860" lon="88.024578"><time>1970-01-01T00:00:01.000Z</time></trkpt>
			<trkpt lat="51.096932" lon="88.024710"><time>1970-01-01T00:00:01.000Z</time></trkpt>
			<trkpt lat="51.096998" lon="88.024698"><time>1970-01-01T00:00:01.000Z</time></trkpt>
			<trkpt lat="51.097099" lon="88.024812"><time>1970-01-01T00:00:01.000Z</time></trkpt>
			<trkpt lat="51.097361" lon="88.025186"><time>1970-01-01T00:00:01.000Z</time></trkpt>
			<trkpt lat="51.097394" lon="88.025358"><time>1970-01-01T00:00:01.000Z</time></trkpt>
			<trkpt lat="51.097625" lon="88.025769"><time>1970-01-01T00:00:01.000Z</time></trkpt>
			<trkpt lat="51.097755" lon="88.026201"><time>1970-01-01T00:00:01.000Z</time></trkpt>
			<trkpt lat="51.097882" lon="88.026264"><time>1970-01-01T00:00:01.000Z</time></trkpt>
			<trkpt lat="51.097857" lon="88.026337"><time>1970-01-01T00:00:01.000Z</time></trkpt>
			<trkpt lat="51.097964" lon="88.026665"><time>1970-01-01T00:00:01.000Z</time></trkpt>
			<trkpt lat="51.098310" lon="88.027308"><time>1970-01-01T00:00:01.000Z</time></trkpt>
			<trkpt lat="51.098517" lon="88.027579"><time>1970-01-01T00:00:01.000Z</time></trkpt>
			<trkpt lat="51.098728" lon="88.028101"><time>1970-01-01T00:00:01.000Z</time></trkpt>
			<trkpt lat="51.098831" lon="88.028606"><time>1970-01-01T00:00:01.000Z</time></trkpt>
			<trkpt lat="51.098962" lon="88.028794"><time>1970-01-01T00:00:01.000Z</time></trkpt>
			<trkpt lat="51.098998" lon="88.028944"><time>1970-01-01T00:00:01.000Z</time></trkpt>
			<trkpt lat="51.099277" lon="88.029245"><time>1970-01-01T00:00:01.000Z</time></trkpt>
			<trkpt lat="51.099409" lon="88.029505"><time>1970-01-01T00:00:01.000Z</time></trkpt>
			<trkpt lat="51.099480" lon="88.029765"><time>1970-01-01T00:00:01.000Z</time></trkpt>
			<trkpt lat="51.099521" lon="88.030340"><time>1970-01-01T00:00:01.000Z</time></trkpt>
			<trkpt lat="51.099635" lon="88.030797"><time>1970-01-01T00:00:01.000Z</time></trkpt>
			<trkpt lat="51.099874" lon="88.031236"><time>1970-01-01T00:00:01.000Z</time></trkpt>
			<trkpt lat="51.099905" lon="88.031500"><time>1970-01-01T00:00:01.000Z</time></trkpt>
			<trkpt lat="51.099983" lon="88.031710"><time>1970-01-01T00:00:01.000Z</time></trkpt>
			<trkpt lat="51.100185" lon="88.031961"><time>1970-01-01T00:00:01.000Z</time></trkpt>
			<trkpt lat="51.100284" lon="88.032297"><time>1970-01-01T00:00:01.000Z</time></trkpt>
			<trkpt lat="51.100536" lon="88.032780"><time>1970-01-01T00:00:01.000Z</time></trkpt>
			<trkpt lat="51.100772" lon="88.033538"><time>1970-01-01T00:00:01.000Z</time></trkpt>
			<trkpt lat="51.100834" lon="88.033899"><time>1970-01-01T00:00:01.000Z</time></trkpt>
			<trkpt lat="51.100947" lon="88.034111"><time>1970-01-01T00:00:01.000Z</time></trkpt>
			<trkpt lat="51.101208" lon="88.034409"><time>1970-01-01T00:00:01.000Z</time></trkpt>
			<trkpt lat="51.101281" lon="88.034808"><time>1970-01-01T00:00:01.000Z</time></trkpt>
			<trkpt lat="51.101335" lon="88.035835"><time>1970-01-01T00:00:01.000Z</time></trkpt>
			<trkpt lat="51.101351" lon="88.035800"><time>1970-01-01T00:00:01.000Z</time></trkpt>
			<trkpt lat="51.101383" lon="88.035799"><time>1970-01-01T00:00:01.000Z</time></trkpt>
			<trkpt lat="51.101391" lon="88.035840"><time>1970-01-01T00:00:01.000Z</time></trkpt>
			<trkpt lat="51.101410" lon="88.035813"><time>1970-01-01T00:00:01.000Z</time></trkpt>
			<trkpt lat="51.101386" lon="88.035827"><time>1970-01-01T00:00:01.000Z</time></trkpt>
			<trkpt lat="51.101481" lon="88.036134"><time>1970-01-01T00:00:01.000Z</time></trkpt>
			<trkpt lat="51.101597" lon="88.036310"><time>1970-01-01T00:00:01.000Z</time></trkpt>
			<trkpt lat="51.101650" lon="88.036513"><time>1970-01-01T00:00:01.000Z</time></trkpt>
			<trkpt lat="51.101824" lon="88.036799"><time>1970-01-01T00:00:01.000Z</time></trkpt>
			<trkpt lat="51.101934" lon="88.037115"><time>1970-01-01T00:00:01.000Z</time></trkpt>
			<trkpt lat="51.102146" lon="88.037338"><time>1970-01-01T00:00:01.000Z</time></trkpt>
			<trkpt lat="51.102311" lon="88.037907"><time>1970-01-01T00:00:01.000Z</time></trkpt>
			<trkpt lat="51.102241" lon="88.037995"><time>1970-01-01T00:00:01.000Z</time></trkpt>
			<trkpt lat="51.102341" lon="88.038070"><time>1970-01-01T00:00:01.000Z</time></trkpt>
			<trkpt lat="51.102333" lon="88.038118"><time>1970-01-01T00:00:01.000Z</time></trkpt>
			<trkpt lat="51.102269" lon="88.038147"><time>1970-01-01T00:00:01.000Z</time></trkpt>
			<trkpt lat="51.102359" lon="88.038210"><time>1970-01-01T00:00:01.000Z</time></trkpt>
			<trkpt lat="51.102479" lon="88.038184"><time>1970-01-01T00:00:01.000Z</time></trkpt>
			<trkpt lat="51.102681" lon="88.038046"><time>1970-01-01T00:00:01.000Z</time></trkpt>
			<trkpt lat="51.102696" lon="88.037987"><time>1970-01-01T00:00:01.000Z</time></trkpt>
			<trkpt lat="51.102692" lon="88.038052"><time>1970-01-01T00:00:01.000Z</time></trkpt>
			<trkpt lat="51.103006" lon="88.038450"><time>1970-01-01T00:00:01.000Z</time></trkpt>
			<trkpt lat="51.103090" lon="88.038615"><time>1970-01-01T00:00:01.000Z</time></trkpt>
			<trkpt lat="51.103193" lon="88.039203"><time>1970-01-01T00:00:01.000Z</time></trkpt>
			<trkpt lat="51.103248" lon="88.039253"><time>1970-01-01T00:00:01.000Z</time></trkpt>
			<trkpt lat="51.103546" lon="88.039898"><time>1970-01-01T00:00:01.000Z</time></trkpt>
			<trkpt lat="51.103816" lon="88.040368"><time>1970-01-01T00:00:01.000Z</time></trkpt>
			<trkpt lat="51.103955" lon="88.040507"><time>1970-01-01T00:00:01.000Z</time></trkpt>
			<trkpt lat="51.104155" lon="88.040509"><time>1970-01-01T00:00:01.000Z</time></trkpt>
			<trkpt lat="51.104272" lon="88.040547"><time>1970-01-01T00:00:01.000Z</time></trkpt>
			<trkpt lat="51.104322" lon="88.040516"><time>1970-01-01T00:00:01.000Z</time></trkpt>
			<trkpt lat="51.104386" lon="88.040548"><time>1970-01-01T00:00:01.000Z</time></trkpt>
			<trkpt lat="51.104772" lon="88.040954"><time>1970-01-01T00:00:01.000Z</time></trkpt>
			<trkpt lat="51.104973" lon="88.041004"><time>1970-01-01T00:00:01.000Z</time></trkpt>
			<trkpt lat="51.105074" lon="88.041096"><time>1970-01-01T00:00:01.000Z</time></trkpt>
			<trkpt lat="51.105354" lon="88.041242"><time>1970-01-01T00:00:01.000Z</time></trkpt>
			<trkpt lat="51.105608" lon="88.041534"><time>1970-01-01T00:00:01.000Z</time></trkpt>
			<trkpt lat="51.105786" lon="88.041620"><time>1970-01-01T00:00:01.000Z</time></trkpt>
			<trkpt lat="51.105963" lon="88.042001"><time>1970-01-01T00:00:01.000Z</time></trkpt>
			<trkpt lat="51.106183" lon="88.042311"><time>1970-01-01T00:00:01.000Z</time></trkpt>
			<trkpt lat="51.106391" lon="88.042422"><time>1970-01-01T00:00:01.000Z</time></trkpt>
			<trkpt lat="51.106624" lon="88.042674"><time>1970-01-01T00:00:01.000Z</time></trkpt>
			<trkpt lat="51.106643" lon="88.042785"><time>1970-01-01T00:00:01.000Z</time></trkpt>
			<trkpt lat="51.106821" lon="88.043004"><time>1970-01-01T00:00:01.000Z</time></trkpt>
			<trkpt lat="51.107248" lon="88.043847"><time>1970-01-01T00:00:01.000Z</time></trkpt>
			<trkpt lat="51.107325" lon="88.043887"><time>1970-01-01T00:00:01.000Z</time></trkpt>
			<trkpt lat="51.107458" lon="88.044035"><time>1970-01-01T00:00:01.000Z</time></trkpt>
			<trkpt lat="51.107653" lon="88.044419"><time>1970-01-01T00:00:01.000Z</time></trkpt>
			<trkpt lat="51.107750" lon="88.044524"><time>1970-01-01T00:00:01.000Z</time></trkpt>
			<trkpt lat="51.107868" lon="88.044637"><time>1970-01-01T00:00:01.000Z</time></trkpt>
			<trkpt lat="51.108126" lon="88.044706"><time>1970-01-01T00:00:01.000Z</time></trkpt>
			<trkpt lat="51.108168" lon="88.044754"><time>1970-01-01T00:00:01.000Z</time></trkpt>
			<trkpt lat="51.108268" lon="88.044785"><time>1970-01-01T00:00:01.000Z</time></trkpt>
			<trkpt lat="51.108489" lon="88.044782"><time>1970-01-01T00:00:01.000Z</time></trkpt>
			<trkpt lat="51.108873" lon="88.045054"><time>1970-01-01T00:00:01.000Z</time></trkpt>
			<trkpt lat="51.109105" lon="88.045653"><time>1970-01-01T00:00:01.000Z</time></trkpt>
			<trkpt lat="51.109264" lon="88.045844"><time>1970-01-01T00:00:01.000Z</time></trkpt>
			<trkpt lat="51.109289" lon="88.046003"><time>1970-01-01T00:00:01.000Z</time></trkpt>
			<trkpt lat="51.109504" lon="88.046174"><time>1970-01-01T00:00:01.000Z</time></trkpt>
			<trkpt lat="51.109681" lon="88.046585"><time>1970-01-01T00:00:01.000Z</time></trkpt>
			<trkpt lat="51.109894" lon="88.046873"><time>1970-01-01T00:00:01.000Z</time></trkpt>
			<trkpt lat="51.109897" lon="88.047060"><time>1970-01-01T00:00:01.000Z</time></trkpt>
			<trkpt lat="51.109958" lon="88.047206"><time>1970-01-01T00:00:01.000Z</time></trkpt>
			<trkpt lat="51.110000" lon="88.047536"><time>1970-01-01T00:00:01.000Z</time></trkpt>
			<trkpt lat="51.110067" lon="88.047712"><time>1970-01-01T00:00:01.000Z</time></trkpt>
			<trkpt lat="51.110154" lon="88.048259"><time>1970-01-01T00:00:01.000Z</time></trkpt>
			<trkpt lat="51.110231" lon="88.048548"><time>1970-01-01T00:00:01.000Z</time></trkpt>
			<trkpt lat="51.110396" lon="88.048880"><time>1970-01-01T00:00:01.000Z</time></trkpt>
			<trkpt lat="51.110424" lon="88.049062"><time>1970-01-01T00:00:01.000Z</time></trkpt>
			<trkpt lat="51.110501" lon="88.049172"><time>1970-01-01T00:00:01.000Z</time></trkpt>
			<trkpt lat="51.110601" lon="88.049531"><time>1970-01-01T00:00:01.000Z</time></trkpt>
			<trkpt lat="51.110651" lon="88.049969"><time>1970-01-01T00:00:01.000Z</time></trkpt>
			<trkpt lat="51.110789" lon="88.050416"><time>1970-01-01T00:00:01.000Z</time></trkpt>
			<trkpt lat="51.110830" lon="88.050444"><time>1970-01-01T00:00:01.000Z</time></trkpt>
			<trkpt lat="51.110856" lon="88.050588"><time>1970-01-01T00:00:01.000Z</time></trkpt>
			<trkpt lat="51.110842" lon="88.050853"><time>1970-01-01T00:00:01.000Z</time></trkpt>
			<trkpt lat="51.110924" lon="88.051475"><time>1970-01-01T00:00:01.000Z</time></trkpt>
			<trkpt lat="51.111064" lon="88.051671"><time>1970-01-01T00:00:01.000Z</time></trkpt>
			<trkpt lat="51.111075" lon="88.051887"><time>1970-01-01T00:00:01.000Z</time></trkpt>
			<trkpt lat="51.111246" lon="88.052232"><time>1970-01-01T00:00:01.000Z</time></trkpt>
			<trkpt lat="51.111297" lon="88.052532"><time>1970-01-01T00:00:01.000Z</time></trkpt>
			<trkpt lat="51.111445" lon="88.052972"><time>1970-01-01T00:00:01.000Z</time></trkpt>
			<trkpt lat="51.111571" lon="88.053131"><time>1970-01-01T00:00:01.000Z</time></trkpt>
			<trkpt lat="51.111672" lon="88.053366"><time>1970-01-01T00:00:01.000Z</time></trkpt>
			<trkpt lat="51.111843" lon="88.053584"><time>1970-01-01T00:00:01.000Z</time></trkpt>
			<trkpt lat="51.112018" lon="88.053619"><time>1970-01-01T00:00:01.000Z</time></trkpt>
			<trkpt lat="51.112085" lon="88.053847"><time>1970-01-01T00:00:01.000Z</time></trkpt>
			<trkpt lat="51.112074" lon="88.054193"><time>1970-01-01T00:00:01.000Z</time></trkpt>
			<trkpt lat="51.112212" lon="88.054539"><time>1970-01-01T00:00:01.000Z</time></trkpt>
			<trkpt lat="51.112307" lon="88.054677"><time>1970-01-01T00:00:01.000Z</time></trkpt>
			<trkpt lat="51.112370" lon="88.054853"><time>1970-01-01T00:00:01.000Z</time></trkpt>
			<trkpt lat="51.112491" lon="88.055033"><time>1970-01-01T00:00:01.000Z</time></trkpt>
			<trkpt lat="51.112734" lon="88.055293"><time>1970-01-01T00:00:01.000Z</time></trkpt>
			<trkpt lat="51.112940" lon="88.055648"><time>1970-01-01T00:00:01.000Z</time></trkpt>
			<trkpt lat="51.113113" lon="88.055730"><time>1970-01-01T00:00:01.000Z</time></trkpt>
			<trkpt lat="51.113294" lon="88.055979"><time>1970-01-01T00:00:01.000Z</time></trkpt>
			<trkpt lat="51.113320" lon="88.056103"><time>1970-01-01T00:00:01.000Z</time></trkpt>
			<trkpt lat="51.113430" lon="88.056280"><time>1970-01-01T00:00:01.000Z</time></trkpt>
			<trkpt lat="51.113587" lon="88.056436"><time>1970-01-01T00:00:01.000Z</time></trkpt>
			<trkpt lat="51.113731" lon="88.056711"><time>1970-01-01T00:00:01.000Z</time></trkpt>
			<trkpt lat="51.113844" lon="88.056778"><time>1970-01-01T00:00:01.000Z</time></trkpt>
			<trkpt lat="51.113882" lon="88.056893"><time>1970-01-01T00:00:01.000Z</time></trkpt>
			<trkpt lat="51.114017" lon="88.056937"><time>1970-01-01T00:00:01.000Z</time></trkpt>
			<trkpt lat="51.114187" lon="88.056818"><time>1970-01-01T00:00:01.000Z</time></trkpt>
			<trkpt lat="51.114272" lon="88.056866"><time>1970-01-01T00:00:01.000Z</time></trkpt>
			<trkpt lat="51.114169" lon="88.056963"><time>1970-01-01T00:00:01.000Z</time></trkpt>
			<trkpt lat="51.114181" lon="88.056932"><time>1970-01-01T00:00:01.000Z</time></trkpt>
			<trkpt lat="51.114243" lon="88.056988"><time>1970-01-01T00:00:01.000Z</time></trkpt>
			<trkpt lat="51.114348" lon="88.056895"><time>1970-01-01T00:00:01.000Z</time></trkpt>
			<trkpt lat="51.114320" lon="88.056841"><time>1970-01-01T00:00:01.000Z</time></trkpt>
			<trkpt lat="51.114237" lon="88.056899"><time>1970-01-01T00:00:01.000Z</time></trkpt>
			<trkpt lat="51.114286" lon="88.056847"><time>1970-01-01T00:00:01.000Z</time></trkpt>
			<trkpt lat="51.114262" lon="88.056884"><time>1970-01-01T00:00:01.000Z</time></trkpt>
			<trkpt lat="51.114283" lon="88.056865"><time>1970-01-01T00:00:01.000Z</time></trkpt>
			<trkpt lat="51.114245" lon="88.056787"><time>1970-01-01T00:00:01.000Z</time></trkpt>
			<trkpt lat="51.114115" lon="88.056849"><time>1970-01-01T00:00:01.000Z</time></trkpt>
			<trkpt lat="51.114139" lon="88.056976"><time>1970-01-01T00:00:01.000Z</time></trkpt>
			<trkpt lat="51.114066" lon="88.057114"><time>1970-01-01T00:00:01.000Z</time></trkpt>
			<trkpt lat="51.114047" lon="88.057270"><time>1970-01-01T00:00:01.000Z</time></trkpt>
			<trkpt lat="51.114101" lon="88.057442"><time>1970-01-01T00:00:01.000Z</time></trkpt>
			<trkpt lat="51.114059" lon="88.057483"><time>1970-01-01T00:00:01.000Z</time></trkpt>
			<trkpt lat="51.114113" lon="88.057485"><time>1970-01-01T00:00:01.000Z</time></trkpt>
			<trkpt lat="51.114097" lon="88.057562"><time>1970-01-01T00:00:01.000Z</time></trkpt>
			<trkpt lat="51.114185" lon="88.057922"><time>1970-01-01T00:00:01.000Z</time></trkpt>
			<trkpt lat="51.114281" lon="88.058109"><time>1970-01-01T00:00:01.000Z</time></trkpt>
			<trkpt lat="51.114321" lon="88.058606"><time>1970-01-01T00:00:01.000Z</time></trkpt>
			<trkpt lat="51.114380" lon="88.058734"><time>1970-01-01T00:00:01.000Z</time></trkpt>
			<trkpt lat="51.114481" lon="88.058812"><time>1970-01-01T00:00:01.000Z</time></trkpt>
			<trkpt lat="51.114580" lon="88.058964"><time>1970-01-01T00:00:01.000Z</time></trkpt>
			<trkpt lat="51.114935" lon="88.059604"><time>1970-01-01T00:00:01.000Z</time></trkpt>
			<trkpt lat="51.114941" lon="88.059790"><time>1970-01-01T00:00:01.000Z</time></trkpt>
			<trkpt lat="51.114985" lon="88.059938"><time>1970-01-01T00:00:01.000Z</time></trkpt>
			<trkpt lat="51.115209" lon="88.060511"><time>1970-01-01T00:00:01.000Z</time></trkpt>
			<trkpt lat="51.115192" lon="88.060651"><time>1970-01-01T00:00:01.000Z</time></trkpt>
			<trkpt lat="51.115241" lon="88.060735"><time>1970-01-01T00:00:01.000Z</time></trkpt>
			<trkpt lat="51.115237" lon="88.061119"><time>1970-01-01T00:00:01.000Z</time></trkpt>
			<trkpt lat="51.115351" lon="88.061253"><time>1970-01-01T00:00:01.000Z</time></trkpt>
			<trkpt lat="51.115381" lon="88.061583"><time>1970-01-01T00:00:01.000Z</time></trkpt>
			<trkpt lat="51.115451" lon="88.061701"><time>1970-01-01T00:00:01.000Z</time></trkpt>
			<trkpt lat="51.115405" lon="88.061712"><time>1970-01-01T00:00:01.000Z</time></trkpt>
			<trkpt lat="51.115370" lon="88.061917"><time>1970-01-01T00:00:01.000Z</time></trkpt>
			<trkpt lat="51.115422" lon="88.061950"><time>1970-01-01T00:00:01.000Z</time></trkpt>
			<trkpt lat="51.115434" lon="88.062003"><time>1970-01-01T00:00:01.000Z</time></trkpt>
			<trkpt lat="51.115532" lon="88.061923"><time>1970-01-01T00:00:01.000Z</time></trkpt>
			<trkpt lat="51.115681" lon="88.061862"><time>1970-01-01T00:00:01.000Z</time></trkpt>
			<trkpt lat="51.115725" lon="88.061880"><time>1970-01-01T00:00:01.000Z</time></trkpt>
			<trkpt lat="51.115687" lon="88.061899"><time>1970-01-01T00:00:01.000Z</time></trkpt>
			<trkpt lat="51.115683" lon="88.061997"><time>1970-01-01T00:00:01.000Z</time></trkpt>
			<trkpt lat="51.115883" lon="88.062319"><time>1970-01-01T00:00:01.000Z</time></trkpt>
			<trkpt lat="51.115985" lon="88.062529"><time>1970-01-01T00:00:01.000Z</time></trkpt>
			<trkpt lat="51.115998" lon="88.062629"><time>1970-01-01T00:00:01.000Z</time></trkpt>
			<trkpt lat="51.116184" lon="88.062942"><time>1970-01-01T00:00:01.000Z</time></trkpt>
			<trkpt lat="51.116168" lon="88.063045"><time>1970-01-01T00:00:01.000Z</time></trkpt>
			<trkpt lat="51.116208" lon="88.063170"><time>1970-01-01T00:00:01.000Z</time></trkpt>
			<trkpt lat="51.116365" lon="88.063446"><time>1970-01-01T00:00:01.000Z</time></trkpt>
			<trkpt lat="51.116391" lon="88.063736"><time>1970-01-01T00:00:01.000Z</time></trkpt>
			<trkpt lat="51.116477" lon="88.064060"><time>1970-01-01T00:00:01.000Z</time></trkpt>
			<trkpt lat="51.116526" lon="88.064128"><time>1970-01-01T00:00:01.000Z</time></trkpt>
			<trkpt lat="51.116579" lon="88.064423"><time>1970-01-01T00:00:01.000Z</time></trkpt>
			<trkpt lat="51.116607" lon="88.064901"><time>1970-01-01T00:00:01.000Z</time></trkpt>
			<trkpt lat="51.116662" lon="88.065076"><time>1970-01-01T00:00:01.000Z</time></trkpt>
			<trkpt lat="51.116656" lon="88.065272"><time>1970-01-01T00:00:01.000Z</time></trkpt>
			<trkpt lat="51.116688" lon="88.065382"><time>1970-01-01T00:00:01.000Z</time></trkpt>
			<trkpt lat="51.116660" lon="88.065588"><time>1970-01-01T00:00:01.000Z</time></trkpt>
			<trkpt lat="51.116688" lon="88.065869"><time>1970-01-01T00:00:01.000Z</time></trkpt>
			<trkpt lat="51.116856" lon="88.066567"><time>1970-01-01T00:00:01.000Z</time></trkpt>
			<trkpt lat="51.116883" lon="88.066852"><time>1970-01-01T00:00:01.000Z</time></trkpt>
			<trkpt lat="51.116988" lon="88.067102"><time>1970-01-01T00:00:01.000Z</time></trkpt>
			<trkpt lat="51.116983" lon="88.067277"><time>1970-01-01T00:00:01.000Z</time></trkpt>
			<trkpt lat="51.117271" lon="88.067946"><time>1970-01-01T00:00:01.000Z</time></trkpt>
			<trkpt lat="51.117318" lon="88.067914"><time>1970-01-01T00:00:01.000Z</time></trkpt>
			<trkpt lat="51.117314" lon="88.067974"><time>1970-01-01T00:00:01.000Z</time></trkpt>
			<trkpt lat="51.117331" lon="88.067928"><time>1970-01-01T00:00:01.000Z</time></trkpt>
			<trkpt lat="51.117367" lon="88.067932"><time>1970-01-01T00:00:01.000Z</time></trkpt>
			<trkpt lat="51.117478" lon="88.068148"><time>1970-01-01T00:00:01.000Z</time></trkpt>
			<trkpt lat="51.117367" lon="88.068377"><time>1970-01-01T00:00:01.000Z</time></trkpt>
			<trkpt lat="51.117459" lon="88.068860"><time>1970-01-01T00:00:01.000Z</time></trkpt>
			<trkpt lat="51.117414" lon="88.069018"><time>1970-01-01T00:00:01.000Z</time></trkpt>
			<trkpt lat="51.117413" lon="88.069429"><time>1970-01-01T00:00:01.000Z</time></trkpt>
			<trkpt lat="51.117286" lon="88.070362"><time>1970-01-01T00:00:01.000Z</time></trkpt>
			<trkpt lat="51.117331" lon="88.070675"><time>1970-01-01T00:00:01.000Z</time></trkpt>
			<trkpt lat="51.117284" lon="88.071129"><time>1970-01-01T00:00:01.000Z</time></trkpt>
			<trkpt lat="51.117370" lon="88.071504"><time>1970-01-01T00:00:01.000Z</time></trkpt>
			<trkpt lat="51.117341" lon="88.071620"><time>1970-01-01T00:00:01.000Z</time></trkpt>
			<trkpt lat="51.117383" lon="88.071757"><time>1970-01-01T00:00:01.000Z</time></trkpt>
			<trkpt lat="51.117372" lon="88.072358"><time>1970-01-01T00:00:01.000Z</time></trkpt>
			<trkpt lat="51.117323" lon="88.072453"><time>1970-01-01T00:00:01.000Z</time></trkpt>
			<trkpt lat="51.117328" lon="88.072653"><time>1970-01-01T00:00:01.000Z</time></trkpt>
			<trkpt lat="51.117358" lon="88.072983"><time>1970-01-01T00:00:01.000Z</time></trkpt>
			<trkpt lat="51.117405" lon="88.073060"><time>1970-01-01T00:00:01.000Z</time></trkpt>
			<trkpt lat="51.117360" lon="88.073133"><time>1970-01-01T00:00:01.000Z</time></trkpt>
			<trkpt lat="51.117165" lon="88.073223"><time>1970-01-01T00:00:01.000Z</time></trkpt>
			<trkpt lat="51.117152" lon="88.073320"><time>1970-01-01T00:00:01.000Z</time></trkpt>
			<trkpt lat="51.117108" lon="88.073360"><time>1970-01-01T00:00:01.000Z</time></trkpt>
			<trkpt lat="51.117116" lon="88.073487"><time>1970-01-01T00:00:01.000Z</time></trkpt>
			<trkpt lat="51.117067" lon="88.073470"><time>1970-01-01T00:00:01.000Z</time></trkpt>
			<trkpt lat="51.116998" lon="88.073648"><time>1970-01-01T00:00:01.000Z</time></trkpt>
			<trkpt lat="51.116995" lon="88.073958"><time>1970-01-01T00:00:01.000Z</time></trkpt>
			<trkpt lat="51.116885" lon="88.074224"><time>1970-01-01T00:00:01.000Z</time></trkpt>
			<trkpt lat="51.116804" lon="88.074876"><time>1970-01-01T00:00:01.000Z</time></trkpt>
			<trkpt lat="51.116842" lon="88.075131"><time>1970-01-01T00:00:01.000Z</time></trkpt>
			<trkpt lat="51.116813" lon="88.075481"><time>1970-01-01T00:00:01.000Z</time></trkpt>
			<trkpt lat="51.116859" lon="88.075668"><time>1970-01-01T00:00:01.000Z</time></trkpt>
			<trkpt lat="51.116954" lon="88.075835"><time>1970-01-01T00:00:01.000Z</time></trkpt>
			<trkpt lat="51.116917" lon="88.075759"><time>1970-01-01T00:00:01.000Z</time></trkpt>
			<trkpt lat="51.117249" lon="88.076191"><time>1970-01-01T00:00:01.000Z</time></trkpt>
			<trkpt lat="51.117234" lon="88.076123"><time>1970-01-01T00:00:01.000Z</time></trkpt>
			<trkpt lat="51.117288" lon="88.076256"><time>1970-01-01T00:00:01.000Z</time></trkpt>
			<trkpt lat="51.117284" lon="88.076392"><time>1970-01-01T00:00:01.000Z</time></trkpt>
			<trkpt lat="51.117224" lon="88.076482"><time>1970-01-01T00:00:01.000Z</time></trkpt>
			<trkpt lat="51.117284" lon="88.076516"><time>1970-01-01T00:00:01.000Z</time></trkpt>
			<trkpt lat="51.117324" lon="88.076665"><time>1970-01-01T00:00:01.000Z</time></trkpt>
			<trkpt lat="51.117303" lon="88.076856"><time>1970-01-01T00:00:01.000Z</time></trkpt>
			<trkpt lat="51.117439" lon="88.077209"><time>1970-01-01T00:00:01.000Z</time></trkpt>
			<trkpt lat="51.117465" lon="88.077440"><time>1970-01-01T00:00:01.000Z</time></trkpt>
			<trkpt lat="51.117441" lon="88.077708"><time>1970-01-01T00:00:01.000Z</time></trkpt>
			<trkpt lat="51.117370" lon="88.077841"><time>1970-01-01T00:00:01.000Z</time></trkpt>
			<trkpt lat="51.117369" lon="88.077936"><time>1970-01-01T00:00:01.000Z</time></trkpt>
			<trkpt lat="51.117196" lon="88.078247"><time>1970-01-01T00:00:01.000Z</time></trkpt>
			<trkpt lat="51.117141" lon="88.078449"><time>1970-01-01T00:00:01.000Z</time></trkpt>
			<trkpt lat="51.117025" lon="88.078597"><time>1970-01-01T00:00:01.000Z</time></trkpt>
			<trkpt lat="51.116839" lon="88.078971"><time>1970-01-01T00:00:01.000Z</time></trkpt>
			<trkpt lat="51.116769" lon="88.079652"><time>1970-01-01T00:00:01.000Z</time></trkpt>
			<trkpt lat="51.116730" lon="88.079697"><time>1970-01-01T00:00:01.000Z</time></trkpt>
			<trkpt lat="51.116781" lon="88.080161"><time>1970-01-01T00:00:01.000Z</time></trkpt>
			<trkpt lat="51.116920" lon="88.080629"><time>1970-01-01T00:00:01.000Z</time></trkpt>
			<trkpt lat="51.117002" lon="88.080739"><time>1970-01-01T00:00:01.000Z</time></trkpt>
			<trkpt lat="51.117204" lon="88.081221"><time>1970-01-01T00:00:01.000Z</time></trkpt>
			<trkpt lat="51.117285" lon="88.081302"><time>1970-01-01T00:00:01.000Z</time></trkpt>
			<trkpt lat="51.117335" lon="88.081564"><time>1970-01-01T00:00:01.000Z</time></trkpt>
			<trkpt lat="51.117534" lon="88.081796"><time>1970-01-01T00:00:01.000Z</time></trkpt>
			<trkpt lat="51.117680" lon="88.082168"><time>1970-01-01T00:00:01.000Z</time></trkpt>
			<trkpt lat="51.117752" lon="88.082777"><time>1970-01-01T00:00:01.000Z</time></trkpt>
			<trkpt lat="51.117746" lon="88.083020"><time>1970-01-01T00:00:01.000Z</time></trkpt>
			<trkpt lat="51.117860" lon="88.083316"><time>1970-01-01T00:00:01.000Z</time></trkpt>
			<trkpt lat="51.118009" lon="88.083569"><time>1970-01-01T00:00:01.000Z</time></trkpt>
			<trkpt lat="51.117982" lon="88.083794"><time>1970-01-01T00:00:01.000Z</time></trkpt>
		</trkseg>
	</trk>
</gpx>