<?xml version="1.0" encoding="UTF-8" standalone="no" ?>
<gpx xmlns="http://www.topografix.com/GPX/1/1" creator="http://nakarte.me" xmlns:xsi="http://www.w3.org/2001/XMLSchema-instance" xsi:schemaLocation="http://www.topografix.com/GPX/1/1 http://www.topografix.com/GPX/1/1/gpx.xsd" version="1.1">
	<trk>
		<name>Trek_2019-11-09_UVOD</name>
		<trkseg>
			<trkpt lat="57.106186" lon="40.892189"><time>1970-01-01T00:00:01.000Z</time></trkpt>
			<trkpt lat="57.106122" lon="40.892210"><time>1970-01-01T00:00:01.000Z</time></trkpt>
			<trkpt lat="57.106207" lon="40.892339"><time>1970-01-01T00:00:01.000Z</time></trkpt>
			<trkpt lat="57.106315" lon="40.892081"><time>1970-01-01T00:00:01.000Z</time></trkpt>
			<trkpt lat="57.106122" lon="40.892446"><time>1970-01-01T00:00:01.000Z</time></trkpt>
			<trkpt lat="57.106229" lon="40.892832"><time>1970-01-01T00:00:01.000Z</time></trkpt>
			<trkpt lat="57.106358" lon="40.892961"><time>1970-01-01T00:00:01.000Z</time></trkpt>
			<trkpt lat="57.106422" lon="40.892940"><time>1970-01-01T00:00:01.000Z</time></trkpt>
			<trkpt lat="57.106508" lon="40.893047"><time>1970-01-01T00:00:01.000Z</time></trkpt>
			<trkpt lat="57.106572" lon="40.893025"><time>1970-01-01T00:00:01.000Z</time></trkpt>
			<trkpt lat="57.106765" lon="40.893154"><time>1970-01-01T00:00:01.000Z</time></trkpt>
			<trkpt lat="57.106701" lon="40.893068"><time>1970-01-01T00:00:01.000Z</time></trkpt>
			<trkpt lat="57.106787" lon="40.892832"><time>1970-01-01T00:00:01.000Z</time></trkpt>
			<trkpt lat="57.107001" lon="40.892682"><time>1970-01-01T00:00:01.000Z</time></trkpt>
			<trkpt lat="57.107216" lon="40.892446"><time>1970-01-01T00:00:01.000Z</time></trkpt>
			<trkpt lat="57.107431" lon="40.892081"><time>1970-01-01T00:00:01.000Z</time></trkpt>
			<trkpt lat="57.107774" lon="40.891781"><time>1970-01-01T00:00:01.000Z</time></trkpt>
			<trkpt lat="57.108053" lon="40.891309"><time>1970-01-01T00:00:01.000Z</time></trkpt>
			<trkpt lat="57.108482" lon="40.890880"><time>1970-01-01T00:00:01.000Z</time></trkpt>
			<trkpt lat="57.108654" lon="40.890536"><time>1970-01-01T00:00:01.000Z</time></trkpt>
			<trkpt lat="57.108761" lon="40.890150"><time>1970-01-01T00:00:01.000Z</time></trkpt>
			<trkpt lat="57.109083" lon="40.889378"><time>1970-01-01T00:00:01.000Z</time></trkpt>
			<trkpt lat="57.109533" lon="40.888712"><time>1970-01-01T00:00:01.000Z</time></trkpt>
			<trkpt lat="57.109791" lon="40.887790"><time>1970-01-01T00:00:01.000Z</time></trkpt>
			<trkpt lat="57.109920" lon="40.887468"><time>1970-01-01T00:00:01.000Z</time></trkpt>
			<trkpt lat="57.109984" lon="40.887103"><time>1970-01-01T00:00:01.000Z</time></trkpt>
			<trkpt lat="57.110306" lon="40.886116"><time>1970-01-01T00:00:01.000Z</time></trkpt>
			<trkpt lat="57.110563" lon="40.885022"><time>1970-01-01T00:00:01.000Z</time></trkpt>
			<trkpt lat="57.110821" lon="40.884357"><time>1970-01-01T00:00:01.000Z</time></trkpt>
			<trkpt lat="57.110864" lon="40.883970"><time>1970-01-01T00:00:01.000Z</time></trkpt>
			<trkpt lat="57.111078" lon="40.883241"><time>1970-01-01T00:00:01.000Z</time></trkpt>
			<trkpt lat="57.111229" lon="40.882554"><time>1970-01-01T00:00:01.000Z</time></trkpt>
			<trkpt lat="57.111293" lon="40.881739"><time>1970-01-01T00:00:01.000Z</time></trkpt>
			<trkpt lat="57.111357" lon="40.881610"><time>1970-01-01T00:00:01.000Z</time></trkpt>
			<trkpt lat="57.111314" lon="40.881503"><time>1970-01-01T00:00:01.000Z</time></trkpt>
			<trkpt lat="57.111293" lon="40.881782"><time>1970-01-01T00:00:01.000Z</time></trkpt>
			<trkpt lat="57.111336" lon="40.881631"><time>1970-01-01T00:00:01.000Z</time></trkpt>
			<trkpt lat="57.111314" lon="40.881395"><time>1970-01-01T00:00:01.000Z</time></trkpt>
			<trkpt lat="57.111486" lon="40.879936"><time>1970-01-01T00:00:01.000Z</time></trkpt>
			<trkpt lat="57.111550" lon="40.878348"><time>1970-01-01T00:00:01.000Z</time></trkpt>
			<trkpt lat="57.111422" lon="40.877898"><time>1970-01-01T00:00:01.000Z</time></trkpt>
			<trkpt lat="57.111443" lon="40.877640"><time>1970-01-01T00:00:01.000Z</time></trkpt>
			<trkpt lat="57.111636" lon="40.876782"><time>1970-01-01T00:00:01.000Z</time></trkpt>
			<trkpt lat="57.111658" lon="40.875430"><time>1970-01-01T00:00:01.000Z</time></trkpt>
			<trkpt lat="57.111636" lon="40.875108"><time>1970-01-01T00:00:01.000Z</time></trkpt>
			<trkpt lat="57.111679" lon="40.874529"><time>1970-01-01T00:00:01.000Z</time></trkpt>
			<trkpt lat="57.111636" lon="40.874271"><time>1970-01-01T00:00:01.000Z</time></trkpt>
			<trkpt lat="57.111701" lon="40.874164"><time>1970-01-01T00:00:01.000Z</time></trkpt>
			<trkpt lat="57.111765" lon="40.873885"><time>1970-01-01T00:00:01.000Z</time></trkpt>
			<trkpt lat="57.111765" lon="40.873628"><time>1970-01-01T00:00:01.000Z</time></trkpt>
			<trkpt lat="57.111872" lon="40.872984"><time>1970-01-01T00:00:01.000Z</time></trkpt>
			<trkpt lat="57.111958" lon="40.872726"><time>1970-01-01T00:00:01.000Z</time></trkpt>
			<trkpt lat="57.112409" lon="40.872490"><time>1970-01-01T00:00:01.000Z</time></trkpt>
			<trkpt lat="57.112452" lon="40.872319"><time>1970-01-01T00:00:01.000Z</time></trkpt>
			<trkpt lat="57.112559" lon="40.872340"><time>1970-01-01T00:00:01.000Z</time></trkpt>
			<trkpt lat="57.112859" lon="40.872319"><time>1970-01-01T00:00:01.000Z</time></trkpt>
			<trkpt lat="57.113117" lon="40.872233"><time>1970-01-01T00:00:01.000Z</time></trkpt>
			<trkpt lat="57.113160" lon="40.872169"><time>1970-01-01T00:00:01.000Z</time></trkpt>
			<trkpt lat="57.113331" lon="40.872104"><time>1970-01-01T00:00:01.000Z</time></trkpt>
			<trkpt lat="57.113525" lon="40.871911"><time>1970-01-01T00:00:01.000Z</time></trkpt>
			<trkpt lat="57.113632" lon="40.871739"><time>1970-01-01T00:00:01.000Z</time></trkpt>
			<trkpt lat="57.113610" lon="40.871718"><time>1970-01-01T00:00:01.000Z</time></trkpt>
			<trkpt lat="57.113567" lon="40.871761"><time>1970-01-01T00:00:01.000Z</time></trkpt>
			<trkpt lat="57.113567" lon="40.871868"><time>1970-01-01T00:00:01.000Z</time></trkpt>
			<trkpt lat="57.113868" lon="40.871632"><time>1970-01-01T00:00:01.000Z</time></trkpt>
			<trkpt lat="57.113932" lon="40.871460"><time>1970-01-01T00:00:01.000Z</time></trkpt>
			<trkpt lat="57.114147" lon="40.871182"><time>1970-01-01T00:00:01.000Z</time></trkpt>
			<trkpt lat="57.114233" lon="40.871139"><time>1970-01-01T00:00:01.000Z</time></trkpt>
			<trkpt lat="57.114426" lon="40.870731"><time>1970-01-01T00:00:01.000Z</time></trkpt>
			<trkpt lat="57.114597" lon="40.870688"><time>1970-01-01T00:00:01.000Z</time></trkpt>
			<trkpt lat="57.114662" lon="40.870581"><time>1970-01-01T00:00:01.000Z</time></trkpt>
			<trkpt lat="57.114683" lon="40.870409"><time>1970-01-01T00:00:01.000Z</time></trkpt>
			<trkpt lat="57.114898" lon="40.870216"><time>1970-01-01T00:00:01.000Z</time></trkpt>
			<trkpt lat="57.115713" lon="40.868650"><time>1970-01-01T00:00:01.000Z</time></trkpt>
			<trkpt lat="57.115992" lon="40.868285"><time>1970-01-01T00:00:01.000Z</time></trkpt>
			<trkpt lat="57.116185" lon="40.868092"><time>1970-01-01T00:00:01.000Z</time></trkpt>
			<trkpt lat="57.116378" lon="40.868070"><time>1970-01-01T00:00:01.000Z</time></trkpt>
			<trkpt lat="57.116808" lon="40.867834"><time>1970-01-01T00:00:01.000Z</time></trkpt>
			<trkpt lat="57.116872" lon="40.867684"><time>1970-01-01T00:00:01.000Z</time></trkpt>
			<trkpt lat="57.117237" lon="40.866118"><time>1970-01-01T00:00:01.000Z</time></trkpt>
			<trkpt lat="57.117258" lon="40.865796"><time>1970-01-01T00:00:01.000Z</time></trkpt>
			<trkpt lat="57.117365" lon="40.865495"><time>1970-01-01T00:00:01.000Z</time></trkpt>
			<trkpt lat="57.117687" lon="40.864873"><time>1970-01-01T00:00:01.000Z</time></trkpt>
			<trkpt lat="57.118031" lon="40.863521"><time>1970-01-01T00:00:01.000Z</time></trkpt>
			<trkpt lat="57.118202" lon="40.863221"><time>1970-01-01T00:00:01.000Z</time></trkpt>
			<trkpt lat="57.118374" lon="40.862684"><time>1970-01-01T00:00:01.000Z</time></trkpt>
			<trkpt lat="57.118438" lon="40.862620"><time>1970-01-01T00:00:01.000Z</time></trkpt>
			<trkpt lat="57.118760" lon="40.861611"><time>1970-01-01T00:00:01.000Z</time></trkpt>
			<trkpt lat="57.119103" lon="40.860946"><time>1970-01-01T00:00:01.000Z</time></trkpt>
			<trkpt lat="57.119275" lon="40.860796"><time>1970-01-01T00:00:01.000Z</time></trkpt>
			<trkpt lat="57.119833" lon="40.859873"><time>1970-01-01T00:00:01.000Z</time></trkpt>
			<trkpt lat="57.120284" lon="40.858994"><time>1970-01-01T00:00:01.000Z</time></trkpt>
			<trkpt lat="57.120606" lon="40.858500"><time>1970-01-01T00:00:01.000Z</time></trkpt>
			<trkpt lat="57.121013" lon="40.857642"><time>1970-01-01T00:00:01.000Z</time></trkpt>
			<trkpt lat="57.121657" lon="40.856719"><time>1970-01-01T00:00:01.000Z</time></trkpt>
			<trkpt lat="57.122193" lon="40.855281"><time>1970-01-01T00:00:01.000Z</time></trkpt>
			<trkpt lat="57.122236" lon="40.855303"><time>1970-01-01T00:00:01.000Z</time></trkpt>
			<trkpt lat="57.122580" lon="40.854573"><time>1970-01-01T00:00:01.000Z</time></trkpt>
			<trkpt lat="57.123138" lon="40.853522"><time>1970-01-01T00:00:01.000Z</time></trkpt>
			<trkpt lat="57.123438" lon="40.852406"><time>1970-01-01T00:00:01.000Z</time></trkpt>
			<trkpt lat="57.123653" lon="40.852020"><time>1970-01-01T00:00:01.000Z</time></trkpt>
			<trkpt lat="57.124060" lon="40.851634"><time>1970-01-01T00:00:01.000Z</time></trkpt>
			<trkpt lat="57.124210" lon="40.851440"><time>1970-01-01T00:00:01.000Z</time></trkpt>
			<trkpt lat="57.124468" lon="40.850968"><time>1970-01-01T00:00:01.000Z</time></trkpt>
			<trkpt lat="57.124597" lon="40.850818"><time>1970-01-01T00:00:01.000Z</time></trkpt>
			<trkpt lat="57.124747" lon="40.850797"><time>1970-01-01T00:00:01.000Z</time></trkpt>
			<trkpt lat="57.124940" lon="40.850689"><time>1970-01-01T00:00:01.000Z</time></trkpt>
			<trkpt lat="57.125197" lon="40.850668"><time>1970-01-01T00:00:01.000Z</time></trkpt>
			<trkpt lat="57.125369" lon="40.850604"><time>1970-01-01T00:00:01.000Z</time></trkpt>
			<trkpt lat="57.125605" lon="40.850432"><time>1970-01-01T00:00:01.000Z</time></trkpt>
			<trkpt lat="57.125927" lon="40.850303"><time>1970-01-01T00:00:01.000Z</time></trkpt>
			<trkpt lat="57.126421" lon="40.850325"><time>1970-01-01T00:00:01.000Z</time></trkpt>
			<trkpt lat="57.126549" lon="40.850389"><time>1970-01-01T00:00:01.000Z</time></trkpt>
			<trkpt lat="57.126657" lon="40.850539"><time>1970-01-01T00:00:01.000Z</time></trkpt>
			<trkpt lat="57.126764" lon="40.850496"><time>1970-01-01T00:00:01.000Z</time></trkpt>
			<trkpt lat="57.126785" lon="40.850582"><time>1970-01-01T00:00:01.000Z</time></trkpt>
			<trkpt lat="57.126721" lon="40.850582"><time>1970-01-01T00:00:01.000Z</time></trkpt>
			<trkpt lat="57.126828" lon="40.850496"><time>1970-01-01T00:00:01.000Z</time></trkpt>
			<trkpt lat="57.127064" lon="40.850582"><time>1970-01-01T00:00:01.000Z</time></trkpt>
			<trkpt lat="57.127172" lon="40.850539"><time>1970-01-01T00:00:01.000Z</time></trkpt>
			<trkpt lat="57.127536" lon="40.850110"><time>1970-01-01T00:00:01.000Z</time></trkpt>
			<trkpt lat="57.127536" lon="40.849981"><time>1970-01-01T00:00:01.000Z</time></trkpt>
			<trkpt lat="57.128030" lon="40.850024"><time>1970-01-01T00:00:01.000Z</time></trkpt>
			<trkpt lat="57.128223" lon="40.850153"><time>1970-01-01T00:00:01.000Z</time></trkpt>
			<trkpt lat="57.128523" lon="40.850239"><time>1970-01-01T00:00:01.000Z</time></trkpt>
			<trkpt lat="57.128845" lon="40.850174"><time>1970-01-01T00:00:01.000Z</time></trkpt>
			<trkpt lat="57.129232" lon="40.849981"><time>1970-01-01T00:00:01.000Z</time></trkpt>
			<trkpt lat="57.129661" lon="40.849552"><time>1970-01-01T00:00:01.000Z</time></trkpt>
			<trkpt lat="57.130111" lon="40.849252"><time>1970-01-01T00:00:01.000Z</time></trkpt>
			<trkpt lat="57.130261" lon="40.849316"><time>1970-01-01T00:00:01.000Z</time></trkpt>
			<trkpt lat="57.130412" lon="40.849295"><time>1970-01-01T00:00:01.000Z</time></trkpt>
			<trkpt lat="57.130605" lon="40.849187"><time>1970-01-01T00:00:01.000Z</time></trkpt>
			<trkpt lat="57.130776" lon="40.848973"><time>1970-01-01T00:00:01.000Z</time></trkpt>
			<trkpt lat="57.131270" lon="40.848737"><time>1970-01-01T00:00:01.000Z</time></trkpt>
			<trkpt lat="57.131485" lon="40.848844"><time>1970-01-01T00:00:01.000Z</time></trkpt>
			<trkpt lat="57.131721" lon="40.848844"><time>1970-01-01T00:00:01.000Z</time></trkpt>
			<trkpt lat="57.131957" lon="40.848930"><time>1970-01-01T00:00:01.000Z</time></trkpt>
			<trkpt lat="57.131935" lon="40.849080"><time>1970-01-01T00:00:01.000Z</time></trkpt>
			<trkpt lat="57.132107" lon="40.850174"><time>1970-01-01T00:00:01.000Z</time></trkpt>
			<trkpt lat="57.132321" lon="40.850346"><time>1970-01-01T00:00:01.000Z</time></trkpt>
			<trkpt lat="57.132493" lon="40.850260"><time>1970-01-01T00:00:01.000Z</time></trkpt>
			<trkpt lat="57.132793" lon="40.850003"><time>1970-01-01T00:00:01.000Z</time></trkpt>
			<trkpt lat="57.132922" lon="40.849938"><time>1970-01-01T00:00:01.000Z</time></trkpt>
			<trkpt lat="57.133137" lon="40.849896"><time>1970-01-01T00:00:01.000Z</time></trkpt>
			<trkpt lat="57.133223" lon="40.849917"><time>1970-01-01T00:00:01.000Z</time></trkpt>
			<trkpt lat="57.133480" lon="40.849831"><time>1970-01-01T00:00:01.000Z</time></trkpt>
			<trkpt lat="57.133502" lon="40.849702"><time>1970-01-01T00:00:01.000Z</time></trkpt>
			<trkpt lat="57.133652" lon="40.849595"><time>1970-01-01T00:00:01.000Z</time></trkpt>
			<trkpt lat="57.133738" lon="40.849423"><time>1970-01-01T00:00:01.000Z</time></trkpt>
			<trkpt lat="57.133845" lon="40.849338"><time>1970-01-01T00:00:01.000Z</time></trkpt>
			<trkpt lat="57.133995" lon="40.849316"><time>1970-01-01T00:00:01.000Z</time></trkpt>
			<trkpt lat="57.134982" lon="40.848780"><time>1970-01-01T00:00:01.000Z</time></trkpt>
			<trkpt lat="57.135562" lon="40.848630"><time>1970-01-01T00:00:01.000Z</time></trkpt>
			<trkpt lat="57.135883" lon="40.848651"><time>1970-01-01T00:00:01.000Z</time></trkpt>
			<trkpt lat="57.136055" lon="40.848587"><time>1970-01-01T00:00:01.000Z</time></trkpt>
			<trkpt lat="57.136141" lon="40.848608"><time>1970-01-01T00:00:01.000Z</time></trkpt>
			<trkpt lat="57.136270" lon="40.848587"><time>1970-01-01T00:00:01.000Z</time></trkpt>
			<trkpt lat="57.136463" lon="40.848630"><time>1970-01-01T00:00:01.000Z</time></trkpt>
			<trkpt lat="57.136570" lon="40.848887"><time>1970-01-01T00:00:01.000Z</time></trkpt>
			<trkpt lat="57.136742" lon="40.848994"><time>1970-01-01T00:00:01.000Z</time></trkpt>
			<trkpt lat="57.136892" lon="40.848973"><time>1970-01-01T00:00:01.000Z</time></trkpt>
			<trkpt lat="57.137149" lon="40.848544"><time>1970-01-01T00:00:01.000Z</time></trkpt>
			<trkpt lat="57.137343" lon="40.848329"><time>1970-01-01T00:00:01.000Z</time></trkpt>
			<trkpt lat="57.137600" lon="40.847879"><time>1970-01-01T00:00:01.000Z</time></trkpt>
			<trkpt lat="57.137836" lon="40.847642"><time>1970-01-01T00:00:01.000Z</time></trkpt>
			<trkpt lat="57.138051" lon="40.847299"><time>1970-01-01T00:00:01.000Z</time></trkpt>
			<trkpt lat="57.138587" lon="40.846012"><time>1970-01-01T00:00:01.000Z</time></trkpt>
			<trkpt lat="57.138823" lon="40.845540"><time>1970-01-01T00:00:01.000Z</time></trkpt>
			<trkpt lat="57.138952" lon="40.845411"><time>1970-01-01T00:00:01.000Z</time></trkpt>
			<trkpt lat="57.139016" lon="40.845411"><time>1970-01-01T00:00:01.000Z</time></trkpt>
			<trkpt lat="57.139188" lon="40.845261"><time>1970-01-01T00:00:01.000Z</time></trkpt>
			<trkpt lat="57.139317" lon="40.845196"><time>1970-01-01T00:00:01.000Z</time></trkpt>
			<trkpt lat="57.139982" lon="40.845089"><time>1970-01-01T00:00:01.000Z</time></trkpt>
			<trkpt lat="57.140196" lon="40.845025"><time>1970-01-01T00:00:01.000Z</time></trkpt>
			<trkpt lat="57.140518" lon="40.844789"><time>1970-01-01T00:00:01.000Z</time></trkpt>
			<trkpt lat="57.140840" lon="40.844016"><time>1970-01-01T00:00:01.000Z</time></trkpt>
			<trkpt lat="57.140926" lon="40.843566"><time>1970-01-01T00:00:01.000Z</time></trkpt>
			<trkpt lat="57.141248" lon="40.842814"><time>1970-01-01T00:00:01.000Z</time></trkpt>
			<trkpt lat="57.141720" lon="40.842557"><time>1970-01-01T00:00:01.000Z</time></trkpt>
			<trkpt lat="57.142063" lon="40.842278"><time>1970-01-01T00:00:01.000Z</time></trkpt>
			<trkpt lat="57.142321" lon="40.842171"><time>1970-01-01T00:00:01.000Z</time></trkpt>
			<trkpt lat="57.142836" lon="40.841699"><time>1970-01-01T00:00:01.000Z</time></trkpt>
			<trkpt lat="57.143200" lon="40.841463"><time>1970-01-01T00:00:01.000Z</time></trkpt>
			<trkpt lat="57.143651" lon="40.840304"><time>1970-01-01T00:00:01.000Z</time></trkpt>
			<trkpt lat="57.143780" lon="40.840197"><time>1970-01-01T00:00:01.000Z</time></trkpt>
			<trkpt lat="57.143887" lon="40.840240"><time>1970-01-01T00:00:01.000Z</time></trkpt>
			<trkpt lat="57.144080" lon="40.840561"><time>1970-01-01T00:00:01.000Z</time></trkpt>
			<trkpt lat="57.144252" lon="40.840690"><time>1970-01-01T00:00:01.000Z</time></trkpt>
			<trkpt lat="57.144424" lon="40.840926"><time>1970-01-01T00:00:01.000Z</time></trkpt>
			<trkpt lat="57.144466" lon="40.841034"><time>1970-01-01T00:00:01.000Z</time></trkpt>
			<trkpt lat="57.144445" lon="40.841548"><time>1970-01-01T00:00:01.000Z</time></trkpt>
			<trkpt lat="57.144466" lon="40.841785"><time>1970-01-01T00:00:01.000Z</time></trkpt>
			<trkpt lat="57.144595" lon="40.842342"><time>1970-01-01T00:00:01.000Z</time></trkpt>
			<trkpt lat="57.144660" lon="40.842385"><time>1970-01-01T00:00:01.000Z</time></trkpt>
			<trkpt lat="57.144831" lon="40.842793"><time>1970-01-01T00:00:01.000Z</time></trkpt>
			<trkpt lat="57.145003" lon="40.842814"><time>1970-01-01T00:00:01.000Z</time></trkpt>
			<trkpt lat="57.145196" lon="40.842793"><time>1970-01-01T00:00:01.000Z</time></trkpt>
			<trkpt lat="57.145561" lon="40.842428"><time>1970-01-01T00:00:01.000Z</time></trkpt>
			<trkpt lat="57.145883" lon="40.842257"><time>1970-01-01T00:00:01.000Z</time></trkpt>
			<trkpt lat="57.146140" lon="40.842342"><time>1970-01-01T00:00:01.000Z</time></trkpt>
			<trkpt lat="57.146398" lon="40.842278"><time>1970-01-01T00:00:01.000Z</time></trkpt>
			<trkpt lat="57.146548" lon="40.842385"><time>1970-01-01T00:00:01.000Z</time></trkpt>
			<trkpt lat="57.147020" lon="40.842407"><time>1970-01-01T00:00:01.000Z</time></trkpt>
			<trkpt lat="57.147235" lon="40.842149"><time>1970-01-01T00:00:01.000Z</time></trkpt>
			<trkpt lat="57.147106" lon="40.842385"><time>1970-01-01T00:00:01.000Z</time></trkpt>
			<trkpt lat="57.146934" lon="40.842471"><time>1970-01-01T00:00:01.000Z</time></trkpt>
			<trkpt lat="57.146677" lon="40.842321"><time>1970-01-01T00:00:01.000Z</time></trkpt>
			<trkpt lat="57.146548" lon="40.842364"><time>1970-01-01T00:00:01.000Z</time></trkpt>
			<trkpt lat="57.146569" lon="40.842471"><time>1970-01-01T00:00:01.000Z</time></trkpt>
			<trkpt lat="57.146720" lon="40.842772"><time>1970-01-01T00:00:01.000Z</time></trkpt>
			<trkpt lat="57.146913" lon="40.843909"><time>1970-01-01T00:00:01.000Z</time></trkpt>
			<trkpt lat="57.146891" lon="40.844016"><time>1970-01-01T00:00:01.000Z</time></trkpt>
			<trkpt lat="57.146998" lon="40.844274"><time>1970-01-01T00:00:01.000Z</time></trkpt>
			<trkpt lat="57.147084" lon="40.845282"><time>1970-01-01T00:00:01.000Z</time></trkpt>
			<trkpt lat="57.147363" lon="40.846162"><time>1970-01-01T00:00:01.000Z</time></trkpt>
			<trkpt lat="57.147320" lon="40.846613"><time>1970-01-01T00:00:01.000Z</time></trkpt>
			<trkpt lat="57.147449" lon="40.847685"><time>1970-01-01T00:00:01.000Z</time></trkpt>
			<trkpt lat="57.147428" lon="40.848222"><time>1970-01-01T00:00:01.000Z</time></trkpt>
			<trkpt lat="57.147513" lon="40.849423"><time>1970-01-01T00:00:01.000Z</time></trkpt>
			<trkpt lat="57.147492" lon="40.849896"><time>1970-01-01T00:00:01.000Z</time></trkpt>
			<trkpt lat="57.147556" lon="40.850110"><time>1970-01-01T00:00:01.000Z</time></trkpt>
			<trkpt lat="57.147599" lon="40.850561"><time>1970-01-01T00:00:01.000Z</time></trkpt>
			<trkpt lat="57.147578" lon="40.850775"><time>1970-01-01T00:00:01.000Z</time></trkpt>
			<trkpt lat="57.147621" lon="40.851269"><time>1970-01-01T00:00:01.000Z</time></trkpt>
			<trkpt lat="57.147771" lon="40.851848"><time>1970-01-01T00:00:01.000Z</time></trkpt>
			<trkpt lat="57.147685" lon="40.852277"><time>1970-01-01T00:00:01.000Z</time></trkpt>
			<trkpt lat="57.147406" lon="40.854595"><time>1970-01-01T00:00:01.000Z</time></trkpt>
			<trkpt lat="57.147192" lon="40.855839"><time>1970-01-01T00:00:01.000Z</time></trkpt>
			<trkpt lat="57.147084" lon="40.855990"><time>1970-01-01T00:00:01.000Z</time></trkpt>
			<trkpt lat="57.146827" lon="40.856655"><time>1970-01-01T00:00:01.000Z</time></trkpt>
			<trkpt lat="57.146720" lon="40.856848"><time>1970-01-01T00:00:01.000Z</time></trkpt>
			<trkpt lat="57.146698" lon="40.857041"><time>1970-01-01T00:00:01.000Z</time></trkpt>
			<trkpt lat="57.146848" lon="40.857298"><time>1970-01-01T00:00:01.000Z</time></trkpt>
			<trkpt lat="57.146891" lon="40.857256"><time>1970-01-01T00:00:01.000Z</time></trkpt>
			<trkpt lat="57.146956" lon="40.857341"><time>1970-01-01T00:00:01.000Z</time></trkpt>
			<trkpt lat="57.146891" lon="40.857363"><time>1970-01-01T00:00:01.000Z</time></trkpt>
			<trkpt lat="57.146891" lon="40.857277"><time>1970-01-01T00:00:01.000Z</time></trkpt>
			<trkpt lat="57.146977" lon="40.857320"><time>1970-01-01T00:00:01.000Z</time></trkpt>
			<trkpt lat="57.146913" lon="40.857406"><time>1970-01-01T00:00:01.000Z</time></trkpt>
			<trkpt lat="57.146998" lon="40.857363"><time>1970-01-01T00:00:01.000Z</time></trkpt>
			<trkpt lat="57.146934" lon="40.857298"><time>1970-01-01T00:00:01.000Z</time></trkpt>
			<trkpt lat="57.146891" lon="40.857449"><time>1970-01-01T00:00:01.000Z</time></trkpt>
			<trkpt lat="57.147170" lon="40.857964"><time>1970-01-01T00:00:01.000Z</time></trkpt>
			<trkpt lat="57.147277" lon="40.857985"><time>1970-01-01T00:00:01.000Z</time></trkpt>
			<trkpt lat="57.147320" lon="40.857942"><time>1970-01-01T00:00:01.000Z</time></trkpt>
			<trkpt lat="57.147578" lon="40.858200"><time>1970-01-01T00:00:01.000Z</time></trkpt>
			<trkpt lat="57.147814" lon="40.858564"><time>1970-01-01T00:00:01.000Z</time></trkpt>
			<trkpt lat="57.147792" lon="40.858672"><time>1970-01-01T00:00:01.000Z</time></trkpt>
			<trkpt lat="57.148157" lon="40.859337"><time>1970-01-01T00:00:01.000Z</time></trkpt>
			<trkpt lat="57.148157" lon="40.859466"><time>1970-01-01T00:00:01.000Z</time></trkpt>
			<trkpt lat="57.148114" lon="40.859551"><time>1970-01-01T00:00:01.000Z</time></trkpt>
			<trkpt lat="57.148157" lon="40.859959"><time>1970-01-01T00:00:01.000Z</time></trkpt>
			<trkpt lat="57.148350" lon="40.860002"><time>1970-01-01T00:00:01.000Z</time></trkpt>
			<trkpt lat="57.148415" lon="40.859959"><time>1970-01-01T00:00:01.000Z</time></trkpt>
			<trkpt lat="57.148565" lon="40.860453"><time>1970-01-01T00:00:01.000Z</time></trkpt>
			<trkpt lat="57.148651" lon="40.860517"><time>1970-01-01T00:00:01.000Z</time></trkpt>
			<trkpt lat="57.148715" lon="40.860474"><time>1970-01-01T00:00:01.000Z</time></trkpt>
			<trkpt lat="57.148737" lon="40.860388"><time>1970-01-01T00:00:01.000Z</time></trkpt>
			<trkpt lat="57.148651" lon="40.860517"><time>1970-01-01T00:00:01.000Z</time></trkpt>
			<trkpt lat="57.148651" lon="40.860903"><time>1970-01-01T00:00:01.000Z</time></trkpt>
			<trkpt lat="57.148865" lon="40.861375"><time>1970-01-01T00:00:01.000Z</time></trkpt>
			<trkpt lat="57.148844" lon="40.861590"><time>1970-01-01T00:00:01.000Z</time></trkpt>
			<trkpt lat="57.149209" lon="40.861354"><time>1970-01-01T00:00:01.000Z</time></trkpt>
			<trkpt lat="57.149724" lon="40.861182"><time>1970-01-01T00:00:01.000Z</time></trkpt>
			<trkpt lat="57.149831" lon="40.861182"><time>1970-01-01T00:00:01.000Z</time></trkpt>
			<trkpt lat="57.150217" lon="40.860667"><time>1970-01-01T00:00:01.000Z</time></trkpt>
			<trkpt lat="57.150067" lon="40.860839"><time>1970-01-01T00:00:01.000Z</time></trkpt>
			<trkpt lat="57.149917" lon="40.861096"><time>1970-01-01T00:00:01.000Z</time></trkpt>
			<trkpt lat="57.149767" lon="40.861118"><time>1970-01-01T00:00:01.000Z</time></trkpt>
			<trkpt lat="57.149209" lon="40.861332"><time>1970-01-01T00:00:01.000Z</time></trkpt>
			<trkpt lat="57.148908" lon="40.861590"><time>1970-01-01T00:00:01.000Z</time></trkpt>
			<trkpt lat="57.149015" lon="40.861418"><time>1970-01-01T00:00:01.000Z</time></trkpt>
			<trkpt lat="57.149552" lon="40.861268"><time>1970-01-01T00:00:01.000Z</time></trkpt>
			<trkpt lat="57.149702" lon="40.861182"><time>1970-01-01T00:00:01.000Z</time></trkpt>
			<trkpt lat="57.149874" lon="40.861161"><time>1970-01-01T00:00:01.000Z</time></trkpt>
			<trkpt lat="57.150410" lon="40.860388"><time>1970-01-01T00:00:01.000Z</time></trkpt>
			<trkpt lat="57.151118" lon="40.859122"><time>1970-01-01T00:00:01.000Z</time></trkpt>
			<trkpt lat="57.151247" lon="40.858994"><time>1970-01-01T00:00:01.000Z</time></trkpt>
			<trkpt lat="57.151354" lon="40.858800"><time>1970-01-01T00:00:01.000Z</time></trkpt>
			<trkpt lat="57.151762" lon="40.858371"><time>1970-01-01T00:00:01.000Z</time></trkpt>
			<trkpt lat="57.151805" lon="40.858264"><time>1970-01-01T00:00:01.000Z</time></trkpt>
			<trkpt lat="57.152127" lon="40.857878"><time>1970-01-01T00:00:01.000Z</time></trkpt>
			<trkpt lat="57.152792" lon="40.857170"><time>1970-01-01T00:00:01.000Z</time></trkpt>
			<trkpt lat="57.153157" lon="40.856955"><time>1970-01-01T00:00:01.000Z</time></trkpt>
			<trkpt lat="57.153221" lon="40.856826"><time>1970-01-01T00:00:01.000Z</time></trkpt>
			<trkpt lat="57.153693" lon="40.856483"><time>1970-01-01T00:00:01.000Z</time></trkpt>
			<trkpt lat="57.154230" lon="40.856354"><time>1970-01-01T00:00:01.000Z</time></trkpt>
			<trkpt lat="57.154573" lon="40.856161"><time>1970-01-01T00:00:01.000Z</time></trkpt>
			<trkpt lat="57.155324" lon="40.855882"><time>1970-01-01T00:00:01.000Z</time></trkpt>
			<trkpt lat="57.155732" lon="40.855839"><time>1970-01-01T00:00:01.000Z</time></trkpt>
			<trkpt lat="57.155946" lon="40.855968"><time>1970-01-01T00:00:01.000Z</time></trkpt>
			<trkpt lat="57.156118" lon="40.856011"><time>1970-01-01T00:00:01.000Z</time></trkpt>
			<trkpt lat="57.156333" lon="40.856140"><time>1970-01-01T00:00:01.000Z</time></trkpt>
			<trkpt lat="57.156504" lon="40.856183"><time>1970-01-01T00:00:01.000Z</time></trkpt>
			<trkpt lat="57.156633" lon="40.856290"><time>1970-01-01T00:00:01.000Z</time></trkpt>
			<trkpt lat="57.156955" lon="40.856440"><time>1970-01-01T00:00:01.000Z</time></trkpt>
			<trkpt lat="57.157255" lon="40.856483"><time>1970-01-01T00:00:01.000Z</time></trkpt>
			<trkpt lat="57.157277" lon="40.856397"><time>1970-01-01T00:00:01.000Z</time></trkpt>
			<trkpt lat="57.157234" lon="40.856354"><time>1970-01-01T00:00:01.000Z</time></trkpt>
			<trkpt lat="57.157298" lon="40.856547"><time>1970-01-01T00:00:01.000Z</time></trkpt>
			<trkpt lat="57.157491" lon="40.856612"><time>1970-01-01T00:00:01.000Z</time></trkpt>
			<trkpt lat="57.157513" lon="40.856569"><time>1970-01-01T00:00:01.000Z</time></trkpt>
			<trkpt lat="57.157577" lon="40.856590"><time>1970-01-01T00:00:01.000Z</time></trkpt>
			<trkpt lat="57.157727" lon="40.856698"><time>1970-01-01T00:00:01.000Z</time></trkpt>
			<trkpt lat="57.158350" lon="40.856955"><time>1970-01-01T00:00:01.000Z</time></trkpt>
			<trkpt lat="57.158500" lon="40.857084"><time>1970-01-01T00:00:01.000Z</time></trkpt>
			<trkpt lat="57.158650" lon="40.857105"><time>1970-01-01T00:00:01.000Z</time></trkpt>
			<trkpt lat="57.160345" lon="40.858092"><time>1970-01-01T00:00:01.000Z</time></trkpt>
			<trkpt lat="57.161847" lon="40.858607"><time>1970-01-01T00:00:01.000Z</time></trkpt>
			<trkpt lat="57.162255" lon="40.858672"><time>1970-01-01T00:00:01.000Z</time></trkpt>
			<trkpt lat="57.162534" lon="40.858800"><time>1970-01-01T00:00:01.000Z</time></trkpt>
			<trkpt lat="57.162748" lon="40.859165"><time>1970-01-01T00:00:01.000Z</time></trkpt>
			<trkpt lat="57.162834" lon="40.859551"><time>1970-01-01T00:00:01.000Z</time></trkpt>
			<trkpt lat="57.163092" lon="40.861719"><time>1970-01-01T00:00:01.000Z</time></trkpt>
			<trkpt lat="57.163263" lon="40.862727"><time>1970-01-01T00:00:01.000Z</time></trkpt>
			<trkpt lat="57.163628" lon="40.864508"><time>1970-01-01T00:00:01.000Z</time></trkpt>
			<trkpt lat="57.164014" lon="40.865710"><time>1970-01-01T00:00:01.000Z</time></trkpt>
			<trkpt lat="57.164658" lon="40.867384"><time>1970-01-01T00:00:01.000Z</time></trkpt>
			<trkpt lat="57.165109" lon="40.868242"><time>1970-01-01T00:00:01.000Z</time></trkpt>
			<trkpt lat="57.165452" lon="40.868993"><time>1970-01-01T00:00:01.000Z</time></trkpt>
			<trkpt lat="57.165495" lon="40.869186"><time>1970-01-01T00:00:01.000Z</time></trkpt>
			<trkpt lat="57.166096" lon="40.870431"><time>1970-01-01T00:00:01.000Z</time></trkpt>
			<trkpt lat="57.166740" lon="40.872169"><time>1970-01-01T00:00:01.000Z</time></trkpt>
			<trkpt lat="57.167297" lon="40.873370"><time>1970-01-01T00:00:01.000Z</time></trkpt>
			<trkpt lat="57.167598" lon="40.874207"><time>1970-01-01T00:00:01.000Z</time></trkpt>
			<trkpt lat="57.167898" lon="40.875516"><time>1970-01-01T00:00:01.000Z</time></trkpt>
			<trkpt lat="57.168048" lon="40.877447"><time>1970-01-01T00:00:01.000Z</time></trkpt>
			<trkpt lat="57.168113" lon="40.877833"><time>1970-01-01T00:00:01.000Z</time></trkpt>
			<trkpt lat="57.168435" lon="40.878606"><time>1970-01-01T00:00:01.000Z</time></trkpt>
			<trkpt lat="57.168542" lon="40.878735"><time>1970-01-01T00:00:01.000Z</time></trkpt>
			<trkpt lat="57.168842" lon="40.879529"><time>1970-01-01T00:00:01.000Z</time></trkpt>
			<trkpt lat="57.168993" lon="40.879571"><time>1970-01-01T00:00:01.000Z</time></trkpt>
			<trkpt lat="57.169121" lon="40.879464"><time>1970-01-01T00:00:01.000Z</time></trkpt>
			<trkpt lat="57.169508" lon="40.878906"><time>1970-01-01T00:00:01.000Z</time></trkpt>
			<trkpt lat="57.170044" lon="40.878220"><time>1970-01-01T00:00:01.000Z</time></trkpt>
			<trkpt lat="57.170323" lon="40.878177"><time>1970-01-01T00:00:01.000Z</time></trkpt>
			<trkpt lat="57.173520" lon="40.878756"><time>1970-01-01T00:00:01.000Z</time></trkpt>
			<trkpt lat="57.174164" lon="40.878885"><time>1970-01-01T00:00:01.000Z</time></trkpt>
			<trkpt lat="57.174357" lon="40.878971"><time>1970-01-01T00:00:01.000Z</time></trkpt>
			<trkpt lat="57.174550" lon="40.878992"><time>1970-01-01T00:00:01.000Z</time></trkpt>
			<trkpt lat="57.174657" lon="40.878971"><time>1970-01-01T00:00:01.000Z</time></trkpt>
			<trkpt lat="57.175451" lon="40.879078"><time>1970-01-01T00:00:01.000Z</time></trkpt>
			<trkpt lat="57.175966" lon="40.879185"><time>1970-01-01T00:00:01.000Z</time></trkpt>
			<trkpt lat="57.176739" lon="40.879207"><time>1970-01-01T00:00:01.000Z</time></trkpt>
			<trkpt lat="57.176782" lon="40.879164"><time>1970-01-01T00:00:01.000Z</time></trkpt>
			<trkpt lat="57.176889" lon="40.879228"><time>1970-01-01T00:00:01.000Z</time></trkpt>
			<trkpt lat="57.176910" lon="40.879357"><time>1970-01-01T00:00:01.000Z</time></trkpt>
			<trkpt lat="57.176975" lon="40.879357"><time>1970-01-01T00:00:01.000Z</time></trkpt>
			<trkpt lat="57.177082" lon="40.879271"><time>1970-01-01T00:00:01.000Z</time></trkpt>
			<trkpt lat="57.177168" lon="40.879271"><time>1970-01-01T00:00:01.000Z</time></trkpt>
			<trkpt lat="57.177211" lon="40.879207"><time>1970-01-01T00:00:01.000Z</time></trkpt>
			<trkpt lat="57.177468" lon="40.879228"><time>1970-01-01T00:00:01.000Z</time></trkpt>
			<trkpt lat="57.177554" lon="40.879293"><time>1970-01-01T00:00:01.000Z</time></trkpt>
			<trkpt lat="57.177576" lon="40.879250"><time>1970-01-01T00:00:01.000Z</time></trkpt>
			<trkpt lat="57.178176" lon="40.879228"><time>1970-01-01T00:00:01.000Z</time></trkpt>
			<trkpt lat="57.178284" lon="40.879314"><time>1970-01-01T00:00:01.000Z</time></trkpt>
			<trkpt lat="57.178541" lon="40.879314"><time>1970-01-01T00:00:01.000Z</time></trkpt>
			<trkpt lat="57.178713" lon="40.879357"><time>1970-01-01T00:00:01.000Z</time></trkpt>
			<trkpt lat="57.178906" lon="40.879507"><time>1970-01-01T00:00:01.000Z</time></trkpt>
			<trkpt lat="57.179056" lon="40.879529"><time>1970-01-01T00:00:01.000Z</time></trkpt>
			<trkpt lat="57.179807" lon="40.879979"><time>1970-01-01T00:00:01.000Z</time></trkpt>
			<trkpt lat="57.180108" lon="40.880065"><time>1970-01-01T00:00:01.000Z</time></trkpt>
			<trkpt lat="57.180365" lon="40.880280"><time>1970-01-01T00:00:01.000Z</time></trkpt>
			<trkpt lat="57.180558" lon="40.880344"><time>1970-01-01T00:00:01.000Z</time></trkpt>
			<trkpt lat="57.180902" lon="40.880580"><time>1970-01-01T00:00:01.000Z</time></trkpt>
			<trkpt lat="57.181696" lon="40.881031"><time>1970-01-01T00:00:01.000Z</time></trkpt>
			<trkpt lat="57.182189" lon="40.881245"><time>1970-01-01T00:00:01.000Z</time></trkpt>
			<trkpt lat="57.183198" lon="40.881889"><time>1970-01-01T00:00:01.000Z</time></trkpt>
			<trkpt lat="57.184077" lon="40.882318"><time>1970-01-01T00:00:01.000Z</time></trkpt>
			<trkpt lat="57.184270" lon="40.882511"><time>1970-01-01T00:00:01.000Z</time></trkpt>
			<trkpt lat="57.184442" lon="40.882490"><time>1970-01-01T00:00:01.000Z</time></trkpt>
			<trkpt lat="57.184893" lon="40.882576"><time>1970-01-01T00:00:01.000Z</time></trkpt>
			<trkpt lat="57.185086" lon="40.882683"><time>1970-01-01T00:00:01.000Z</time></trkpt>
			<trkpt lat="57.185751" lon="40.882790"><time>1970-01-01T00:00:01.000Z</time></trkpt>
			<trkpt lat="57.185923" lon="40.882919"><time>1970-01-01T00:00:01.000Z</time></trkpt>
			<trkpt lat="57.186073" lon="40.882940"><time>1970-01-01T00:00:01.000Z</time></trkpt>
			<trkpt lat="57.186223" lon="40.883069"><time>1970-01-01T00:00:01.000Z</time></trkpt>
			<trkpt lat="57.186330" lon="40.883112"><time>1970-01-01T00:00:01.000Z</time></trkpt>
			<trkpt lat="57.186502" lon="40.883048"><time>1970-01-01T00:00:01.000Z</time></trkpt>
			<trkpt lat="57.186910" lon="40.883069"><time>1970-01-01T00:00:01.000Z</time></trkpt>
			<trkpt lat="57.187146" lon="40.883133"><time>1970-01-01T00:00:01.000Z</time></trkpt>
			<trkpt lat="57.187511" lon="40.883091"><time>1970-01-01T00:00:01.000Z</time></trkpt>
			<trkpt lat="57.187639" lon="40.883176"><time>1970-01-01T00:00:01.000Z</time></trkpt>
			<trkpt lat="57.187940" lon="40.883198"><time>1970-01-01T00:00:01.000Z</time></trkpt>
			<trkpt lat="57.188111" lon="40.883155"><time>1970-01-01T00:00:01.000Z</time></trkpt>
			<trkpt lat="57.188304" lon="40.883262"><time>1970-01-01T00:00:01.000Z</time></trkpt>
			<trkpt lat="57.188541" lon="40.883284"><time>1970-01-01T00:00:01.000Z</time></trkpt>
			<trkpt lat="57.188605" lon="40.883606"><time>1970-01-01T00:00:01.000Z</time></trkpt>
			<trkpt lat="57.188583" lon="40.883713"><time>1970-01-01T00:00:01.000Z</time></trkpt>
			<trkpt lat="57.188626" lon="40.883648"><time>1970-01-01T00:00:01.000Z</time></trkpt>
			<trkpt lat="57.188669" lon="40.883691"><time>1970-01-01T00:00:01.000Z</time></trkpt>
			<trkpt lat="57.188583" lon="40.883756"><time>1970-01-01T00:00:01.000Z</time></trkpt>
			<trkpt lat="57.188648" lon="40.883327"><time>1970-01-01T00:00:01.000Z</time></trkpt>
			<trkpt lat="57.188777" lon="40.883391"><time>1970-01-01T00:00:01.000Z</time></trkpt>
			<trkpt lat="57.189570" lon="40.883498"><time>1970-01-01T00:00:01.000Z</time></trkpt>
			<trkpt lat="57.189807" lon="40.883477"><time>1970-01-01T00:00:01.000Z</time></trkpt>
			<trkpt lat="57.190021" lon="40.883541"><time>1970-01-01T00:00:01.000Z</time></trkpt>
			<trkpt lat="57.190193" lon="40.883520"><time>1970-01-01T00:00:01.000Z</time></trkpt>
			<trkpt lat="57.190429" lon="40.883584"><time>1970-01-01T00:00:01.000Z</time></trkpt>
			<trkpt lat="57.191137" lon="40.883541"><time>1970-01-01T00:00:01.000Z</time></trkpt>
			<trkpt lat="57.191351" lon="40.883563"><time>1970-01-01T00:00:01.000Z</time></trkpt>
			<trkpt lat="57.191523" lon="40.883541"><time>1970-01-01T00:00:01.000Z</time></trkpt>
			<trkpt lat="57.191738" lon="40.883606"><time>1970-01-01T00:00:01.000Z</time></trkpt>
			<trkpt lat="57.192060" lon="40.883563"><time>1970-01-01T00:00:01.000Z</time></trkpt>
			<trkpt lat="57.192660" lon="40.883606"><time>1970-01-01T00:00:01.000Z</time></trkpt>
			<trkpt lat="57.192896" lon="40.883584"><time>1970-01-01T00:00:01.000Z</time></trkpt>
			<trkpt lat="57.193905" lon="40.883713"><time>1970-01-01T00:00:01.000Z</time></trkpt>
			<trkpt lat="57.194120" lon="40.883691"><time>1970-01-01T00:00:01.000Z</time></trkpt>
			<trkpt lat="57.194398" lon="40.883820"><time>1970-01-01T00:00:01.000Z</time></trkpt>
			<trkpt lat="57.194506" lon="40.883799"><time>1970-01-01T00:00:01.000Z</time></trkpt>
			<trkpt lat="57.194677" lon="40.883434"><time>1970-01-01T00:00:01.000Z</time></trkpt>
			<trkpt lat="57.194592" lon="40.883648"><time>1970-01-01T00:00:01.000Z</time></trkpt>
			<trkpt lat="57.194656" lon="40.883434"><time>1970-01-01T00:00:01.000Z</time></trkpt>
			<trkpt lat="57.194635" lon="40.882447"><time>1970-01-01T00:00:01.000Z</time></trkpt>
			<trkpt lat="57.194699" lon="40.880923"><time>1970-01-01T00:00:01.000Z</time></trkpt>
			<trkpt lat="57.194763" lon="40.880215"><time>1970-01-01T00:00:01.000Z</time></trkpt>
			<trkpt lat="57.194849" lon="40.879679"><time>1970-01-01T00:00:01.000Z</time></trkpt>
			<trkpt lat="57.194871" lon="40.879700"><time>1970-01-01T00:00:01.000Z</time></trkpt>
			<trkpt lat="57.194871" lon="40.879443"><time>1970-01-01T00:00:01.000Z</time></trkpt>
			<trkpt lat="57.195064" lon="40.878391"><time>1970-01-01T00:00:01.000Z</time></trkpt>
			<trkpt lat="57.195085" lon="40.877984"><time>1970-01-01T00:00:01.000Z</time></trkpt>
			<trkpt lat="57.195257" lon="40.877233"><time>1970-01-01T00:00:01.000Z</time></trkpt>
			<trkpt lat="57.195407" lon="40.876825"><time>1970-01-01T00:00:01.000Z</time></trkpt>
			<trkpt lat="57.195471" lon="40.876868"><time>1970-01-01T00:00:01.000Z</time></trkpt>
			<trkpt lat="57.195471" lon="40.876653"><time>1970-01-01T00:00:01.000Z</time></trkpt>
			<trkpt lat="57.196137" lon="40.875237"><time>1970-01-01T00:00:01.000Z</time></trkpt>
			<trkpt lat="57.196394" lon="40.874572"><time>1970-01-01T00:00:01.000Z</time></trkpt>
			<trkpt lat="57.196930" lon="40.873413"><time>1970-01-01T00:00:01.000Z</time></trkpt>
			<trkpt lat="57.197209" lon="40.872920"><time>1970-01-01T00:00:01.000Z</time></trkpt>
			<trkpt lat="57.197360" lon="40.872448"><time>1970-01-01T00:00:01.000Z</time></trkpt>
			<trkpt lat="57.197617" lon="40.871825"><time>1970-01-01T00:00:01.000Z</time></trkpt>
			<trkpt lat="57.198411" lon="40.870237"><time>1970-01-01T00:00:01.000Z</time></trkpt>
			<trkpt lat="57.198647" lon="40.868971"><time>1970-01-01T00:00:01.000Z</time></trkpt>
			<trkpt lat="57.198819" lon="40.867813"><time>1970-01-01T00:00:01.000Z</time></trkpt>
			<trkpt lat="57.199162" lon="40.866804"><time>1970-01-01T00:00:01.000Z</time></trkpt>
			<trkpt lat="57.199162" lon="40.866697"><time>1970-01-01T00:00:01.000Z</time></trkpt>
			<trkpt lat="57.200020" lon="40.865324"><time>1970-01-01T00:00:01.000Z</time></trkpt>
			<trkpt lat="57.200235" lon="40.864809"><time>1970-01-01T00:00:01.000Z</time></trkpt>
			<trkpt lat="57.200321" lon="40.864444"><time>1970-01-01T00:00:01.000Z</time></trkpt>
			<trkpt lat="57.200407" lon="40.863092"><time>1970-01-01T00:00:01.000Z</time></trkpt>
			<trkpt lat="57.200321" lon="40.862255"><time>1970-01-01T00:00:01.000Z</time></trkpt>
			<trkpt lat="57.199999" lon="40.861912"><time>1970-01-01T00:00:01.000Z</time></trkpt>
			<trkpt lat="57.199720" lon="40.861440"><time>1970-01-01T00:00:01.000Z</time></trkpt>
			<trkpt lat="57.199055" lon="40.860539"><time>1970-01-01T00:00:01.000Z</time></trkpt>
			<trkpt lat="57.198840" lon="40.860345"><time>1970-01-01T00:00:01.000Z</time></trkpt>
			<trkpt lat="57.197875" lon="40.859058"><time>1970-01-01T00:00:01.000Z</time></trkpt>
			<trkpt lat="57.197510" lon="40.858629"><time>1970-01-01T00:00:01.000Z</time></trkpt>
			<trkpt lat="57.197381" lon="40.858414"><time>1970-01-01T00:00:01.000Z</time></trkpt>
			<trkpt lat="57.197252" lon="40.858285"><time>1970-01-01T00:00:01.000Z</time></trkpt>
			<trkpt lat="57.197231" lon="40.858307"><time>1970-01-01T00:00:01.000Z</time></trkpt>
			<trkpt lat="57.197381" lon="40.858436"><time>1970-01-01T00:00:01.000Z</time></trkpt>
			<trkpt lat="57.196888" lon="40.857792"><time>1970-01-01T00:00:01.000Z</time></trkpt>
			<trkpt lat="57.196823" lon="40.857749"><time>1970-01-01T00:00:01.000Z</time></trkpt>
			<trkpt lat="57.196308" lon="40.856183"><time>1970-01-01T00:00:01.000Z</time></trkpt>
			<trkpt lat="57.196094" lon="40.855990"><time>1970-01-01T00:00:01.000Z</time></trkpt>
			<trkpt lat="57.195493" lon="40.854487"><time>1970-01-01T00:00:01.000Z</time></trkpt>
			<trkpt lat="57.195407" lon="40.854123"><time>1970-01-01T00:00:01.000Z</time></trkpt>
			<trkpt lat="57.195343" lon="40.852943"><time>1970-01-01T00:00:01.000Z</time></trkpt>
			<trkpt lat="57.195579" lon="40.852063"><time>1970-01-01T00:00:01.000Z</time></trkpt>
			<trkpt lat="57.196630" lon="40.849595"><time>1970-01-01T00:00:01.000Z</time></trkpt>
			<trkpt lat="57.196737" lon="40.848887"><time>1970-01-01T00:00:01.000Z</time></trkpt>
			<trkpt lat="57.196716" lon="40.848479"><time>1970-01-01T00:00:01.000Z</time></trkpt>
			<trkpt lat="57.196759" lon="40.847342"><time>1970-01-01T00:00:01.000Z</time></trkpt>
			<trkpt lat="57.196845" lon="40.846655"><time>1970-01-01T00:00:01.000Z</time></trkpt>
			<trkpt lat="57.197338" lon="40.845196"><time>1970-01-01T00:00:01.000Z</time></trkpt>
			<trkpt lat="57.197510" lon="40.844510"><time>1970-01-01T00:00:01.000Z</time></trkpt>
			<trkpt lat="57.197553" lon="40.843566"><time>1970-01-01T00:00:01.000Z</time></trkpt>
			<trkpt lat="57.197488" lon="40.843136"><time>1970-01-01T00:00:01.000Z</time></trkpt>
			<trkpt lat="57.197403" lon="40.842042"><time>1970-01-01T00:00:01.000Z</time></trkpt>
			<trkpt lat="57.197381" lon="40.840390"><time>1970-01-01T00:00:01.000Z</time></trkpt>
			<trkpt lat="57.197424" lon="40.840218"><time>1970-01-01T00:00:01.000Z</time></trkpt>
			<trkpt lat="57.197510" lon="40.839016"><time>1970-01-01T00:00:01.000Z</time></trkpt>
			<trkpt lat="57.197639" lon="40.838051"><time>1970-01-01T00:00:01.000Z</time></trkpt>
			<trkpt lat="57.197639" lon="40.837793"><time>1970-01-01T00:00:01.000Z</time></trkpt>
			<trkpt lat="57.197724" lon="40.837536"><time>1970-01-01T00:00:01.000Z</time></trkpt>
			<trkpt lat="57.197681" lon="40.837364"><time>1970-01-01T00:00:01.000Z</time></trkpt>
			<trkpt lat="57.197724" lon="40.836399"><time>1970-01-01T00:00:01.000Z</time></trkpt>
			<trkpt lat="57.197660" lon="40.835176"><time>1970-01-01T00:00:01.000Z</time></trkpt>
			<trkpt lat="57.197639" lon="40.833137"><time>1970-01-01T00:00:01.000Z</time></trkpt>
			<trkpt lat="57.197596" lon="40.832236"><time>1970-01-01T00:00:01.000Z</time></trkpt>
			<trkpt lat="57.197510" lon="40.831592"><time>1970-01-01T00:00:01.000Z</time></trkpt>
			<trkpt lat="57.196995" lon="40.828974"><time>1970-01-01T00:00:01.000Z</time></trkpt>
			<trkpt lat="57.196909" lon="40.828073"><time>1970-01-01T00:00:01.000Z</time></trkpt>
			<trkpt lat="57.196930" lon="40.827622"><time>1970-01-01T00:00:01.000Z</time></trkpt>
			<trkpt lat="57.196694" lon="40.825455"><time>1970-01-01T00:00:01.000Z</time></trkpt>
			<trkpt lat="57.196630" lon="40.825241"><time>1970-01-01T00:00:01.000Z</time></trkpt>
			<trkpt lat="57.196587" lon="40.824854"><time>1970-01-01T00:00:01.000Z</time></trkpt>
			<trkpt lat="57.196480" lon="40.824618"><time>1970-01-01T00:00:01.000Z</time></trkpt>
			<trkpt lat="57.195986" lon="40.822837"><time>1970-01-01T00:00:01.000Z</time></trkpt>
			<trkpt lat="57.195858" lon="40.822129"><time>1970-01-01T00:00:01.000Z</time></trkpt>
			<trkpt lat="57.195729" lon="40.821872"><time>1970-01-01T00:00:01.000Z</time></trkpt>
			<trkpt lat="57.195557" lon="40.821228"><time>1970-01-01T00:00:01.000Z</time></trkpt>
			<trkpt lat="57.195235" lon="40.819705"><time>1970-01-01T00:00:01.000Z</time></trkpt>
			<trkpt lat="57.194463" lon="40.817130"><time>1970-01-01T00:00:01.000Z</time></trkpt>
			<trkpt lat="57.194012" lon="40.816894"><time>1970-01-01T00:00:01.000Z</time></trkpt>
			<trkpt lat="57.193883" lon="40.816894"><time>1970-01-01T00:00:01.000Z</time></trkpt>
			<trkpt lat="57.193283" lon="40.816658"><time>1970-01-01T00:00:01.000Z</time></trkpt>
			<trkpt lat="57.193068" lon="40.816636"><time>1970-01-01T00:00:01.000Z</time></trkpt>
			<trkpt lat="57.192210" lon="40.816422"><time>1970-01-01T00:00:01.000Z</time></trkpt>
			<trkpt lat="57.191266" lon="40.816121"><time>1970-01-01T00:00:01.000Z</time></trkpt>
			<trkpt lat="57.190729" lon="40.816035"><time>1970-01-01T00:00:01.000Z</time></trkpt>
			<trkpt lat="57.190558" lon="40.815971"><time>1970-01-01T00:00:01.000Z</time></trkpt>
			<trkpt lat="57.190515" lon="40.815885"><time>1970-01-01T00:00:01.000Z</time></trkpt>
			<trkpt lat="57.190515" lon="40.815971"><time>1970-01-01T00:00:01.000Z</time></trkpt>
			<trkpt lat="57.190279" lon="40.816035"><time>1970-01-01T00:00:01.000Z</time></trkpt>
			<trkpt lat="57.190064" lon="40.816186"><time>1970-01-01T00:00:01.000Z</time></trkpt>
			<trkpt lat="57.189141" lon="40.816658"><time>1970-01-01T00:00:01.000Z</time></trkpt>
			<trkpt lat="57.188970" lon="40.816829"><time>1970-01-01T00:00:01.000Z</time></trkpt>
			<trkpt lat="57.188819" lon="40.816915"><time>1970-01-01T00:00:01.000Z</time></trkpt>
			<trkpt lat="57.188648" lon="40.816937"><time>1970-01-01T00:00:01.000Z</time></trkpt>
			<trkpt lat="57.188026" lon="40.817237"><time>1970-01-01T00:00:01.000Z</time></trkpt>
			<trkpt lat="57.187768" lon="40.817323"><time>1970-01-01T00:00:01.000Z</time></trkpt>
			<trkpt lat="57.187468" lon="40.817559"><time>1970-01-01T00:00:01.000Z</time></trkpt>
			<trkpt lat="57.186566" lon="40.818074"><time>1970-01-01T00:00:01.000Z</time></trkpt>
			<trkpt lat="57.184893" lon="40.818932"><time>1970-01-01T00:00:01.000Z</time></trkpt>
			<trkpt lat="57.183755" lon="40.819683"><time>1970-01-01T00:00:01.000Z</time></trkpt>
			<trkpt lat="57.183670" lon="40.819662"><time>1970-01-01T00:00:01.000Z</time></trkpt>
			<trkpt lat="57.183562" lon="40.819726"><time>1970-01-01T00:00:01.000Z</time></trkpt>
			<trkpt lat="57.183455" lon="40.819855"><time>1970-01-01T00:00:01.000Z</time></trkpt>
			<trkpt lat="57.183326" lon="40.819876"><time>1970-01-01T00:00:01.000Z</time></trkpt>
			<trkpt lat="57.182811" lon="40.820134"><time>1970-01-01T00:00:01.000Z</time></trkpt>
			<trkpt lat="57.182575" lon="40.820155"><time>1970-01-01T00:00:01.000Z</time></trkpt>
			<trkpt lat="57.182511" lon="40.820241"><time>1970-01-01T00:00:01.000Z</time></trkpt>
			<trkpt lat="57.182339" lon="40.820241"><time>1970-01-01T00:00:01.000Z</time></trkpt>
			<trkpt lat="57.182253" lon="40.820284"><time>1970-01-01T00:00:01.000Z</time></trkpt>
			<trkpt lat="57.181781" lon="40.820005"><time>1970-01-01T00:00:01.000Z</time></trkpt>
			<trkpt lat="57.181631" lon="40.819876"><time>1970-01-01T00:00:01.000Z</time></trkpt>
			<trkpt lat="57.181524" lon="40.819662"><time>1970-01-01T00:00:01.000Z</time></trkpt>
			<trkpt lat="57.181502" lon="40.819855"><time>1970-01-01T00:00:01.000Z</time></trkpt>
			<trkpt lat="57.179786" lon="40.818653"><time>1970-01-01T00:00:01.000Z</time></trkpt>
			<trkpt lat="57.179378" lon="40.818417"><time>1970-01-01T00:00:01.000Z</time></trkpt>
			<trkpt lat="57.178906" lon="40.818203"><time>1970-01-01T00:00:01.000Z</time></trkpt>
			<trkpt lat="57.177876" lon="40.818095"><time>1970-01-01T00:00:01.000Z</time></trkpt>
			<trkpt lat="57.176546" lon="40.818160"><time>1970-01-01T00:00:01.000Z</time></trkpt>
			<trkpt lat="57.175945" lon="40.818138"><time>1970-01-01T00:00:01.000Z</time></trkpt>
			<trkpt lat="57.174614" lon="40.818460"><time>1970-01-01T00:00:01.000Z</time></trkpt>
			<trkpt lat="57.174378" lon="40.818567"><time>1970-01-01T00:00:01.000Z</time></trkpt>
			<trkpt lat="57.173821" lon="40.818696"><time>1970-01-01T00:00:01.000Z</time></trkpt>
			<trkpt lat="57.173348" lon="40.818911"><time>1970-01-01T00:00:01.000Z</time></trkpt>
			<trkpt lat="57.173070" lon="40.818996"><time>1970-01-01T00:00:01.000Z</time></trkpt>
			<trkpt lat="57.172597" lon="40.819233"><time>1970-01-01T00:00:01.000Z</time></trkpt>
			<trkpt lat="57.172233" lon="40.819533"><time>1970-01-01T00:00:01.000Z</time></trkpt>
			<trkpt lat="57.172147" lon="40.819662"><time>1970-01-01T00:00:01.000Z</time></trkpt>
			<trkpt lat="57.172104" lon="40.819640"><time>1970-01-01T00:00:01.000Z</time></trkpt>
			<trkpt lat="57.171782" lon="40.819876"><time>1970-01-01T00:00:01.000Z</time></trkpt>
			<trkpt lat="57.171653" lon="40.819919"><time>1970-01-01T00:00:01.000Z</time></trkpt>
			<trkpt lat="57.171310" lon="40.820220"><time>1970-01-01T00:00:01.000Z</time></trkpt>
			<trkpt lat="57.171010" lon="40.820563"><time>1970-01-01T00:00:01.000Z</time></trkpt>
			<trkpt lat="57.170130" lon="40.821335"><time>1970-01-01T00:00:01.000Z</time></trkpt>
			<trkpt lat="57.169787" lon="40.821507"><time>1970-01-01T00:00:01.000Z</time></trkpt>
			<trkpt lat="57.169272" lon="40.821464"><time>1970-01-01T00:00:01.000Z</time></trkpt>
			<trkpt lat="57.169164" lon="40.821400"><time>1970-01-01T00:00:01.000Z</time></trkpt>
			<trkpt lat="57.168928" lon="40.821464"><time>1970-01-01T00:00:01.000Z</time></trkpt>
			<trkpt lat="57.168327" lon="40.821400"><time>1970-01-01T00:00:01.000Z</time></trkpt>
			<trkpt lat="57.166976" lon="40.821207"><time>1970-01-01T00:00:01.000Z</time></trkpt>
			<trkpt lat="57.166761" lon="40.821142"><time>1970-01-01T00:00:01.000Z</time></trkpt>
			<trkpt lat="57.166718" lon="40.821078"><time>1970-01-01T00:00:01.000Z</time></trkpt>
			<trkpt lat="57.166675" lon="40.820670"><time>1970-01-01T00:00:01.000Z</time></trkpt>
			<trkpt lat="57.166718" lon="40.819726"><time>1970-01-01T00:00:01.000Z</time></trkpt>
			<trkpt lat="57.166675" lon="40.818267"><time>1970-01-01T00:00:01.000Z</time></trkpt>
			<trkpt lat="57.166654" lon="40.818074"><time>1970-01-01T00:00:01.000Z</time></trkpt>
			<trkpt lat="57.166461" lon="40.817580"><time>1970-01-01T00:00:01.000Z</time></trkpt>
			<trkpt lat="57.166482" lon="40.817688"><time>1970-01-01T00:00:01.000Z</time></trkpt>
			<trkpt lat="57.166525" lon="40.817688"><time>1970-01-01T00:00:01.000Z</time></trkpt>
		</trkseg>
	</trk>
</gpx>