<?xml version="1.0" encoding="UTF-8" standalone="no" ?>
<gpx xmlns="http://www.topografix.com/GPX/1/1" creator="https://MapMagic.app" xmlns:xsi="http://www.w3.org/2001/XMLSchema-instance" xsi:schemaLocation="http://www.topografix.com/GPX/1/1 http://www.topografix.com/GPX/1/1/gpx.xsd" version="1.1">
	<wpt lat="56.230638" lon="42.916117">
		<name>START</name>
		<type>Generic</type>
	</wpt>
	<wpt lat="56.200903" lon="42.908392">
		<name>KUP</name>
		<type>Generic</type>
	</wpt>
	<wpt lat="56.209664" lon="42.913156">
		<name>ST1</name>
		<type>Generic</type>
	</wpt>
	<wpt lat="56.198898" lon="42.872128">
		<name>MO1</name>
		<type>Generic</type>
	</wpt>
	<wpt lat="56.197609" lon="42.923498">
		<name>MO2</name>
		<type>Generic</type>
	</wpt>
	<wpt lat="56.197179" lon="42.949634">
		<name>MO3</name>
		<type>Generic</type>
	</wpt>
	<trk>
		<name>Ильино - Ильиногорск</name>
		<desc>Ильино - Ильиногорск, Нижегородская область, Россия</desc>
		<trkseg>
			<trkpt lat="56.230690" lon="42.916560"><ele>79.3</ele><time>2025-11-30T02:12:12Z</time></trkpt>
			<trkpt lat="56.230690" lon="42.916560"><ele>79.3</ele><time>2025-11-30T02:12:13Z</time></trkpt>
			<trkpt lat="56.230689" lon="42.916575"><ele>79.3</ele><time>2025-11-30T02:12:13Z</time></trkpt>
			<trkpt lat="56.230689" lon="42.916575"><ele>79.3</ele><time>2025-11-30T02:12:26Z</time></trkpt>
			<trkpt lat="56.230660" lon="42.917020"><ele>79.6</ele><time>2025-11-30T02:12:39Z</time></trkpt>
			<trkpt lat="56.230620" lon="42.917460"><ele>80.1</ele><time>2025-11-30T02:12:52Z</time></trkpt>
			<trkpt lat="56.230630" lon="42.917560"><ele>80.2</ele><time>2025-11-30T02:13:05Z</time></trkpt>
			<trkpt lat="56.230610" lon="42.917890"><ele>80.2</ele><time>2025-11-30T02:13:18Z</time></trkpt>
			<trkpt lat="56.230510" lon="42.917860"><ele>80.2</ele><time>2025-11-30T02:13:31Z</time></trkpt>
			<trkpt lat="56.230380" lon="42.917830"><ele>80.3</ele><time>2025-11-30T02:13:44Z</time></trkpt>
			<trkpt lat="56.230180" lon="42.917780"><ele>80.5</ele><time>2025-11-30T02:13:57Z</time></trkpt>
			<trkpt lat="56.230100" lon="42.917730"><ele>80.6</ele><time>2025-11-30T02:14:09Z</time></trkpt>
			<trkpt lat="56.229930" lon="42.917740"><ele>80.6</ele><time>2025-11-30T02:14:22Z</time></trkpt>
			<trkpt lat="56.229890" lon="42.917760"><ele>80.6</ele><time>2025-11-30T02:14:35Z</time></trkpt>
			<trkpt lat="56.229680" lon="42.917970"><ele>80.3</ele><time>2025-11-30T02:14:48Z</time></trkpt>
			<trkpt lat="56.229630" lon="42.917960"><ele>80.3</ele><time>2025-11-30T02:15:01Z</time></trkpt>
			<trkpt lat="56.229650" lon="42.917830"><ele>80.4</ele><time>2025-11-30T02:15:14Z</time></trkpt>
			<trkpt lat="56.229650" lon="42.917830"><ele>80.4</ele><time>2025-11-30T02:15:47Z</time></trkpt>
			<trkpt lat="56.229720" lon="42.917370"><ele>80.5</ele><time>2025-11-30T02:16:21Z</time></trkpt>
			<trkpt lat="56.229910" lon="42.916090"><ele>79.9</ele><time>2025-11-30T02:16:54Z</time></trkpt>
			<trkpt lat="56.230070" lon="42.915220"><ele>79.3</ele><time>2025-11-30T02:17:28Z</time></trkpt>
			<trkpt lat="56.230170" lon="42.914770"><ele>78.9</ele><time>2025-11-30T02:18:01Z</time></trkpt>
			<trkpt lat="56.230230" lon="42.914450"><ele>78.6</ele><time>2025-11-30T02:18:35Z</time></trkpt>
			<trkpt lat="56.230440" lon="42.912690"><ele>80.0</ele><time>2025-11-30T02:19:09Z</time></trkpt>
			<trkpt lat="56.230460" lon="42.912440"><ele>79.9</ele><time>2025-11-30T02:19:42Z</time></trkpt>
			<trkpt lat="56.230460" lon="42.911660"><ele>79.9</ele><time>2025-11-30T02:20:16Z</time></trkpt>
			<trkpt lat="56.230440" lon="42.911290"><ele>80.0</ele><time>2025-11-30T02:20:49Z</time></trkpt>
			<trkpt lat="56.230400" lon="42.910690"><ele>80.1</ele><time>2025-11-30T02:21:23Z</time></trkpt>
			<trkpt lat="56.230360" lon="42.910430"><ele>80.2</ele><time>2025-11-30T02:21:56Z</time></trkpt>
			<trkpt lat="56.230070" lon="42.908560"><ele>79.4</ele><time>2025-11-30T02:22:30Z</time></trkpt>
			<trkpt lat="56.230020" lon="42.908340"><ele>79.1</ele><time>2025-11-30T02:23:03Z</time></trkpt>
			<trkpt lat="56.230020" lon="42.908340"><ele>79.1</ele><time>2025-11-30T02:23:32Z</time></trkpt>
			<trkpt lat="56.230010" lon="42.908260"><ele>79.0</ele><time>2025-11-30T02:24:00Z</time></trkpt>
			<trkpt lat="56.229840" lon="42.908010"><ele>79.0</ele><time>2025-11-30T02:24:28Z</time></trkpt>
			<trkpt lat="56.229650" lon="42.907810"><ele>79.2</ele><time>2025-11-30T02:24:57Z</time></trkpt>
			<trkpt lat="56.229290" lon="42.907470"><ele>79.7</ele><time>2025-11-30T02:25:25Z</time></trkpt>
			<trkpt lat="56.228880" lon="42.907030"><ele>80.0</ele><time>2025-11-30T02:25:54Z</time></trkpt>
			<trkpt lat="56.228740" lon="42.906940"><ele>79.8</ele><time>2025-11-30T02:26:22Z</time></trkpt>
			<trkpt lat="56.228410" lon="42.906840"><ele>79.5</ele><time>2025-11-30T02:26:51Z</time></trkpt>
			<trkpt lat="56.227110" lon="42.906800"><ele>80.5</ele><time>2025-11-30T02:27:19Z</time></trkpt>
			<trkpt lat="56.226610" lon="42.906700"><ele>81.9</ele><time>2025-11-30T02:27:47Z</time></trkpt>
			<trkpt lat="56.226330" lon="42.906550"><ele>82.3</ele><time>2025-11-30T02:28:16Z</time></trkpt>
			<trkpt lat="56.226200" lon="42.906440"><ele>82.6</ele><time>2025-11-30T02:28:44Z</time></trkpt>
			<trkpt lat="56.226060" lon="42.906260"><ele>83.2</ele><time>2025-11-30T02:29:13Z</time></trkpt>
			<trkpt lat="56.226060" lon="42.906270"><ele>83.2</ele><time>2025-11-30T02:29:27Z</time></trkpt>
			<trkpt lat="56.225990" lon="42.906180"><ele>83.6</ele><time>2025-11-30T02:29:40Z</time></trkpt>
			<trkpt lat="56.225900" lon="42.906010"><ele>84.3</ele><time>2025-11-30T02:29:54Z</time></trkpt>
			<trkpt lat="56.225860" lon="42.905840"><ele>84.9</ele><time>2025-11-30T02:30:08Z</time></trkpt>
			<trkpt lat="56.225860" lon="42.905650"><ele>85.5</ele><time>2025-11-30T02:30:22Z</time></trkpt>
			<trkpt lat="56.225900" lon="42.905390"><ele>86.3</ele><time>2025-11-30T02:30:35Z</time></trkpt>
			<trkpt lat="56.226100" lon="42.905020"><ele>86.6</ele><time>2025-11-30T02:30:49Z</time></trkpt>
			<trkpt lat="56.226100" lon="42.904790"><ele>86.6</ele><time>2025-11-30T02:31:03Z</time></trkpt>
			<trkpt lat="56.226130" lon="42.904680"><ele>86.4</ele><time>2025-11-30T02:31:17Z</time></trkpt>
			<trkpt lat="56.226160" lon="42.904480"><ele>86.2</ele><time>2025-11-30T02:31:31Z</time></trkpt>
			<trkpt lat="56.226160" lon="42.904370"><ele>86.2</ele><time>2025-11-30T02:31:44Z</time></trkpt>
			<trkpt lat="56.226130" lon="42.904070"><ele>85.8</ele><time>2025-11-30T02:31:58Z</time></trkpt>
			<trkpt lat="56.226080" lon="42.903860"><ele>85.1</ele><time>2025-11-30T02:32:12Z</time></trkpt>
			<trkpt lat="56.226060" lon="42.903470"><ele>83.5</ele><time>2025-11-30T02:32:26Z</time></trkpt>
			<trkpt lat="56.226020" lon="42.903290"><ele>83.2</ele><time>2025-11-30T02:32:39Z</time></trkpt>
			<trkpt lat="56.225870" lon="42.903050"><ele>82.7</ele><time>2025-11-30T02:32:53Z</time></trkpt>
			<trkpt lat="56.225800" lon="42.902880"><ele>82.2</ele><time>2025-11-30T02:33:07Z</time></trkpt>
			<trkpt lat="56.225720" lon="42.902670"><ele>81.1</ele><time>2025-11-30T02:33:21Z</time></trkpt>
			<trkpt lat="56.225680" lon="42.902540"><ele>80.6</ele><time>2025-11-30T02:33:34Z</time></trkpt>
			<trkpt lat="56.225660" lon="42.902420"><ele>80.2</ele><time>2025-11-30T02:33:48Z</time></trkpt>
			<trkpt lat="56.225660" lon="42.902290"><ele>80.0</ele><time>2025-11-30T02:34:02Z</time></trkpt>
			<trkpt lat="56.225670" lon="42.902130"><ele>79.9</ele><time>2025-11-30T02:34:16Z</time></trkpt>
			<trkpt lat="56.225800" lon="42.901800"><ele>80.0</ele><time>2025-11-30T02:34:30Z</time></trkpt>
			<trkpt lat="56.225920" lon="42.901470"><ele>79.8</ele><time>2025-11-30T02:34:43Z</time></trkpt>
			<trkpt lat="56.225980" lon="42.901260"><ele>79.7</ele><time>2025-11-30T02:34:57Z</time></trkpt>
			<trkpt lat="56.226070" lon="42.900980"><ele>79.7</ele><time>2025-11-30T02:35:11Z</time></trkpt>
			<trkpt lat="56.226140" lon="42.900800"><ele>79.7</ele><time>2025-11-30T02:35:25Z</time></trkpt>
			<trkpt lat="56.226300" lon="42.900300"><ele>79.5</ele><time>2025-11-30T02:35:38Z</time></trkpt>
			<trkpt lat="56.226340" lon="42.900000"><ele>79.2</ele><time>2025-11-30T02:35:52Z</time></trkpt>
			<trkpt lat="56.226400" lon="42.899760"><ele>79.0</ele><time>2025-11-30T02:36:06Z</time></trkpt>
			<trkpt lat="56.226460" lon="42.899580"><ele>78.9</ele><time>2025-11-30T02:36:20Z</time></trkpt>
			<trkpt lat="56.226530" lon="42.899310"><ele>78.7</ele><time>2025-11-30T02:36:34Z</time></trkpt>
			<trkpt lat="56.226640" lon="42.898910"><ele>78.2</ele><time>2025-11-30T02:36:47Z</time></trkpt>
			<trkpt lat="56.226710" lon="42.898550"><ele>77.5</ele><time>2025-11-30T02:37:01Z</time></trkpt>
			<trkpt lat="56.226730" lon="42.898220"><ele>77.1</ele><time>2025-11-30T02:37:15Z</time></trkpt>
			<trkpt lat="56.226760" lon="42.897590"><ele>77.8</ele><time>2025-11-30T02:37:29Z</time></trkpt>
			<trkpt lat="56.226750" lon="42.897220"><ele>77.9</ele><time>2025-11-30T02:37:42Z</time></trkpt>
			<trkpt lat="56.226780" lon="42.896790"><ele>77.9</ele><time>2025-11-30T02:37:56Z</time></trkpt>
			<trkpt lat="56.226780" lon="42.896340"><ele>78.3</ele><time>2025-11-30T02:38:10Z</time></trkpt>
			<trkpt lat="56.226740" lon="42.896100"><ele>78.6</ele><time>2025-11-30T02:38:24Z</time></trkpt>
			<trkpt lat="56.226680" lon="42.895290"><ele>79.0</ele><time>2025-11-30T02:38:37Z</time></trkpt>
			<trkpt lat="56.226650" lon="42.895090"><ele>78.9</ele><time>2025-11-30T02:38:51Z</time></trkpt>
			<trkpt lat="56.226610" lon="42.894880"><ele>78.9</ele><time>2025-11-30T02:39:05Z</time></trkpt>
			<trkpt lat="56.226400" lon="42.894160"><ele>78.8</ele><time>2025-11-30T02:39:19Z</time></trkpt>
			<trkpt lat="56.226400" lon="42.894160"><ele>78.8</ele><time>2025-11-30T02:39:35Z</time></trkpt>
			<trkpt lat="56.226360" lon="42.893980"><ele>79.0</ele><time>2025-11-30T02:39:51Z</time></trkpt>
			<trkpt lat="56.225950" lon="42.893050"><ele>79.9</ele><time>2025-11-30T02:40:07Z</time></trkpt>
			<trkpt lat="56.225820" lon="42.892840"><ele>80.2</ele><time>2025-11-30T02:40:23Z</time></trkpt>
			<trkpt lat="56.225770" lon="42.892730"><ele>80.4</ele><time>2025-11-30T02:40:39Z</time></trkpt>
			<trkpt lat="56.225640" lon="42.892370"><ele>81.0</ele><time>2025-11-30T02:40:55Z</time></trkpt>
			<trkpt lat="56.225550" lon="42.892150"><ele>81.5</ele><time>2025-11-30T02:41:11Z</time></trkpt>
			<trkpt lat="56.225490" lon="42.892060"><ele>81.8</ele><time>2025-11-30T02:41:27Z</time></trkpt>
			<trkpt lat="56.225350" lon="42.891900"><ele>82.4</ele><time>2025-11-30T02:41:43Z</time></trkpt>
			<trkpt lat="56.225230" lon="42.891720"><ele>83.3</ele><time>2025-11-30T02:41:59Z</time></trkpt>
			<trkpt lat="56.224790" lon="42.890920"><ele>85.6</ele><time>2025-11-30T02:42:15Z</time></trkpt>
			<trkpt lat="56.224660" lon="42.890690"><ele>86.6</ele><time>2025-11-30T02:42:32Z</time></trkpt>
			<trkpt lat="56.224560" lon="42.890560"><ele>87.1</ele><time>2025-11-30T02:42:48Z</time></trkpt>
			<trkpt lat="56.224370" lon="42.890210"><ele>88.0</ele><time>2025-11-30T02:43:04Z</time></trkpt>
			<trkpt lat="56.224120" lon="42.889830"><ele>88.4</ele><time>2025-11-30T02:43:20Z</time></trkpt>
			<trkpt lat="56.223990" lon="42.889590"><ele>88.2</ele><time>2025-11-30T02:43:36Z</time></trkpt>
			<trkpt lat="56.223930" lon="42.889490"><ele>88.1</ele><time>2025-11-30T02:43:52Z</time></trkpt>
			<trkpt lat="56.223730" lon="42.889230"><ele>88.4</ele><time>2025-11-30T02:44:08Z</time></trkpt>
			<trkpt lat="56.223650" lon="42.889090"><ele>88.5</ele><time>2025-11-30T02:44:24Z</time></trkpt>
			<trkpt lat="56.223210" lon="42.888520"><ele>86.2</ele><time>2025-11-30T02:44:40Z</time></trkpt>
			<trkpt lat="56.223110" lon="42.888320"><ele>85.5</ele><time>2025-11-30T02:44:56Z</time></trkpt>
			<trkpt lat="56.223040" lon="42.888210"><ele>85.3</ele><time>2025-11-30T02:45:12Z</time></trkpt>
			<trkpt lat="56.222930" lon="42.888170"><ele>85.8</ele><time>2025-11-30T02:45:28Z</time></trkpt>
			<trkpt lat="56.222830" lon="42.888170"><ele>86.2</ele><time>2025-11-30T02:45:44Z</time></trkpt>
			<trkpt lat="56.222640" lon="42.888210"><ele>87.2</ele><time>2025-11-30T02:46:00Z</time></trkpt>
			<trkpt lat="56.222470" lon="42.888190"><ele>88.1</ele><time>2025-11-30T02:46:16Z</time></trkpt>
			<trkpt lat="56.222400" lon="42.888160"><ele>88.5</ele><time>2025-11-30T02:46:32Z</time></trkpt>
			<trkpt lat="56.222330" lon="42.888090"><ele>89.0</ele><time>2025-11-30T02:46:49Z</time></trkpt>
			<trkpt lat="56.222210" lon="42.887960"><ele>90.0</ele><time>2025-11-30T02:47:05Z</time></trkpt>
			<trkpt lat="56.222210" lon="42.887960"><ele>90.0</ele><time>2025-11-30T02:47:22Z</time></trkpt>
			<trkpt lat="56.222100" lon="42.887890"><ele>90.8</ele><time>2025-11-30T02:47:39Z</time></trkpt>
			<trkpt lat="56.221910" lon="42.887630"><ele>92.6</ele><time>2025-11-30T02:47:57Z</time></trkpt>
			<trkpt lat="56.221590" lon="42.887260"><ele>94.4</ele><time>2025-11-30T02:48:14Z</time></trkpt>
			<trkpt lat="56.221530" lon="42.887200"><ele>94.3</ele><time>2025-11-30T02:48:31Z</time></trkpt>
			<trkpt lat="56.221320" lon="42.886900"><ele>94.3</ele><time>2025-11-30T02:48:49Z</time></trkpt>
			<trkpt lat="56.221010" lon="42.886500"><ele>94.8</ele><time>2025-11-30T02:49:06Z</time></trkpt>
			<trkpt lat="56.220420" lon="42.885800"><ele>94.9</ele><time>2025-11-30T02:49:23Z</time></trkpt>
			<trkpt lat="56.220350" lon="42.885600"><ele>94.6</ele><time>2025-11-30T02:49:41Z</time></trkpt>
			<trkpt lat="56.220180" lon="42.885370"><ele>94.5</ele><time>2025-11-30T02:49:58Z</time></trkpt>
			<trkpt lat="56.220080" lon="42.885150"><ele>94.7</ele><time>2025-11-30T02:50:15Z</time></trkpt>
			<trkpt lat="56.219890" lon="42.884880"><ele>94.8</ele><time>2025-11-30T02:50:33Z</time></trkpt>
			<trkpt lat="56.219820" lon="42.884810"><ele>94.7</ele><time>2025-11-30T02:50:50Z</time></trkpt>
			<trkpt lat="56.219510" lon="42.884560"><ele>94.6</ele><time>2025-11-30T02:51:07Z</time></trkpt>
			<trkpt lat="56.219380" lon="42.884490"><ele>94.7</ele><time>2025-11-30T02:51:25Z</time></trkpt>
			<trkpt lat="56.219230" lon="42.884370"><ele>94.8</ele><time>2025-11-30T02:51:42Z</time></trkpt>
			<trkpt lat="56.219090" lon="42.884230"><ele>94.8</ele><time>2025-11-30T02:51:59Z</time></trkpt>
			<trkpt lat="56.218930" lon="42.884100"><ele>94.3</ele><time>2025-11-30T02:52:17Z</time></trkpt>
			<trkpt lat="56.218810" lon="42.883930"><ele>94.0</ele><time>2025-11-30T02:52:34Z</time></trkpt>
			<trkpt lat="56.218720" lon="42.883780"><ele>94.1</ele><time>2025-11-30T02:52:51Z</time></trkpt>
			<trkpt lat="56.218620" lon="42.883650"><ele>94.3</ele><time>2025-11-30T02:53:09Z</time></trkpt>
			<trkpt lat="56.218430" lon="42.883490"><ele>95.1</ele><time>2025-11-30T02:53:26Z</time></trkpt>
			<trkpt lat="56.217910" lon="42.882930"><ele>96.5</ele><time>2025-11-30T02:53:43Z</time></trkpt>
			<trkpt lat="56.217750" lon="42.882680"><ele>97.2</ele><time>2025-11-30T02:54:01Z</time></trkpt>
			<trkpt lat="56.217600" lon="42.882320"><ele>97.8</ele><time>2025-11-30T02:54:18Z</time></trkpt>
			<trkpt lat="56.217540" lon="42.882220"><ele>97.9</ele><time>2025-11-30T02:54:35Z</time></trkpt>
			<trkpt lat="56.217370" lon="42.882080"><ele>97.9</ele><time>2025-11-30T02:54:53Z</time></trkpt>
			<trkpt lat="56.217260" lon="42.882040"><ele>97.9</ele><time>2025-11-30T02:55:10Z</time></trkpt>
			<trkpt lat="56.216850" lon="42.881950"><ele>98.0</ele><time>2025-11-30T02:55:27Z</time></trkpt>
			<trkpt lat="56.216610" lon="42.881860"><ele>98.3</ele><time>2025-11-30T02:55:45Z</time></trkpt>
			<trkpt lat="56.216190" lon="42.881740"><ele>98.7</ele><time>2025-11-30T02:56:02Z</time></trkpt>
			<trkpt lat="56.216040" lon="42.881730"><ele>98.8</ele><time>2025-11-30T02:56:19Z</time></trkpt>
			<trkpt lat="56.215920" lon="42.881670"><ele>99.0</ele><time>2025-11-30T02:56:37Z</time></trkpt>
			<trkpt lat="56.215810" lon="42.881640"><ele>98.8</ele><time>2025-11-30T02:56:54Z</time></trkpt>
			<trkpt lat="56.215560" lon="42.881450"><ele>98.0</ele><time>2025-11-30T02:57:12Z</time></trkpt>
			<trkpt lat="56.215480" lon="42.881420"><ele>97.7</ele><time>2025-11-30T02:57:29Z</time></trkpt>
			<trkpt lat="56.215150" lon="42.881330"><ele>96.5</ele><time>2025-11-30T02:57:46Z</time></trkpt>
			<trkpt lat="56.214910" lon="42.881160"><ele>95.5</ele><time>2025-11-30T02:58:04Z</time></trkpt>
			<trkpt lat="56.214880" lon="42.881150"><ele>95.3</ele><time>2025-11-30T02:58:21Z</time></trkpt>
			<trkpt lat="56.214810" lon="42.881160"><ele>95.0</ele><time>2025-11-30T02:58:38Z</time></trkpt>
			<trkpt lat="56.214680" lon="42.881120"><ele>94.8</ele><time>2025-11-30T02:58:56Z</time></trkpt>
			<trkpt lat="56.214680" lon="42.881120"><ele>94.8</ele><time>2025-11-30T02:59:08Z</time></trkpt>
			<trkpt lat="56.214810" lon="42.881160"><ele>94.8</ele><time>2025-11-30T02:59:20Z</time></trkpt>
			<trkpt lat="56.214770" lon="42.881040"><ele>94.8</ele><time>2025-11-30T02:59:32Z</time></trkpt>
			<trkpt lat="56.214760" lon="42.880870"><ele>94.9</ele><time>2025-11-30T02:59:43Z</time></trkpt>
			<trkpt lat="56.214800" lon="42.880630"><ele>95.2</ele><time>2025-11-30T02:59:55Z</time></trkpt>
			<trkpt lat="56.214860" lon="42.880400"><ele>95.5</ele><time>2025-11-30T03:00:07Z</time></trkpt>
			<trkpt lat="56.214900" lon="42.880350"><ele>95.6</ele><time>2025-11-30T03:00:19Z</time></trkpt>
			<trkpt lat="56.214950" lon="42.880230"><ele>95.8</ele><time>2025-11-30T03:00:31Z</time></trkpt>
			<trkpt lat="56.214990" lon="42.880110"><ele>95.9</ele><time>2025-11-30T03:00:43Z</time></trkpt>
			<trkpt lat="56.214970" lon="42.879880"><ele>96.0</ele><time>2025-11-30T03:00:55Z</time></trkpt>
			<trkpt lat="56.214990" lon="42.879660"><ele>96.0</ele><time>2025-11-30T03:01:07Z</time></trkpt>
			<trkpt lat="56.214980" lon="42.879500"><ele>95.9</ele><time>2025-11-30T03:01:19Z</time></trkpt>
			<trkpt lat="56.214960" lon="42.879310"><ele>95.9</ele><time>2025-11-30T03:01:31Z</time></trkpt>
			<trkpt lat="56.214930" lon="42.879200"><ele>95.9</ele><time>2025-11-30T03:01:43Z</time></trkpt>
			<trkpt lat="56.214630" lon="42.878420"><ele>95.6</ele><time>2025-11-30T03:01:55Z</time></trkpt>
			<trkpt lat="56.214550" lon="42.878170"><ele>94.8</ele><time>2025-11-30T03:02:07Z</time></trkpt>
			<trkpt lat="56.214550" lon="42.878070"><ele>94.5</ele><time>2025-11-30T03:02:19Z</time></trkpt>
			<trkpt lat="56.214580" lon="42.877970"><ele>94.1</ele><time>2025-11-30T03:02:31Z</time></trkpt>
			<trkpt lat="56.214580" lon="42.877870"><ele>93.7</ele><time>2025-11-30T03:02:43Z</time></trkpt>
			<trkpt lat="56.214560" lon="42.877780"><ele>93.4</ele><time>2025-11-30T03:02:55Z</time></trkpt>
			<trkpt lat="56.214530" lon="42.877290"><ele>91.6</ele><time>2025-11-30T03:03:07Z</time></trkpt>
			<trkpt lat="56.214630" lon="42.876960"><ele>90.3</ele><time>2025-11-30T03:03:19Z</time></trkpt>
			<trkpt lat="56.214600" lon="42.876710"><ele>89.3</ele><time>2025-11-30T03:03:31Z</time></trkpt>
			<trkpt lat="56.214490" lon="42.876290"><ele>87.3</ele><time>2025-11-30T03:03:43Z</time></trkpt>
			<trkpt lat="56.214380" lon="42.876030"><ele>86.1</ele><time>2025-11-30T03:03:55Z</time></trkpt>
			<trkpt lat="56.214310" lon="42.875430"><ele>83.5</ele><time>2025-11-30T03:04:07Z</time></trkpt>
			<trkpt lat="56.214220" lon="42.874990"><ele>81.3</ele><time>2025-11-30T03:04:19Z</time></trkpt>
			<trkpt lat="56.214230" lon="42.874750"><ele>80.5</ele><time>2025-11-30T03:04:31Z</time></trkpt>
			<trkpt lat="56.214340" lon="42.874520"><ele>80.0</ele><time>2025-11-30T03:04:43Z</time></trkpt>
			<trkpt lat="56.214340" lon="42.874520"><ele>80.0</ele><time>2025-11-30T03:05:01Z</time></trkpt>
			<trkpt lat="56.214370" lon="42.874470"><ele>79.9</ele><time>2025-11-30T03:05:20Z</time></trkpt>
			<trkpt lat="56.214380" lon="42.874270"><ele>79.6</ele><time>2025-11-30T03:05:38Z</time></trkpt>
			<trkpt lat="56.214240" lon="42.874130"><ele>78.4</ele><time>2025-11-30T03:05:56Z</time></trkpt>
			<trkpt lat="56.214050" lon="42.874110"><ele>77.9</ele><time>2025-11-30T03:06:14Z</time></trkpt>
			<trkpt lat="56.213790" lon="42.873800"><ele>77.5</ele><time>2025-11-30T03:06:33Z</time></trkpt>
			<trkpt lat="56.213540" lon="42.873370"><ele>77.3</ele><time>2025-11-30T03:06:51Z</time></trkpt>
			<trkpt lat="56.213210" lon="42.872940"><ele>77.9</ele><time>2025-11-30T03:07:09Z</time></trkpt>
			<trkpt lat="56.212990" lon="42.872500"><ele>78.1</ele><time>2025-11-30T03:07:27Z</time></trkpt>
			<trkpt lat="56.212850" lon="42.872120"><ele>77.2</ele><time>2025-11-30T03:07:46Z</time></trkpt>
			<trkpt lat="56.212720" lon="42.871890"><ele>76.6</ele><time>2025-11-30T03:08:04Z</time></trkpt>
			<trkpt lat="56.212620" lon="42.871790"><ele>76.3</ele><time>2025-11-30T03:08:22Z</time></trkpt>
			<trkpt lat="56.212400" lon="42.871960"><ele>76.7</ele><time>2025-11-30T03:08:40Z</time></trkpt>
			<trkpt lat="56.212270" lon="42.872000"><ele>77.2</ele><time>2025-11-30T03:08:59Z</time></trkpt>
			<trkpt lat="56.212020" lon="42.871900"><ele>78.1</ele><time>2025-11-30T03:09:17Z</time></trkpt>
			<trkpt lat="56.211850" lon="42.871770"><ele>78.9</ele><time>2025-11-30T03:09:35Z</time></trkpt>
			<trkpt lat="56.211590" lon="42.871680"><ele>80.0</ele><time>2025-11-30T03:09:53Z</time></trkpt>
			<trkpt lat="56.211330" lon="42.871470"><ele>80.5</ele><time>2025-11-30T03:10:12Z</time></trkpt>
			<trkpt lat="56.210970" lon="42.871540"><ele>81.6</ele><time>2025-11-30T03:10:30Z</time></trkpt>
			<trkpt lat="56.210810" lon="42.871610"><ele>82.0</ele><time>2025-11-30T03:10:48Z</time></trkpt>
			<trkpt lat="56.210810" lon="42.871610"><ele>82.0</ele><time>2025-11-30T03:11:10Z</time></trkpt>
			<trkpt lat="56.210610" lon="42.871820"><ele>81.8</ele><time>2025-11-30T03:11:32Z</time></trkpt>
			<trkpt lat="56.210510" lon="42.872130"><ele>81.0</ele><time>2025-11-30T03:11:53Z</time></trkpt>
			<trkpt lat="56.210420" lon="42.872920"><ele>78.8</ele><time>2025-11-30T03:12:15Z</time></trkpt>
			<trkpt lat="56.210290" lon="42.873400"><ele>77.7</ele><time>2025-11-30T03:12:37Z</time></trkpt>
			<trkpt lat="56.210130" lon="42.874100"><ele>77.2</ele><time>2025-11-30T03:12:59Z</time></trkpt>
			<trkpt lat="56.210010" lon="42.874420"><ele>77.1</ele><time>2025-11-30T03:13:20Z</time></trkpt>
			<trkpt lat="56.209970" lon="42.874550"><ele>77.2</ele><time>2025-11-30T03:13:42Z</time></trkpt>
			<trkpt lat="56.209740" lon="42.875040"><ele>78.3</ele><time>2025-11-30T03:14:04Z</time></trkpt>
			<trkpt lat="56.209620" lon="42.875460"><ele>79.4</ele><time>2025-11-30T03:14:26Z</time></trkpt>
			<trkpt lat="56.209270" lon="42.876250"><ele>80.3</ele><time>2025-11-30T03:14:47Z</time></trkpt>
			<trkpt lat="56.209100" lon="42.876430"><ele>80.2</ele><time>2025-11-30T03:15:09Z</time></trkpt>
			<trkpt lat="56.208960" lon="42.876440"><ele>80.1</ele><time>2025-11-30T03:15:31Z</time></trkpt>
			<trkpt lat="56.208780" lon="42.876550"><ele>80.0</ele><time>2025-11-30T03:15:53Z</time></trkpt>
			<trkpt lat="56.208620" lon="42.876570"><ele>80.0</ele><time>2025-11-30T03:16:14Z</time></trkpt>
			<trkpt lat="56.208470" lon="42.876630"><ele>80.0</ele><time>2025-11-30T03:16:36Z</time></trkpt>
			<trkpt lat="56.208350" lon="42.876720"><ele>80.0</ele><time>2025-11-30T03:16:58Z</time></trkpt>
			<trkpt lat="56.207590" lon="42.876720"><ele>79.9</ele><time>2025-11-30T03:17:19Z</time></trkpt>
			<trkpt lat="56.207070" lon="42.877090"><ele>80.3</ele><time>2025-11-30T03:17:41Z</time></trkpt>
			<trkpt lat="56.206850" lon="42.877150"><ele>80.7</ele><time>2025-11-30T03:18:03Z</time></trkpt>
			<trkpt lat="56.206650" lon="42.876930"><ele>81.0</ele><time>2025-11-30T03:18:25Z</time></trkpt>
			<trkpt lat="56.206560" lon="42.876750"><ele>80.9</ele><time>2025-11-30T03:18:46Z</time></trkpt>
			<trkpt lat="56.206430" lon="42.876430"><ele>81.0</ele><time>2025-11-30T03:19:08Z</time></trkpt>
			<trkpt lat="56.206370" lon="42.876370"><ele>81.0</ele><time>2025-11-30T03:19:30Z</time></trkpt>
			<trkpt lat="56.206370" lon="42.876360"><ele>81.0</ele><time>2025-11-30T03:20:13Z</time></trkpt>
			<trkpt lat="56.206370" lon="42.876350"><ele>81.1</ele><time>2025-11-30T03:20:55Z</time></trkpt>
			<trkpt lat="56.205930" lon="42.874990"><ele>81.9</ele><time>2025-11-30T03:21:38Z</time></trkpt>
			<trkpt lat="56.205590" lon="42.872430"><ele>81.2</ele><time>2025-11-30T03:22:21Z</time></trkpt>
			<trkpt lat="56.205600" lon="42.870320"><ele>81.2</ele><time>2025-11-30T03:23:03Z</time></trkpt>
			<trkpt lat="56.205290" lon="42.869120"><ele>79.7</ele><time>2025-11-30T03:23:46Z</time></trkpt>
			<trkpt lat="56.204820" lon="42.868820"><ele>79.6</ele><time>2025-11-30T03:24:29Z</time></trkpt>
			<trkpt lat="56.204670" lon="42.868950"><ele>79.4</ele><time>2025-11-30T03:25:11Z</time></trkpt>
			<trkpt lat="56.203930" lon="42.868630"><ele>79.3</ele><time>2025-11-30T03:25:54Z</time></trkpt>
			<trkpt lat="56.203450" lon="42.867470"><ele>80.7</ele><time>2025-11-30T03:26:36Z</time></trkpt>
			<trkpt lat="56.202830" lon="42.867300"><ele>81.2</ele><time>2025-11-30T03:27:19Z</time></trkpt>
			<trkpt lat="56.202400" lon="42.867700"><ele>80.8</ele><time>2025-11-30T03:28:02Z</time></trkpt>
			<trkpt lat="56.201800" lon="42.867870"><ele>80.6</ele><time>2025-11-30T03:28:44Z</time></trkpt>
			<trkpt lat="56.201470" lon="42.867780"><ele>80.9</ele><time>2025-11-30T03:29:27Z</time></trkpt>
			<trkpt lat="56.200850" lon="42.867540"><ele>81.1</ele><time>2025-11-30T03:30:10Z</time></trkpt>
			<trkpt lat="56.200380" lon="42.867620"><ele>80.5</ele><time>2025-11-30T03:30:52Z</time></trkpt>
			<trkpt lat="56.200050" lon="42.867710"><ele>79.9</ele><time>2025-11-30T03:31:35Z</time></trkpt>
			<trkpt lat="56.199860" lon="42.868020"><ele>79.1</ele><time>2025-11-30T03:32:18Z</time></trkpt>
			<trkpt lat="56.199870" lon="42.868510"><ele>78.3</ele><time>2025-11-30T03:33:00Z</time></trkpt>
			<trkpt lat="56.199940" lon="42.869570"><ele>76.4</ele><time>2025-11-30T03:33:43Z</time></trkpt>
			<trkpt lat="56.199840" lon="42.870260"><ele>75.8</ele><time>2025-11-30T03:34:26Z</time></trkpt>
			<trkpt lat="56.199630" lon="42.870640"><ele>75.6</ele><time>2025-11-30T03:35:08Z</time></trkpt>
			<trkpt lat="56.199250" lon="42.871080"><ele>75.1</ele><time>2025-11-30T03:35:51Z</time></trkpt>
			<trkpt lat="56.198910" lon="42.871480"><ele>74.3</ele><time>2025-11-30T03:36:34Z</time></trkpt>
			<trkpt lat="56.198870" lon="42.871700"><ele>74.4</ele><time>2025-11-30T03:37:16Z</time></trkpt>
			<trkpt lat="56.198870" lon="42.871700"><ele>74.4</ele><time>2025-11-30T03:37:49Z</time></trkpt>
			<trkpt lat="56.198530" lon="42.873430"><ele>76.4</ele><time>2025-11-30T03:38:22Z</time></trkpt>
			<trkpt lat="56.198190" lon="42.874150"><ele>77.8</ele><time>2025-11-30T03:38:55Z</time></trkpt>
			<trkpt lat="56.197330" lon="42.875250"><ele>80.7</ele><time>2025-11-30T03:39:28Z</time></trkpt>
			<trkpt lat="56.197030" lon="42.875500"><ele>79.9</ele><time>2025-11-30T03:40:00Z</time></trkpt>
			<trkpt lat="56.196670" lon="42.875750"><ele>79.0</ele><time>2025-11-30T03:40:33Z</time></trkpt>
			<trkpt lat="56.196450" lon="42.875600"><ele>78.7</ele><time>2025-11-30T03:41:06Z</time></trkpt>
			<trkpt lat="56.196160" lon="42.875720"><ele>79.3</ele><time>2025-11-30T03:41:39Z</time></trkpt>
			<trkpt lat="56.195430" lon="42.876590"><ele>78.5</ele><time>2025-11-30T03:42:12Z</time></trkpt>
			<trkpt lat="56.195100" lon="42.876550"><ele>78.8</ele><time>2025-11-30T03:42:44Z</time></trkpt>
			<trkpt lat="56.194970" lon="42.876890"><ele>78.8</ele><time>2025-11-30T03:43:17Z</time></trkpt>
			<trkpt lat="56.194760" lon="42.877060"><ele>78.7</ele><time>2025-11-30T03:43:50Z</time></trkpt>
			<trkpt lat="56.194160" lon="42.877280"><ele>78.5</ele><time>2025-11-30T03:44:23Z</time></trkpt>
			<trkpt lat="56.193830" lon="42.877450"><ele>78.2</ele><time>2025-11-30T03:44:56Z</time></trkpt>
			<trkpt lat="56.193730" lon="42.877630"><ele>78.1</ele><time>2025-11-30T03:45:28Z</time></trkpt>
			<trkpt lat="56.193620" lon="42.878200"><ele>78.1</ele><time>2025-11-30T03:46:01Z</time></trkpt>
			<trkpt lat="56.193610" lon="42.878620"><ele>78.1</ele><time>2025-11-30T03:46:34Z</time></trkpt>
			<trkpt lat="56.193480" lon="42.879400"><ele>77.4</ele><time>2025-11-30T03:47:07Z</time></trkpt>
			<trkpt lat="56.193210" lon="42.879760"><ele>75.4</ele><time>2025-11-30T03:47:40Z</time></trkpt>
			<trkpt lat="56.192750" lon="42.879800"><ele>72.2</ele><time>2025-11-30T03:48:12Z</time></trkpt>
			<trkpt lat="56.192330" lon="42.879920"><ele>70.1</ele><time>2025-11-30T03:48:45Z</time></trkpt>
			<trkpt lat="56.192110" lon="42.880210"><ele>70.1</ele><time>2025-11-30T03:49:18Z</time></trkpt>
			<trkpt lat="56.191960" lon="42.880560"><ele>70.4</ele><time>2025-11-30T03:49:51Z</time></trkpt>
			<trkpt lat="56.191940" lon="42.880640"><ele>70.4</ele><time>2025-11-30T03:50:24Z</time></trkpt>
			<trkpt lat="56.191940" lon="42.880640"><ele>70.4</ele><time>2025-11-30T03:51:00Z</time></trkpt>
			<trkpt lat="56.191960" lon="42.880560"><ele>70.5</ele><time>2025-11-30T03:51:36Z</time></trkpt>
			<trkpt lat="56.192040" lon="42.880990"><ele>70.7</ele><time>2025-11-30T03:52:12Z</time></trkpt>
			<trkpt lat="56.192250" lon="42.881470"><ele>71.1</ele><time>2025-11-30T03:52:49Z</time></trkpt>
			<trkpt lat="56.192670" lon="42.882150"><ele>71.9</ele><time>2025-11-30T03:53:25Z</time></trkpt>
			<trkpt lat="56.192900" lon="42.882900"><ele>72.3</ele><time>2025-11-30T03:54:01Z</time></trkpt>
			<trkpt lat="56.192980" lon="42.883490"><ele>72.6</ele><time>2025-11-30T03:54:38Z</time></trkpt>
			<trkpt lat="56.193140" lon="42.883890"><ele>73.0</ele><time>2025-11-30T03:55:14Z</time></trkpt>
			<trkpt lat="56.193590" lon="42.884600"><ele>72.6</ele><time>2025-11-30T03:55:50Z</time></trkpt>
			<trkpt lat="56.195360" lon="42.887210"><ele>71.1</ele><time>2025-11-30T03:56:26Z</time></trkpt>
			<trkpt lat="56.196210" lon="42.888740"><ele>71.0</ele><time>2025-11-30T03:57:03Z</time></trkpt>
			<trkpt lat="56.196900" lon="42.889910"><ele>70.3</ele><time>2025-11-30T03:57:39Z</time></trkpt>
			<trkpt lat="56.197550" lon="42.890810"><ele>71.0</ele><time>2025-11-30T03:58:15Z</time></trkpt>
			<trkpt lat="56.197630" lon="42.891280"><ele>71.0</ele><time>2025-11-30T03:58:51Z</time></trkpt>
			<trkpt lat="56.197740" lon="42.891580"><ele>71.0</ele><time>2025-11-30T03:59:28Z</time></trkpt>
			<trkpt lat="56.197820" lon="42.891740"><ele>71.0</ele><time>2025-11-30T04:00:04Z</time></trkpt>
			<trkpt lat="56.197910" lon="42.891860"><ele>70.9</ele><time>2025-11-30T04:00:40Z</time></trkpt>
			<trkpt lat="56.198080" lon="42.892070"><ele>70.7</ele><time>2025-11-30T04:01:17Z</time></trkpt>
			<trkpt lat="56.198250" lon="42.892190"><ele>70.4</ele><time>2025-11-30T04:01:53Z</time></trkpt>
			<trkpt lat="56.198470" lon="42.892310"><ele>70.4</ele><time>2025-11-30T04:02:29Z</time></trkpt>
			<trkpt lat="56.198990" lon="42.892670"><ele>70.8</ele><time>2025-11-30T04:03:05Z</time></trkpt>
			<trkpt lat="56.199580" lon="42.892980"><ele>71.6</ele><time>2025-11-30T04:03:42Z</time></trkpt>
			<trkpt lat="56.199770" lon="42.893100"><ele>71.6</ele><time>2025-11-30T04:04:18Z</time></trkpt>
			<trkpt lat="56.200090" lon="42.893380"><ele>71.2</ele><time>2025-11-30T04:04:54Z</time></trkpt>
			<trkpt lat="56.200260" lon="42.893550"><ele>71.3</ele><time>2025-11-30T04:05:30Z</time></trkpt>
			<trkpt lat="56.200680" lon="42.893920"><ele>71.4</ele><time>2025-11-30T04:06:07Z</time></trkpt>
			<trkpt lat="56.200890" lon="42.894130"><ele>71.5</ele><time>2025-11-30T04:06:43Z</time></trkpt>
			<trkpt lat="56.201150" lon="42.894280"><ele>72.3</ele><time>2025-11-30T04:07:19Z</time></trkpt>
			<trkpt lat="56.201490" lon="42.894540"><ele>73.3</ele><time>2025-11-30T04:07:55Z</time></trkpt>
			<trkpt lat="56.201830" lon="42.894850"><ele>74.1</ele><time>2025-11-30T04:08:32Z</time></trkpt>
			<trkpt lat="56.201830" lon="42.894850"><ele>74.1</ele><time>2025-11-30T04:08:47Z</time></trkpt>
			<trkpt lat="56.201860" lon="42.894880"><ele>74.1</ele><time>2025-11-30T04:09:02Z</time></trkpt>
			<trkpt lat="56.202020" lon="42.894680"><ele>75.0</ele><time>2025-11-30T04:09:18Z</time></trkpt>
			<trkpt lat="56.202090" lon="42.894630"><ele>75.3</ele><time>2025-11-30T04:09:33Z</time></trkpt>
			<trkpt lat="56.202140" lon="42.894640"><ele>75.5</ele><time>2025-11-30T04:09:49Z</time></trkpt>
			<trkpt lat="56.202250" lon="42.894700"><ele>75.8</ele><time>2025-11-30T04:10:04Z</time></trkpt>
			<trkpt lat="56.202340" lon="42.894710"><ele>76.1</ele><time>2025-11-30T04:10:19Z</time></trkpt>
			<trkpt lat="56.202400" lon="42.894690"><ele>76.3</ele><time>2025-11-30T04:10:35Z</time></trkpt>
			<trkpt lat="56.202490" lon="42.894730"><ele>76.5</ele><time>2025-11-30T04:10:50Z</time></trkpt>
			<trkpt lat="56.202540" lon="42.894780"><ele>76.5</ele><time>2025-11-30T04:11:05Z</time></trkpt>
			<trkpt lat="56.202590" lon="42.894860"><ele>76.5</ele><time>2025-11-30T04:11:21Z</time></trkpt>
			<trkpt lat="56.202730" lon="42.895270"><ele>75.5</ele><time>2025-11-30T04:11:36Z</time></trkpt>
			<trkpt lat="56.202960" lon="42.895480"><ele>75.3</ele><time>2025-11-30T04:11:51Z</time></trkpt>
			<trkpt lat="56.203140" lon="42.895570"><ele>75.8</ele><time>2025-11-30T04:12:07Z</time></trkpt>
			<trkpt lat="56.203350" lon="42.895590"><ele>76.4</ele><time>2025-11-30T04:12:22Z</time></trkpt>
			<trkpt lat="56.203540" lon="42.895640"><ele>76.6</ele><time>2025-11-30T04:12:37Z</time></trkpt>
			<trkpt lat="56.203800" lon="42.895840"><ele>76.5</ele><time>2025-11-30T04:12:53Z</time></trkpt>
			<trkpt lat="56.203930" lon="42.895990"><ele>76.1</ele><time>2025-11-30T04:13:08Z</time></trkpt>
			<trkpt lat="56.204370" lon="42.896290"><ele>75.9</ele><time>2025-11-30T04:13:24Z</time></trkpt>
			<trkpt lat="56.204550" lon="42.896280"><ele>76.0</ele><time>2025-11-30T04:13:39Z</time></trkpt>
			<trkpt lat="56.204780" lon="42.896430"><ele>76.0</ele><time>2025-11-30T04:13:54Z</time></trkpt>
			<trkpt lat="56.205050" lon="42.896860"><ele>75.7</ele><time>2025-11-30T04:14:10Z</time></trkpt>
			<trkpt lat="56.205280" lon="42.896890"><ele>76.0</ele><time>2025-11-30T04:14:25Z</time></trkpt>
			<trkpt lat="56.205450" lon="42.896850"><ele>76.3</ele><time>2025-11-30T04:14:40Z</time></trkpt>
			<trkpt lat="56.205500" lon="42.896920"><ele>76.4</ele><time>2025-11-30T04:14:56Z</time></trkpt>
			<trkpt lat="56.205580" lon="42.897280"><ele>75.7</ele><time>2025-11-30T04:15:11Z</time></trkpt>
			<trkpt lat="56.205700" lon="42.897540"><ele>75.4</ele><time>2025-11-30T04:15:26Z</time></trkpt>
			<trkpt lat="56.205850" lon="42.897800"><ele>75.0</ele><time>2025-11-30T04:15:42Z</time></trkpt>
			<trkpt lat="56.206070" lon="42.898110"><ele>74.4</ele><time>2025-11-30T04:15:57Z</time></trkpt>
			<trkpt lat="56.206230" lon="42.898270"><ele>74.3</ele><time>2025-11-30T04:16:13Z</time></trkpt>
			<trkpt lat="56.206370" lon="42.898230"><ele>74.5</ele><time>2025-11-30T04:16:28Z</time></trkpt>
			<trkpt lat="56.206630" lon="42.898430"><ele>74.5</ele><time>2025-11-30T04:16:43Z</time></trkpt>
			<trkpt lat="56.206860" lon="42.898420"><ele>75.1</ele><time>2025-11-30T04:16:59Z</time></trkpt>
			<trkpt lat="56.207050" lon="42.898500"><ele>75.5</ele><time>2025-11-30T04:17:14Z</time></trkpt>
			<trkpt lat="56.207390" lon="42.898730"><ele>75.7</ele><time>2025-11-30T04:17:29Z</time></trkpt>
			<trkpt lat="56.207870" lon="42.898930"><ele>76.9</ele><time>2025-11-30T04:17:45Z</time></trkpt>
			<trkpt lat="56.207990" lon="42.899120"><ele>77.0</ele><time>2025-11-30T04:18:00Z</time></trkpt>
			<trkpt lat="56.208060" lon="42.899180"><ele>76.9</ele><time>2025-11-30T04:18:15Z</time></trkpt>
			<trkpt lat="56.208150" lon="42.899350"><ele>76.7</ele><time>2025-11-30T04:18:31Z</time></trkpt>
			<trkpt lat="56.208250" lon="42.899450"><ele>76.6</ele><time>2025-11-30T04:18:46Z</time></trkpt>
			<trkpt lat="56.208560" lon="42.899740"><ele>76.3</ele><time>2025-11-30T04:19:01Z</time></trkpt>
			<trkpt lat="56.208650" lon="42.899860"><ele>76.3</ele><time>2025-11-30T04:19:17Z</time></trkpt>
			<trkpt lat="56.208920" lon="42.900020"><ele>77.1</ele><time>2025-11-30T04:19:32Z</time></trkpt>
			<trkpt lat="56.209050" lon="42.900180"><ele>77.6</ele><time>2025-11-30T04:19:48Z</time></trkpt>
			<trkpt lat="56.209100" lon="42.900240"><ele>77.8</ele><time>2025-11-30T04:20:03Z</time></trkpt>
			<trkpt lat="56.209220" lon="42.900750"><ele>77.6</ele><time>2025-11-30T04:20:18Z</time></trkpt>
			<trkpt lat="56.209370" lon="42.900930"><ele>77.6</ele><time>2025-11-30T04:20:34Z</time></trkpt>
			<trkpt lat="56.209530" lon="42.901150"><ele>77.7</ele><time>2025-11-30T04:20:49Z</time></trkpt>
			<trkpt lat="56.209550" lon="42.901290"><ele>77.6</ele><time>2025-11-30T04:21:04Z</time></trkpt>
			<trkpt lat="56.209650" lon="42.901610"><ele>77.8</ele><time>2025-11-30T04:21:20Z</time></trkpt>
			<trkpt lat="56.209890" lon="42.901970"><ele>79.3</ele><time>2025-11-30T04:21:35Z</time></trkpt>
			<trkpt lat="56.210100" lon="42.902180"><ele>79.7</ele><time>2025-11-30T04:21:50Z</time></trkpt>
			<trkpt lat="56.210240" lon="42.902460"><ele>79.4</ele><time>2025-11-30T04:22:06Z</time></trkpt>
			<trkpt lat="56.210340" lon="42.902780"><ele>79.1</ele><time>2025-11-30T04:22:21Z</time></trkpt>
			<trkpt lat="56.210330" lon="42.902950"><ele>79.0</ele><time>2025-11-30T04:22:37Z</time></trkpt>
			<trkpt lat="56.210330" lon="42.902950"><ele>79.0</ele><time>2025-11-30T04:22:51Z</time></trkpt>
			<trkpt lat="56.210320" lon="42.903100"><ele>78.8</ele><time>2025-11-30T04:23:05Z</time></trkpt>
			<trkpt lat="56.210340" lon="42.903290"><ele>78.6</ele><time>2025-11-30T04:23:19Z</time></trkpt>
			<trkpt lat="56.210310" lon="42.903430"><ele>78.4</ele><time>2025-11-30T04:23:33Z</time></trkpt>
			<trkpt lat="56.210150" lon="42.903690"><ele>77.5</ele><time>2025-11-30T04:23:47Z</time></trkpt>
			<trkpt lat="56.210050" lon="42.904020"><ele>76.5</ele><time>2025-11-30T04:24:01Z</time></trkpt>
			<trkpt lat="56.210010" lon="42.904670"><ele>76.1</ele><time>2025-11-30T04:24:16Z</time></trkpt>
			<trkpt lat="56.210050" lon="42.904930"><ele>76.3</ele><time>2025-11-30T04:24:30Z</time></trkpt>
			<trkpt lat="56.210030" lon="42.905240"><ele>76.2</ele><time>2025-11-30T04:24:44Z</time></trkpt>
			<trkpt lat="56.209960" lon="42.905610"><ele>75.7</ele><time>2025-11-30T04:24:58Z</time></trkpt>
			<trkpt lat="56.209940" lon="42.906050"><ele>75.3</ele><time>2025-11-30T04:25:12Z</time></trkpt>
			<trkpt lat="56.209940" lon="42.906290"><ele>75.3</ele><time>2025-11-30T04:25:26Z</time></trkpt>
			<trkpt lat="56.209940" lon="42.906530"><ele>75.3</ele><time>2025-11-30T04:25:40Z</time></trkpt>
			<trkpt lat="56.209900" lon="42.906890"><ele>75.0</ele><time>2025-11-30T04:25:55Z</time></trkpt>
			<trkpt lat="56.209900" lon="42.907290"><ele>75.0</ele><time>2025-11-30T04:26:09Z</time></trkpt>
			<trkpt lat="56.209930" lon="42.907590"><ele>74.9</ele><time>2025-11-30T04:26:23Z</time></trkpt>
			<trkpt lat="56.209900" lon="42.907820"><ele>74.7</ele><time>2025-11-30T04:26:37Z</time></trkpt>
			<trkpt lat="56.209900" lon="42.908100"><ele>74.4</ele><time>2025-11-30T04:26:51Z</time></trkpt>
			<trkpt lat="56.209940" lon="42.908410"><ele>74.5</ele><time>2025-11-30T04:27:05Z</time></trkpt>
			<trkpt lat="56.209940" lon="42.908590"><ele>74.4</ele><time>2025-11-30T04:27:20Z</time></trkpt>
			<trkpt lat="56.209920" lon="42.908750"><ele>74.3</ele><time>2025-11-30T04:27:34Z</time></trkpt>
			<trkpt lat="56.209840" lon="42.909160"><ele>73.7</ele><time>2025-11-30T04:27:48Z</time></trkpt>
			<trkpt lat="56.209760" lon="42.909530"><ele>73.4</ele><time>2025-11-30T04:28:02Z</time></trkpt>
			<trkpt lat="56.209740" lon="42.909730"><ele>73.4</ele><time>2025-11-30T04:28:16Z</time></trkpt>
			<trkpt lat="56.209870" lon="42.910080"><ele>74.7</ele><time>2025-11-30T04:28:30Z</time></trkpt>
			<trkpt lat="56.210100" lon="42.910550"><ele>76.0</ele><time>2025-11-30T04:28:44Z</time></trkpt>
			<trkpt lat="56.210290" lon="42.910870"><ele>77.1</ele><time>2025-11-30T04:28:59Z</time></trkpt>
			<trkpt lat="56.210510" lon="42.911570"><ele>79.7</ele><time>2025-11-30T04:29:13Z</time></trkpt>
			<trkpt lat="56.210800" lon="42.911970"><ele>80.9</ele><time>2025-11-30T04:29:27Z</time></trkpt>
			<trkpt lat="56.210850" lon="42.912110"><ele>80.9</ele><time>2025-11-30T04:29:41Z</time></trkpt>
			<trkpt lat="56.210820" lon="42.912470"><ele>80.0</ele><time>2025-11-30T04:29:55Z</time></trkpt>
			<trkpt lat="56.210770" lon="42.912620"><ele>79.8</ele><time>2025-11-30T04:30:09Z</time></trkpt>
			<trkpt lat="56.210770" lon="42.912620"><ele>79.8</ele><time>2025-11-30T04:30:24Z</time></trkpt>
			<trkpt lat="56.210740" lon="42.912690"><ele>79.7</ele><time>2025-11-30T04:30:38Z</time></trkpt>
			<trkpt lat="56.210740" lon="42.912870"><ele>79.5</ele><time>2025-11-30T04:30:52Z</time></trkpt>
			<trkpt lat="56.210590" lon="42.913440"><ele>79.3</ele><time>2025-11-30T04:31:06Z</time></trkpt>
			<trkpt lat="56.210600" lon="42.913560"><ele>79.4</ele><time>2025-11-30T04:31:20Z</time></trkpt>
			<trkpt lat="56.210640" lon="42.913710"><ele>79.7</ele><time>2025-11-30T04:31:34Z</time></trkpt>
			<trkpt lat="56.210700" lon="42.913760"><ele>79.8</ele><time>2025-11-30T04:31:48Z</time></trkpt>
			<trkpt lat="56.210700" lon="42.913760"><ele>79.8</ele><time>2025-11-30T04:32:06Z</time></trkpt>
			<trkpt lat="56.210770" lon="42.913820"><ele>79.9</ele><time>2025-11-30T04:32:25Z</time></trkpt>
			<trkpt lat="56.210430" lon="42.913840"><ele>78.9</ele><time>2025-11-30T04:32:43Z</time></trkpt>
			<trkpt lat="56.209790" lon="42.914080"><ele>75.7</ele><time>2025-11-30T04:33:01Z</time></trkpt>
			<trkpt lat="56.209530" lon="42.914270"><ele>74.2</ele><time>2025-11-30T04:33:19Z</time></trkpt>
			<trkpt lat="56.209250" lon="42.914570"><ele>72.5</ele><time>2025-11-30T04:33:37Z</time></trkpt>
			<trkpt lat="56.209130" lon="42.914800"><ele>71.8</ele><time>2025-11-30T04:33:55Z</time></trkpt>
			<trkpt lat="56.208950" lon="42.915130"><ele>70.8</ele><time>2025-11-30T04:34:13Z</time></trkpt>
			<trkpt lat="56.208840" lon="42.915450"><ele>70.0</ele><time>2025-11-30T04:34:31Z</time></trkpt>
			<trkpt lat="56.208700" lon="42.915960"><ele>69.6</ele><time>2025-11-30T04:34:49Z</time></trkpt>
			<trkpt lat="56.208410" lon="42.916890"><ele>70.9</ele><time>2025-11-30T04:35:07Z</time></trkpt>
			<trkpt lat="56.208320" lon="42.917230"><ele>72.0</ele><time>2025-11-30T04:35:25Z</time></trkpt>
			<trkpt lat="56.208150" lon="42.917850"><ele>74.0</ele><time>2025-11-30T04:35:43Z</time></trkpt>
			<trkpt lat="56.207950" lon="42.918410"><ele>76.4</ele><time>2025-11-30T04:36:01Z</time></trkpt>
			<trkpt lat="56.207930" lon="42.918540"><ele>77.2</ele><time>2025-11-30T04:36:19Z</time></trkpt>
			<trkpt lat="56.207880" lon="42.919280"><ele>80.4</ele><time>2025-11-30T04:36:37Z</time></trkpt>
			<trkpt lat="56.207820" lon="42.919590"><ele>80.7</ele><time>2025-11-30T04:36:55Z</time></trkpt>
			<trkpt lat="56.207740" lon="42.919880"><ele>80.9</ele><time>2025-11-30T04:37:13Z</time></trkpt>
			<trkpt lat="56.207640" lon="42.920100"><ele>81.0</ele><time>2025-11-30T04:37:31Z</time></trkpt>
			<trkpt lat="56.207540" lon="42.920390"><ele>81.0</ele><time>2025-11-30T04:37:50Z</time></trkpt>
			<trkpt lat="56.207450" lon="42.920730"><ele>80.9</ele><time>2025-11-30T04:38:08Z</time></trkpt>
			<trkpt lat="56.207340" lon="42.920950"><ele>80.6</ele><time>2025-11-30T04:38:26Z</time></trkpt>
			<trkpt lat="56.207250" lon="42.921040"><ele>80.3</ele><time>2025-11-30T04:38:44Z</time></trkpt>
			<trkpt lat="56.207100" lon="42.921080"><ele>79.9</ele><time>2025-11-30T04:39:02Z</time></trkpt>
			<trkpt lat="56.206930" lon="42.921090"><ele>79.4</ele><time>2025-11-30T04:39:20Z</time></trkpt>
			<trkpt lat="56.206840" lon="42.921130"><ele>79.1</ele><time>2025-11-30T04:39:38Z</time></trkpt>
			<trkpt lat="56.206690" lon="42.921230"><ele>78.7</ele><time>2025-11-30T04:39:56Z</time></trkpt>
			<trkpt lat="56.206570" lon="42.921280"><ele>78.7</ele><time>2025-11-30T04:40:14Z</time></trkpt>
			<trkpt lat="56.206370" lon="42.921250"><ele>79.0</ele><time>2025-11-30T04:40:32Z</time></trkpt>
			<trkpt lat="56.206240" lon="42.921260"><ele>79.3</ele><time>2025-11-30T04:40:50Z</time></trkpt>
			<trkpt lat="56.206130" lon="42.921370"><ele>79.4</ele><time>2025-11-30T04:41:08Z</time></trkpt>
			<trkpt lat="56.206020" lon="42.921450"><ele>79.6</ele><time>2025-11-30T04:41:26Z</time></trkpt>
			<trkpt lat="56.205950" lon="42.921460"><ele>79.8</ele><time>2025-11-30T04:41:44Z</time></trkpt>
			<trkpt lat="56.205810" lon="42.921440"><ele>79.9</ele><time>2025-11-30T04:42:02Z</time></trkpt>
			<trkpt lat="56.205540" lon="42.921290"><ele>80.0</ele><time>2025-11-30T04:42:20Z</time></trkpt>
			<trkpt lat="56.205410" lon="42.921200"><ele>80.0</ele><time>2025-11-30T04:42:38Z</time></trkpt>
			<trkpt lat="56.205160" lon="42.920990"><ele>80.0</ele><time>2025-11-30T04:42:57Z</time></trkpt>
			<trkpt lat="56.205030" lon="42.920910"><ele>79.9</ele><time>2025-11-30T04:43:15Z</time></trkpt>
			<trkpt lat="56.204440" lon="42.920670"><ele>74.2</ele><time>2025-11-30T04:43:33Z</time></trkpt>
			<trkpt lat="56.204410" lon="42.920780"><ele>73.8</ele><time>2025-11-30T04:43:51Z</time></trkpt>
			<trkpt lat="56.204410" lon="42.920780"><ele>73.8</ele><time>2025-11-30T04:44:10Z</time></trkpt>
			<trkpt lat="56.204440" lon="42.920670"><ele>73.5</ele><time>2025-11-30T04:44:30Z</time></trkpt>
			<trkpt lat="56.204260" lon="42.920630"><ele>72.1</ele><time>2025-11-30T04:44:49Z</time></trkpt>
			<trkpt lat="56.204090" lon="42.920620"><ele>71.1</ele><time>2025-11-30T04:45:09Z</time></trkpt>
			<trkpt lat="56.203220" lon="42.920950"><ele>70.2</ele><time>2025-11-30T04:45:28Z</time></trkpt>
			<trkpt lat="56.203030" lon="42.921070"><ele>70.3</ele><time>2025-11-30T04:45:48Z</time></trkpt>
			<trkpt lat="56.202990" lon="42.921050"><ele>70.3</ele><time>2025-11-30T04:46:07Z</time></trkpt>
			<trkpt lat="56.202770" lon="42.921270"><ele>70.7</ele><time>2025-11-30T04:46:26Z</time></trkpt>
			<trkpt lat="56.202490" lon="42.921540"><ele>71.5</ele><time>2025-11-30T04:46:46Z</time></trkpt>
			<trkpt lat="56.202560" lon="42.921610"><ele>71.5</ele><time>2025-11-30T04:47:05Z</time></trkpt>
			<trkpt lat="56.202560" lon="42.921610"><ele>71.5</ele><time>2025-11-30T04:47:29Z</time></trkpt>
			<trkpt lat="56.202490" lon="42.921540"><ele>71.6</ele><time>2025-11-30T04:47:53Z</time></trkpt>
			<trkpt lat="56.202280" lon="42.921760"><ele>72.1</ele><time>2025-11-30T04:48:16Z</time></trkpt>
			<trkpt lat="56.201810" lon="42.922190"><ele>73.1</ele><time>2025-11-30T04:48:40Z</time></trkpt>
			<trkpt lat="56.201420" lon="42.922640"><ele>74.4</ele><time>2025-11-30T04:49:03Z</time></trkpt>
			<trkpt lat="56.201060" lon="42.922850"><ele>74.7</ele><time>2025-11-30T04:49:27Z</time></trkpt>
			<trkpt lat="56.200780" lon="42.923090"><ele>74.5</ele><time>2025-11-30T04:49:51Z</time></trkpt>
			<trkpt lat="56.200050" lon="42.923260"><ele>73.1</ele><time>2025-11-30T04:50:14Z</time></trkpt>
			<trkpt lat="56.199880" lon="42.923260"><ele>72.8</ele><time>2025-11-30T04:50:38Z</time></trkpt>
			<trkpt lat="56.199620" lon="42.923350"><ele>72.5</ele><time>2025-11-30T04:51:01Z</time></trkpt>
			<trkpt lat="56.199360" lon="42.923220"><ele>71.9</ele><time>2025-11-30T04:51:25Z</time></trkpt>
			<trkpt lat="56.199250" lon="42.923200"><ele>71.7</ele><time>2025-11-30T04:51:49Z</time></trkpt>
			<trkpt lat="56.199080" lon="42.923370"><ele>72.0</ele><time>2025-11-30T04:52:12Z</time></trkpt>
			<trkpt lat="56.198870" lon="42.923460"><ele>72.1</ele><time>2025-11-30T04:52:36Z</time></trkpt>
			<trkpt lat="56.198500" lon="42.923330"><ele>72.0</ele><time>2025-11-30T04:52:59Z</time></trkpt>
			<trkpt lat="56.198310" lon="42.923330"><ele>71.9</ele><time>2025-11-30T04:53:23Z</time></trkpt>
			<trkpt lat="56.198090" lon="42.923370"><ele>71.5</ele><time>2025-11-30T04:53:47Z</time></trkpt>
			<trkpt lat="56.197750" lon="42.923630"><ele>71.3</ele><time>2025-11-30T04:54:10Z</time></trkpt>
			<trkpt lat="56.197430" lon="42.924210"><ele>71.8</ele><time>2025-11-30T04:54:34Z</time></trkpt>
			<trkpt lat="56.197260" lon="42.924700"><ele>71.7</ele><time>2025-11-30T04:54:58Z</time></trkpt>
			<trkpt lat="56.197220" lon="42.924970"><ele>71.7</ele><time>2025-11-30T04:55:21Z</time></trkpt>
			<trkpt lat="56.197230" lon="42.925220"><ele>71.6</ele><time>2025-11-30T04:55:45Z</time></trkpt>
			<trkpt lat="56.197230" lon="42.925220"><ele>71.6</ele><time>2025-11-30T04:56:00Z</time></trkpt>
			<trkpt lat="56.197240" lon="42.925390"><ele>71.5</ele><time>2025-11-30T04:56:14Z</time></trkpt>
			<trkpt lat="56.197190" lon="42.925670"><ele>71.3</ele><time>2025-11-30T04:56:29Z</time></trkpt>
			<trkpt lat="56.197090" lon="42.925900"><ele>71.1</ele><time>2025-11-30T04:56:44Z</time></trkpt>
			<trkpt lat="56.196910" lon="42.926140"><ele>70.9</ele><time>2025-11-30T04:56:59Z</time></trkpt>
			<trkpt lat="56.196810" lon="42.926520"><ele>71.0</ele><time>2025-11-30T04:57:13Z</time></trkpt>
			<trkpt lat="56.196770" lon="42.926930"><ele>71.2</ele><time>2025-11-30T04:57:28Z</time></trkpt>
			<trkpt lat="56.196770" lon="42.926930"><ele>71.2</ele><time>2025-11-30T04:57:56Z</time></trkpt>
			<trkpt lat="56.196760" lon="42.926970"><ele>71.2</ele><time>2025-11-30T04:58:24Z</time></trkpt>
			<trkpt lat="56.196910" lon="42.927510"><ele>71.3</ele><time>2025-11-30T04:58:51Z</time></trkpt>
			<trkpt lat="56.197090" lon="42.927850"><ele>71.3</ele><time>2025-11-30T04:59:19Z</time></trkpt>
			<trkpt lat="56.197390" lon="42.928730"><ele>71.2</ele><time>2025-11-30T04:59:47Z</time></trkpt>
			<trkpt lat="56.197600" lon="42.929740"><ele>70.7</ele><time>2025-11-30T05:00:14Z</time></trkpt>
			<trkpt lat="56.197750" lon="42.930820"><ele>70.0</ele><time>2025-11-30T05:00:42Z</time></trkpt>
			<trkpt lat="56.197940" lon="42.931350"><ele>70.5</ele><time>2025-11-30T05:01:10Z</time></trkpt>
			<trkpt lat="56.198070" lon="42.931800"><ele>70.7</ele><time>2025-11-30T05:01:37Z</time></trkpt>
			<trkpt lat="56.198130" lon="42.931870"><ele>70.8</ele><time>2025-11-30T05:02:05Z</time></trkpt>
			<trkpt lat="56.198130" lon="42.931880"><ele>70.8</ele><time>2025-11-30T05:02:34Z</time></trkpt>
			<trkpt lat="56.198330" lon="42.932150"><ele>71.0</ele><time>2025-11-30T05:03:03Z</time></trkpt>
			<trkpt lat="56.198070" lon="42.932080"><ele>70.7</ele><time>2025-11-30T05:03:31Z</time></trkpt>
			<trkpt lat="56.197750" lon="42.932640"><ele>70.3</ele><time>2025-11-30T05:04:00Z</time></trkpt>
			<trkpt lat="56.197340" lon="42.933500"><ele>70.0</ele><time>2025-11-30T05:04:29Z</time></trkpt>
			<trkpt lat="56.197130" lon="42.934100"><ele>70.5</ele><time>2025-11-30T05:04:58Z</time></trkpt>
			<trkpt lat="56.196360" lon="42.934850"><ele>71.6</ele><time>2025-11-30T05:05:27Z</time></trkpt>
			<trkpt lat="56.196180" lon="42.934850"><ele>72.2</ele><time>2025-11-30T05:05:56Z</time></trkpt>
			<trkpt lat="56.195910" lon="42.934980"><ele>73.6</ele><time>2025-11-30T05:06:25Z</time></trkpt>
			<trkpt lat="56.195540" lon="42.934980"><ele>74.5</ele><time>2025-11-30T05:06:54Z</time></trkpt>
			<trkpt lat="56.195260" lon="42.934730"><ele>74.1</ele><time>2025-11-30T05:07:22Z</time></trkpt>
			<trkpt lat="56.195020" lon="42.934650"><ele>74.3</ele><time>2025-11-30T05:07:51Z</time></trkpt>
			<trkpt lat="56.194940" lon="42.934670"><ele>74.5</ele><time>2025-11-30T05:08:20Z</time></trkpt>
			<trkpt lat="56.194940" lon="42.934670"><ele>74.5</ele><time>2025-11-30T05:08:39Z</time></trkpt>
			<trkpt lat="56.194860" lon="42.934700"><ele>74.7</ele><time>2025-11-30T05:08:57Z</time></trkpt>
			<trkpt lat="56.194690" lon="42.934860"><ele>75.2</ele><time>2025-11-30T05:09:16Z</time></trkpt>
			<trkpt lat="56.194590" lon="42.934860"><ele>75.4</ele><time>2025-11-30T05:09:35Z</time></trkpt>
			<trkpt lat="56.194450" lon="42.934790"><ele>75.2</ele><time>2025-11-30T05:09:53Z</time></trkpt>
			<trkpt lat="56.194300" lon="42.934760"><ele>75.2</ele><time>2025-11-30T05:10:12Z</time></trkpt>
			<trkpt lat="56.194090" lon="42.934850"><ele>75.3</ele><time>2025-11-30T05:10:31Z</time></trkpt>
			<trkpt lat="56.193590" lon="42.935370"><ele>76.6</ele><time>2025-11-30T05:10:49Z</time></trkpt>
			<trkpt lat="56.193350" lon="42.935750"><ele>78.1</ele><time>2025-11-30T05:11:08Z</time></trkpt>
			<trkpt lat="56.193220" lon="42.935750"><ele>78.2</ele><time>2025-11-30T05:11:27Z</time></trkpt>
			<trkpt lat="56.192870" lon="42.935950"><ele>77.5</ele><time>2025-11-30T05:11:45Z</time></trkpt>
			<trkpt lat="56.192650" lon="42.935920"><ele>76.6</ele><time>2025-11-30T05:12:04Z</time></trkpt>
			<trkpt lat="56.192170" lon="42.935980"><ele>74.9</ele><time>2025-11-30T05:12:23Z</time></trkpt>
			<trkpt lat="56.191940" lon="42.936090"><ele>74.1</ele><time>2025-11-30T05:12:41Z</time></trkpt>
			<trkpt lat="56.191540" lon="42.936410"><ele>72.6</ele><time>2025-11-30T05:13:00Z</time></trkpt>
			<trkpt lat="56.191430" lon="42.936600"><ele>72.2</ele><time>2025-11-30T05:13:19Z</time></trkpt>
			<trkpt lat="56.191370" lon="42.936970"><ele>72.5</ele><time>2025-11-30T05:13:37Z</time></trkpt>
			<trkpt lat="56.191290" lon="42.937210"><ele>72.6</ele><time>2025-11-30T05:13:56Z</time></trkpt>
			<trkpt lat="56.191210" lon="42.937360"><ele>72.6</ele><time>2025-11-30T05:14:15Z</time></trkpt>
			<trkpt lat="56.191150" lon="42.937560"><ele>72.6</ele><time>2025-11-30T05:14:33Z</time></trkpt>
			<trkpt lat="56.191150" lon="42.937560"><ele>72.6</ele><time>2025-11-30T05:14:52Z</time></trkpt>
			<trkpt lat="56.191130" lon="42.937630"><ele>72.6</ele><time>2025-11-30T05:15:11Z</time></trkpt>
			<trkpt lat="56.191100" lon="42.938110"><ele>72.8</ele><time>2025-11-30T05:15:31Z</time></trkpt>
			<trkpt lat="56.191100" lon="42.938340"><ele>72.8</ele><time>2025-11-30T05:15:50Z</time></trkpt>
			<trkpt lat="56.191210" lon="42.938780"><ele>72.7</ele><time>2025-11-30T05:16:09Z</time></trkpt>
			<trkpt lat="56.191450" lon="42.939540"><ele>73.8</ele><time>2025-11-30T05:16:28Z</time></trkpt>
			<trkpt lat="56.191450" lon="42.939540"><ele>73.8</ele><time>2025-11-30T05:16:44Z</time></trkpt>
			<trkpt lat="56.191510" lon="42.939980"><ele>74.6</ele><time>2025-11-30T05:17:00Z</time></trkpt>
			<trkpt lat="56.191580" lon="42.940260"><ele>75.0</ele><time>2025-11-30T05:17:16Z</time></trkpt>
			<trkpt lat="56.191570" lon="42.940640"><ele>74.7</ele><time>2025-11-30T05:17:33Z</time></trkpt>
			<trkpt lat="56.191470" lon="42.940820"><ele>74.3</ele><time>2025-11-30T05:17:49Z</time></trkpt>
			<trkpt lat="56.191510" lon="42.940990"><ele>74.2</ele><time>2025-11-30T05:18:05Z</time></trkpt>
			<trkpt lat="56.191500" lon="42.941670"><ele>73.7</ele><time>2025-11-30T05:18:21Z</time></trkpt>
			<trkpt lat="56.191560" lon="42.942000"><ele>74.2</ele><time>2025-11-30T05:18:37Z</time></trkpt>
			<trkpt lat="56.191550" lon="42.942320"><ele>74.3</ele><time>2025-11-30T05:18:53Z</time></trkpt>
			<trkpt lat="56.191540" lon="42.942530"><ele>74.4</ele><time>2025-11-30T05:19:10Z</time></trkpt>
			<trkpt lat="56.191570" lon="42.943190"><ele>75.1</ele><time>2025-11-30T05:19:26Z</time></trkpt>
			<trkpt lat="56.191530" lon="42.943560"><ele>75.5</ele><time>2025-11-30T05:19:42Z</time></trkpt>
			<trkpt lat="56.191530" lon="42.943850"><ele>75.9</ele><time>2025-11-30T05:19:58Z</time></trkpt>
			<trkpt lat="56.191430" lon="42.944400"><ele>76.3</ele><time>2025-11-30T05:20:14Z</time></trkpt>
			<trkpt lat="56.191320" lon="42.944670"><ele>76.3</ele><time>2025-11-30T05:20:31Z</time></trkpt>
			<trkpt lat="56.191320" lon="42.944930"><ele>76.4</ele><time>2025-11-30T05:20:47Z</time></trkpt>
			<trkpt lat="56.191290" lon="42.944990"><ele>76.5</ele><time>2025-11-30T05:21:03Z</time></trkpt>
			<trkpt lat="56.191140" lon="42.945340"><ele>76.6</ele><time>2025-11-30T05:21:19Z</time></trkpt>
			<trkpt lat="56.191140" lon="42.945340"><ele>76.6</ele><time>2025-11-30T05:21:35Z</time></trkpt>
			<trkpt lat="56.191070" lon="42.945500"><ele>76.7</ele><time>2025-11-30T05:21:50Z</time></trkpt>
			<trkpt lat="56.190990" lon="42.945870"><ele>77.0</ele><time>2025-11-30T05:22:06Z</time></trkpt>
			<trkpt lat="56.190700" lon="42.946490"><ele>76.3</ele><time>2025-11-30T05:22:21Z</time></trkpt>
			<trkpt lat="56.190310" lon="42.946940"><ele>74.6</ele><time>2025-11-30T05:22:37Z</time></trkpt>
			<trkpt lat="56.189930" lon="42.947530"><ele>75.1</ele><time>2025-11-30T05:22:52Z</time></trkpt>
			<trkpt lat="56.189750" lon="42.947590"><ele>75.4</ele><time>2025-11-30T05:23:08Z</time></trkpt>
			<trkpt lat="56.189460" lon="42.948130"><ele>75.9</ele><time>2025-11-30T05:23:23Z</time></trkpt>
			<trkpt lat="56.189320" lon="42.948210"><ele>76.0</ele><time>2025-11-30T05:23:39Z</time></trkpt>
			<trkpt lat="56.189140" lon="42.948160"><ele>76.1</ele><time>2025-11-30T05:23:54Z</time></trkpt>
			<trkpt lat="56.189010" lon="42.948200"><ele>76.4</ele><time>2025-11-30T05:24:10Z</time></trkpt>
			<trkpt lat="56.188900" lon="42.948120"><ele>76.7</ele><time>2025-11-30T05:24:25Z</time></trkpt>
			<trkpt lat="56.188770" lon="42.948090"><ele>76.9</ele><time>2025-11-30T05:24:41Z</time></trkpt>
			<trkpt lat="56.188590" lon="42.948210"><ele>77.7</ele><time>2025-11-30T05:24:57Z</time></trkpt>
			<trkpt lat="56.188520" lon="42.948390"><ele>77.9</ele><time>2025-11-30T05:25:12Z</time></trkpt>
			<trkpt lat="56.188510" lon="42.948520"><ele>78.1</ele><time>2025-11-30T05:25:28Z</time></trkpt>
			<trkpt lat="56.188420" lon="42.948420"><ele>78.2</ele><time>2025-11-30T05:25:43Z</time></trkpt>
			<trkpt lat="56.188350" lon="42.948660"><ele>78.2</ele><time>2025-11-30T05:25:59Z</time></trkpt>
			<trkpt lat="56.188180" lon="42.948740"><ele>77.9</ele><time>2025-11-30T05:26:14Z</time></trkpt>
			<trkpt lat="56.188100" lon="42.949080"><ele>77.5</ele><time>2025-11-30T05:26:30Z</time></trkpt>
			<trkpt lat="56.188100" lon="42.949250"><ele>77.3</ele><time>2025-11-30T05:26:45Z</time></trkpt>
			<trkpt lat="56.188050" lon="42.949410"><ele>77.3</ele><time>2025-11-30T05:27:01Z</time></trkpt>
			<trkpt lat="56.187960" lon="42.949470"><ele>77.4</ele><time>2025-11-30T05:27:16Z</time></trkpt>
			<trkpt lat="56.188020" lon="42.949540"><ele>77.4</ele><time>2025-11-30T05:27:32Z</time></trkpt>
			<trkpt lat="56.188020" lon="42.949550"><ele>77.4</ele><time>2025-11-30T05:27:58Z</time></trkpt>
			<trkpt lat="56.188180" lon="42.949740"><ele>77.2</ele><time>2025-11-30T05:28:25Z</time></trkpt>
			<trkpt lat="56.188440" lon="42.949870"><ele>77.0</ele><time>2025-11-30T05:28:51Z</time></trkpt>
			<trkpt lat="56.189000" lon="42.950490"><ele>78.2</ele><time>2025-11-30T05:29:18Z</time></trkpt>
			<trkpt lat="56.189150" lon="42.950730"><ele>78.7</ele><time>2025-11-30T05:29:44Z</time></trkpt>
			<trkpt lat="56.189230" lon="42.950770"><ele>78.7</ele><time>2025-11-30T05:30:11Z</time></trkpt>
			<trkpt lat="56.189730" lon="42.951310"><ele>78.3</ele><time>2025-11-30T05:30:37Z</time></trkpt>
			<trkpt lat="56.189960" lon="42.951760"><ele>78.2</ele><time>2025-11-30T05:31:04Z</time></trkpt>
			<trkpt lat="56.190220" lon="42.951780"><ele>78.8</ele><time>2025-11-30T05:31:30Z</time></trkpt>
			<trkpt lat="56.190440" lon="42.951760"><ele>79.5</ele><time>2025-11-30T05:31:57Z</time></trkpt>
			<trkpt lat="56.190750" lon="42.951860"><ele>80.4</ele><time>2025-11-30T05:32:23Z</time></trkpt>
			<trkpt lat="56.190990" lon="42.952060"><ele>80.5</ele><time>2025-11-30T05:32:50Z</time></trkpt>
			<trkpt lat="56.191510" lon="42.952060"><ele>80.0</ele><time>2025-11-30T05:33:16Z</time></trkpt>
			<trkpt lat="56.192000" lon="42.952620"><ele>79.1</ele><time>2025-11-30T05:33:43Z</time></trkpt>
			<trkpt lat="56.192130" lon="42.953240"><ele>79.3</ele><time>2025-11-30T05:34:09Z</time></trkpt>
			<trkpt lat="56.192190" lon="42.954160"><ele>77.5</ele><time>2025-11-30T05:34:36Z</time></trkpt>
			<trkpt lat="56.192250" lon="42.954700"><ele>76.1</ele><time>2025-11-30T05:35:02Z</time></trkpt>
			<trkpt lat="56.192390" lon="42.955060"><ele>74.7</ele><time>2025-11-30T05:35:29Z</time></trkpt>
			<trkpt lat="56.192620" lon="42.955430"><ele>74.6</ele><time>2025-11-30T05:35:55Z</time></trkpt>
			<trkpt lat="56.193010" lon="42.955640"><ele>74.9</ele><time>2025-11-30T05:36:22Z</time></trkpt>
			<trkpt lat="56.193240" lon="42.955680"><ele>75.0</ele><time>2025-11-30T05:36:48Z</time></trkpt>
			<trkpt lat="56.193420" lon="42.955450"><ele>74.7</ele><time>2025-11-30T05:37:15Z</time></trkpt>
			<trkpt lat="56.193740" lon="42.955230"><ele>73.7</ele><time>2025-11-30T05:37:41Z</time></trkpt>
			<trkpt lat="56.193890" lon="42.955390"><ele>73.3</ele><time>2025-11-30T05:38:08Z</time></trkpt>
			<trkpt lat="56.193890" lon="42.955390"><ele>73.3</ele><time>2025-11-30T05:38:27Z</time></trkpt>
			<trkpt lat="56.193930" lon="42.955430"><ele>73.2</ele><time>2025-11-30T05:38:47Z</time></trkpt>
			<trkpt lat="56.193970" lon="42.955440"><ele>73.1</ele><time>2025-11-30T05:39:06Z</time></trkpt>
			<trkpt lat="56.194120" lon="42.955510"><ele>72.8</ele><time>2025-11-30T05:39:26Z</time></trkpt>
			<trkpt lat="56.194250" lon="42.955440"><ele>72.8</ele><time>2025-11-30T05:39:45Z</time></trkpt>
			<trkpt lat="56.194910" lon="42.955050"><ele>73.0</ele><time>2025-11-30T05:40:05Z</time></trkpt>
			<trkpt lat="56.195050" lon="42.954700"><ele>72.6</ele><time>2025-11-30T05:40:24Z</time></trkpt>
			<trkpt lat="56.195430" lon="42.954100"><ele>73.6</ele><time>2025-11-30T05:40:44Z</time></trkpt>
			<trkpt lat="56.195820" lon="42.953730"><ele>75.2</ele><time>2025-11-30T05:41:03Z</time></trkpt>
			<trkpt lat="56.195960" lon="42.953550"><ele>75.2</ele><time>2025-11-30T05:41:23Z</time></trkpt>
			<trkpt lat="56.195970" lon="42.953390"><ele>75.0</ele><time>2025-11-30T05:41:42Z</time></trkpt>
			<trkpt lat="56.195960" lon="42.953300"><ele>75.0</ele><time>2025-11-30T05:42:02Z</time></trkpt>
			<trkpt lat="56.195930" lon="42.953160"><ele>74.8</ele><time>2025-11-30T05:42:21Z</time></trkpt>
			<trkpt lat="56.195980" lon="42.953060"><ele>74.7</ele><time>2025-11-30T05:42:41Z</time></trkpt>
			<trkpt lat="56.196130" lon="42.952510"><ele>73.9</ele><time>2025-11-30T05:43:00Z</time></trkpt>
			<trkpt lat="56.196170" lon="42.952240"><ele>73.5</ele><time>2025-11-30T05:43:20Z</time></trkpt>
			<trkpt lat="56.196280" lon="42.951870"><ele>72.9</ele><time>2025-11-30T05:43:39Z</time></trkpt>
			<trkpt lat="56.196330" lon="42.951430"><ele>72.6</ele><time>2025-11-30T05:43:59Z</time></trkpt>
			<trkpt lat="56.196810" lon="42.950170"><ele>71.5</ele><time>2025-11-30T05:44:18Z</time></trkpt>
			<trkpt lat="56.196910" lon="42.950190"><ele>71.4</ele><time>2025-11-30T05:44:38Z</time></trkpt>
			<trkpt lat="56.197120" lon="42.950140"><ele>71.2</ele><time>2025-11-30T05:44:57Z</time></trkpt>
			<trkpt lat="56.197120" lon="42.950140"><ele>71.2</ele><time>2025-11-30T05:45:20Z</time></trkpt>
			<trkpt lat="56.197210" lon="42.950120"><ele>71.2</ele><time>2025-11-30T05:45:43Z</time></trkpt>
			<trkpt lat="56.197410" lon="42.950170"><ele>71.2</ele><time>2025-11-30T05:46:05Z</time></trkpt>
			<trkpt lat="56.197470" lon="42.950120"><ele>71.1</ele><time>2025-11-30T05:46:28Z</time></trkpt>
			<trkpt lat="56.197550" lon="42.950100"><ele>71.2</ele><time>2025-11-30T05:46:51Z</time></trkpt>
			<trkpt lat="56.197660" lon="42.950140"><ele>71.3</ele><time>2025-11-30T05:47:14Z</time></trkpt>
			<trkpt lat="56.197840" lon="42.950210"><ele>71.4</ele><time>2025-11-30T05:47:37Z</time></trkpt>
			<trkpt lat="56.198240" lon="42.950080"><ele>71.8</ele><time>2025-11-30T05:47:59Z</time></trkpt>
			<trkpt lat="56.198670" lon="42.949630"><ele>72.0</ele><time>2025-11-30T05:48:22Z</time></trkpt>
			<trkpt lat="56.199460" lon="42.949530"><ele>72.7</ele><time>2025-11-30T05:48:45Z</time></trkpt>
			<trkpt lat="56.199850" lon="42.949480"><ele>73.6</ele><time>2025-11-30T05:49:08Z</time></trkpt>
			<trkpt lat="56.200260" lon="42.949150"><ele>73.4</ele><time>2025-11-30T05:49:31Z</time></trkpt>
			<trkpt lat="56.200400" lon="42.949100"><ele>73.0</ele><time>2025-11-30T05:49:53Z</time></trkpt>
			<trkpt lat="56.200400" lon="42.949100"><ele>73.0</ele><time>2025-11-30T05:50:12Z</time></trkpt>
			<trkpt lat="56.200470" lon="42.949070"><ele>72.8</ele><time>2025-11-30T05:50:31Z</time></trkpt>
			<trkpt lat="56.200780" lon="42.949160"><ele>72.1</ele><time>2025-11-30T05:50:50Z</time></trkpt>
			<trkpt lat="56.201260" lon="42.949080"><ele>71.9</ele><time>2025-11-30T05:51:09Z</time></trkpt>
			<trkpt lat="56.201710" lon="42.948900"><ele>71.9</ele><time>2025-11-30T05:51:27Z</time></trkpt>
			<trkpt lat="56.201830" lon="42.948900"><ele>72.1</ele><time>2025-11-30T05:51:46Z</time></trkpt>
			<trkpt lat="56.201870" lon="42.948870"><ele>72.1</ele><time>2025-11-30T05:52:05Z</time></trkpt>
			<trkpt lat="56.201950" lon="42.948780"><ele>72.2</ele><time>2025-11-30T05:52:24Z</time></trkpt>
			<trkpt lat="56.202040" lon="42.948690"><ele>72.3</ele><time>2025-11-30T05:52:43Z</time></trkpt>
			<trkpt lat="56.202650" lon="42.948400"><ele>72.7</ele><time>2025-11-30T05:53:01Z</time></trkpt>
			<trkpt lat="56.202910" lon="42.948240"><ele>73.4</ele><time>2025-11-30T05:53:20Z</time></trkpt>
			<trkpt lat="56.203130" lon="42.948080"><ele>73.9</ele><time>2025-11-30T05:53:39Z</time></trkpt>
			<trkpt lat="56.203190" lon="42.947900"><ele>74.0</ele><time>2025-11-30T05:53:58Z</time></trkpt>
			<trkpt lat="56.203380" lon="42.947640"><ele>74.3</ele><time>2025-11-30T05:54:17Z</time></trkpt>
			<trkpt lat="56.203440" lon="42.947480"><ele>74.3</ele><time>2025-11-30T05:54:35Z</time></trkpt>
			<trkpt lat="56.203520" lon="42.947140"><ele>74.0</ele><time>2025-11-30T05:54:54Z</time></trkpt>
			<trkpt lat="56.203640" lon="42.946870"><ele>73.6</ele><time>2025-11-30T05:55:13Z</time></trkpt>
			<trkpt lat="56.203910" lon="42.946030"><ele>74.1</ele><time>2025-11-30T05:55:32Z</time></trkpt>
			<trkpt lat="56.204040" lon="42.945960"><ele>74.6</ele><time>2025-11-30T05:55:51Z</time></trkpt>
			<trkpt lat="56.204130" lon="42.945950"><ele>74.9</ele><time>2025-11-30T05:56:09Z</time></trkpt>
			<trkpt lat="56.204130" lon="42.945950"><ele>74.9</ele><time>2025-11-30T05:57:00Z</time></trkpt>
			<trkpt lat="56.204280" lon="42.945920"><ele>75.0</ele><time>2025-11-30T05:57:51Z</time></trkpt>
			<trkpt lat="56.205400" lon="42.946010"><ele>75.2</ele><time>2025-11-30T05:58:42Z</time></trkpt>
			<trkpt lat="56.205400" lon="42.946010"><ele>75.2</ele><time>2025-11-30T05:59:14Z</time></trkpt>
			<trkpt lat="56.205610" lon="42.946020"><ele>75.1</ele><time>2025-11-30T05:59:45Z</time></trkpt>
			<trkpt lat="56.206330" lon="42.946070"><ele>74.2</ele><time>2025-11-30T06:00:16Z</time></trkpt>
			<trkpt lat="56.206540" lon="42.946180"><ele>74.0</ele><time>2025-11-30T06:00:48Z</time></trkpt>
			<trkpt lat="56.207190" lon="42.946190"><ele>73.9</ele><time>2025-11-30T06:01:19Z</time></trkpt>
			<trkpt lat="56.207880" lon="42.946150"><ele>75.8</ele><time>2025-11-30T06:01:51Z</time></trkpt>
			<trkpt lat="56.208070" lon="42.946300"><ele>76.8</ele><time>2025-11-30T06:02:22Z</time></trkpt>
			<trkpt lat="56.208100" lon="42.946230"><ele>77.0</ele><time>2025-11-30T06:02:54Z</time></trkpt>
			<trkpt lat="56.208100" lon="42.946230"><ele>77.0</ele><time>2025-11-30T06:03:19Z</time></trkpt>
			<trkpt lat="56.208200" lon="42.946030"><ele>76.9</ele><time>2025-11-30T06:03:45Z</time></trkpt>
			<trkpt lat="56.208630" lon="42.944760"><ele>78.6</ele><time>2025-11-30T06:04:11Z</time></trkpt>
			<trkpt lat="56.208800" lon="42.944100"><ele>78.7</ele><time>2025-11-30T06:04:36Z</time></trkpt>
			<trkpt lat="56.208820" lon="42.943770"><ele>77.1</ele><time>2025-11-30T06:05:02Z</time></trkpt>
			<trkpt lat="56.208830" lon="42.943710"><ele>76.7</ele><time>2025-11-30T06:05:28Z</time></trkpt>
			<trkpt lat="56.208830" lon="42.943710"><ele>76.7</ele><time>2025-11-30T06:05:56Z</time></trkpt>
			<trkpt lat="56.208920" lon="42.943420"><ele>75.4</ele><time>2025-11-30T06:06:23Z</time></trkpt>
			<trkpt lat="56.209100" lon="42.943200"><ele>75.4</ele><time>2025-11-30T06:06:51Z</time></trkpt>
			<trkpt lat="56.209640" lon="42.942920"><ele>77.6</ele><time>2025-11-30T06:07:19Z</time></trkpt>
			<trkpt lat="56.210270" lon="42.942630"><ele>77.4</ele><time>2025-11-30T06:07:47Z</time></trkpt>
			<trkpt lat="56.210810" lon="42.942360"><ele>76.2</ele><time>2025-11-30T06:08:15Z</time></trkpt>
			<trkpt lat="56.211050" lon="42.942270"><ele>76.3</ele><time>2025-11-30T06:08:43Z</time></trkpt>
			<trkpt lat="56.211390" lon="42.942190"><ele>77.0</ele><time>2025-11-30T06:09:11Z</time></trkpt>
			<trkpt lat="56.211660" lon="42.942160"><ele>77.5</ele><time>2025-11-30T06:09:39Z</time></trkpt>
			<trkpt lat="56.211940" lon="42.942080"><ele>77.6</ele><time>2025-11-30T06:10:07Z</time></trkpt>
			<trkpt lat="56.212080" lon="42.942010"><ele>77.5</ele><time>2025-11-30T06:10:35Z</time></trkpt>
			<trkpt lat="56.212300" lon="42.941940"><ele>77.6</ele><time>2025-11-30T06:11:03Z</time></trkpt>
			<trkpt lat="56.212440" lon="42.941950"><ele>78.0</ele><time>2025-11-30T06:11:31Z</time></trkpt>
			<trkpt lat="56.212600" lon="42.942100"><ele>78.9</ele><time>2025-11-30T06:11:58Z</time></trkpt>
			<trkpt lat="56.213690" lon="42.943480"><ele>80.3</ele><time>2025-11-30T06:12:26Z</time></trkpt>
			<trkpt lat="56.214620" lon="42.944180"><ele>78.4</ele><time>2025-11-30T06:12:54Z</time></trkpt>
			<trkpt lat="56.214680" lon="42.944420"><ele>78.4</ele><time>2025-11-30T06:13:22Z</time></trkpt>
			<trkpt lat="56.214680" lon="42.944720"><ele>78.6</ele><time>2025-11-30T06:13:50Z</time></trkpt>
			<trkpt lat="56.214600" lon="42.945310"><ele>79.4</ele><time>2025-11-30T06:14:18Z</time></trkpt>
			<trkpt lat="56.214360" lon="42.945930"><ele>80.7</ele><time>2025-11-30T06:14:46Z</time></trkpt>
			<trkpt lat="56.214360" lon="42.946090"><ele>81.0</ele><time>2025-11-30T06:15:14Z</time></trkpt>
			<trkpt lat="56.214400" lon="42.946160"><ele>81.0</ele><time>2025-11-30T06:15:42Z</time></trkpt>
			<trkpt lat="56.214480" lon="42.946030"><ele>80.9</ele><time>2025-11-30T06:16:10Z</time></trkpt>
			<trkpt lat="56.214480" lon="42.946030"><ele>80.9</ele><time>2025-11-30T06:16:23Z</time></trkpt>
			<trkpt lat="56.214400" lon="42.946160"><ele>80.8</ele><time>2025-11-30T06:16:36Z</time></trkpt>
			<trkpt lat="56.214360" lon="42.946090"><ele>80.8</ele><time>2025-11-30T06:16:50Z</time></trkpt>
			<trkpt lat="56.214360" lon="42.945930"><ele>80.7</ele><time>2025-11-30T06:17:03Z</time></trkpt>
			<trkpt lat="56.214600" lon="42.945310"><ele>79.3</ele><time>2025-11-30T06:17:17Z</time></trkpt>
			<trkpt lat="56.214680" lon="42.944720"><ele>78.6</ele><time>2025-11-30T06:17:30Z</time></trkpt>
			<trkpt lat="56.214680" lon="42.944420"><ele>78.4</ele><time>2025-11-30T06:17:43Z</time></trkpt>
			<trkpt lat="56.214620" lon="42.944180"><ele>78.3</ele><time>2025-11-30T06:17:57Z</time></trkpt>
			<trkpt lat="56.214610" lon="42.944170"><ele>78.3</ele><time>2025-11-30T06:18:10Z</time></trkpt>
			<trkpt lat="56.214610" lon="42.944170"><ele>78.3</ele><time>2025-11-30T06:18:37Z</time></trkpt>
			<trkpt lat="56.214620" lon="42.944180"><ele>78.3</ele><time>2025-11-30T06:19:04Z</time></trkpt>
			<trkpt lat="56.214680" lon="42.944420"><ele>78.4</ele><time>2025-11-30T06:19:30Z</time></trkpt>
			<trkpt lat="56.214680" lon="42.944720"><ele>78.6</ele><time>2025-11-30T06:19:57Z</time></trkpt>
			<trkpt lat="56.214600" lon="42.945310"><ele>79.3</ele><time>2025-11-30T06:20:24Z</time></trkpt>
			<trkpt lat="56.214360" lon="42.945930"><ele>80.7</ele><time>2025-11-30T06:20:50Z</time></trkpt>
			<trkpt lat="56.214360" lon="42.946090"><ele>81.0</ele><time>2025-11-30T06:21:17Z</time></trkpt>
			<trkpt lat="56.214400" lon="42.946160"><ele>81.2</ele><time>2025-11-30T06:21:44Z</time></trkpt>
			<trkpt lat="56.214300" lon="42.946420"><ele>82.0</ele><time>2025-11-30T06:22:11Z</time></trkpt>
			<trkpt lat="56.214030" lon="42.947190"><ele>84.6</ele><time>2025-11-30T06:22:37Z</time></trkpt>
			<trkpt lat="56.213420" lon="42.948660"><ele>86.4</ele><time>2025-11-30T06:23:04Z</time></trkpt>
			<trkpt lat="56.212960" lon="42.949730"><ele>87.6</ele><time>2025-11-30T06:23:31Z</time></trkpt>
			<trkpt lat="56.212400" lon="42.950990"><ele>87.9</ele><time>2025-11-30T06:23:57Z</time></trkpt>
			<trkpt lat="56.212370" lon="42.951090"><ele>87.8</ele><time>2025-11-30T06:24:24Z</time></trkpt>
			<trkpt lat="56.212370" lon="42.951140"><ele>87.8</ele><time>2025-11-30T06:24:51Z</time></trkpt>
			<trkpt lat="56.212370" lon="42.951140"><ele>87.8</ele><time>2025-11-30T06:25:44Z</time></trkpt>
			<trkpt lat="56.212370" lon="42.951320"><ele>87.6</ele><time>2025-11-30T06:26:38Z</time></trkpt>
			<trkpt lat="56.212600" lon="42.951740"><ele>86.9</ele><time>2025-11-30T06:27:32Z</time></trkpt>
			<trkpt lat="56.213000" lon="42.952410"><ele>86.8</ele><time>2025-11-30T06:28:25Z</time></trkpt>
			<trkpt lat="56.213680" lon="42.953570"><ele>85.9</ele><time>2025-11-30T06:29:19Z</time></trkpt>
			<trkpt lat="56.214350" lon="42.954730"><ele>84.6</ele><time>2025-11-30T06:30:12Z</time></trkpt>
			<trkpt lat="56.216010" lon="42.957610"><ele>82.5</ele><time>2025-11-30T06:31:06Z</time></trkpt>
			<trkpt lat="56.216120" lon="42.957790"><ele>82.8</ele><time>2025-11-30T06:32:00Z</time></trkpt>
			<trkpt lat="56.216170" lon="42.957850"><ele>82.9</ele><time>2025-11-30T06:32:53Z</time></trkpt>
			<trkpt lat="56.216170" lon="42.957850"><ele>82.9</ele><time>2025-11-30T06:33:36Z</time></trkpt>
			<trkpt lat="56.216350" lon="42.958080"><ele>83.1</ele><time>2025-11-30T06:34:18Z</time></trkpt>
			<trkpt lat="56.216590" lon="42.958310"><ele>83.0</ele><time>2025-11-30T06:35:01Z</time></trkpt>
			<trkpt lat="56.218140" lon="42.959540"><ele>83.3</ele><time>2025-11-30T06:35:43Z</time></trkpt>
			<trkpt lat="56.219800" lon="42.960810"><ele>82.3</ele><time>2025-11-30T06:36:26Z</time></trkpt>
			<trkpt lat="56.221860" lon="42.962370"><ele>81.6</ele><time>2025-11-30T06:37:08Z</time></trkpt>
			<trkpt lat="56.222100" lon="42.962550"><ele>82.0</ele><time>2025-11-30T06:37:50Z</time></trkpt>
			<trkpt lat="56.222210" lon="42.962610"><ele>82.3</ele><time>2025-11-30T06:38:33Z</time></trkpt>
			<trkpt lat="56.222290" lon="42.962600"><ele>82.4</ele><time>2025-11-30T06:39:15Z</time></trkpt>
			<trkpt lat="56.222460" lon="42.962600"><ele>82.8</ele><time>2025-11-30T06:39:58Z</time></trkpt>
			<trkpt lat="56.222670" lon="42.962630"><ele>83.0</ele><time>2025-11-30T06:40:40Z</time></trkpt>
			<trkpt lat="56.222810" lon="42.962670"><ele>83.1</ele><time>2025-11-30T06:41:23Z</time></trkpt>
			<trkpt lat="56.223220" lon="42.962760"><ele>83.3</ele><time>2025-11-30T06:42:05Z</time></trkpt>
			<trkpt lat="56.223340" lon="42.962790"><ele>83.3</ele><time>2025-11-30T06:42:48Z</time></trkpt>
			<trkpt lat="56.223480" lon="42.962830"><ele>83.1</ele><time>2025-11-30T06:43:30Z</time></trkpt>
			<trkpt lat="56.223420" lon="42.962900"><ele>82.9</ele><time>2025-11-30T06:44:13Z</time></trkpt>
		</trkseg>
	</trk>
</gpx>