<?xml version="1.0" encoding="UTF-8"?>
<gpx xmlns="http://www.topografix.com/GPX/1/1" version="1.1" creator="http://nakarte.tk">
	<metadata>
		<author></author>
	</metadata>
	<wpt lat="55.842286" lon="39.455168">
		<name>На Круглец. Поворот 1</name>
	</wpt>
	<wpt lat="55.84072" lon="39.457271">
		<name>На Круглец. Поворот 2</name>
	</wpt>
	<wpt lat="55.84278" lon="39.463">
		<name>К заброшенной в/ч</name>
	</wpt>
	<wpt lat="55.839475" lon="39.471347">
		<name>Стоянка с навесом</name>
	</wpt>
	<wpt lat="55.837973" lon="39.457185">
		<name>Поворот на Оленье</name>
	</wpt>
	<trk>
		<name>Петушки-озераВОтчет</name>
		<trkseg>
			<trkpt lat="55.925156" lon="39.462872">
				<ele>124</ele>
			</trkpt>
			<trkpt lat="55.925027" lon="39.464524">
				<ele>124.41600000000003</ele>
			</trkpt>
			<trkpt lat="55.924405" lon="39.464524">
				<ele>124.56800000000001</ele>
			</trkpt>
			<trkpt lat="55.924276" lon="39.464138">
				<ele>124.07200000000003</ele>
			</trkpt>
			<trkpt lat="55.924018" lon="39.46403">
				<ele>123.59200000000001</ele>
			</trkpt>
			<trkpt lat="55.92301" lon="39.465253">
				<ele>123.04000000000002</ele>
			</trkpt>
			<trkpt lat="55.922688" lon="39.465425">
				<ele>123.08800000000001</ele>
			</trkpt>
			<trkpt lat="55.920392" lon="39.464459">
				<ele>123.13600000000001</ele>
			</trkpt>
			<trkpt lat="55.919577" lon="39.464352">
				<ele>123.42400000000004</ele>
			</trkpt>
			<trkpt lat="55.917839" lon="39.463665">
				<ele>123.16800000000003</ele>
			</trkpt>
			<trkpt lat="55.917388" lon="39.463794">
				<ele>122.84800000000003</ele>
			</trkpt>
			<trkpt lat="55.917366" lon="39.464331">
				<ele>121.59200000000003</ele>
			</trkpt>
			<trkpt lat="55.91698" lon="39.463816">
				<ele>119.92000000000002</ele>
			</trkpt>
			<trkpt lat="55.915864" lon="39.464116">
				<ele>117.17600000000002</ele>
			</trkpt>
			<trkpt lat="55.914985" lon="39.464631">
				<ele>114.352</ele>
			</trkpt>
			<trkpt lat="55.913139" lon="39.466712">
				<ele>111.69600000000001</ele>
			</trkpt>
			<trkpt lat="55.910264" lon="39.467957">
				<ele>109.72800000000002</ele>
			</trkpt>
			<trkpt lat="55.908633" lon="39.469824">
				<ele>108.66400000000003</ele>
			</trkpt>
			<trkpt lat="55.907882" lon="39.47006">
				<ele>107.98400000000004</ele>
			</trkpt>
			<trkpt lat="55.905608" lon="39.469717">
				<ele>107.98400000000004</ele>
			</trkpt>
			<trkpt lat="55.904943" lon="39.469223">
				<ele>108.15200000000004</ele>
			</trkpt>
			<trkpt lat="55.903784" lon="39.467506">
				<ele>108.80000000000004</ele>
			</trkpt>
			<trkpt lat="55.903183" lon="39.465983">
				<ele>109.30400000000002</ele>
			</trkpt>
			<trkpt lat="55.902475" lon="39.465747">
				<ele>109.92</ele>
			</trkpt>
			<trkpt lat="55.902368" lon="39.465833">
				<ele>110.12800000000001</ele>
			</trkpt>
			<trkpt lat="55.901831" lon="39.465232">
				<ele>110.27200000000002</ele>
			</trkpt>
			<trkpt lat="55.901531" lon="39.464009">
				<ele>110.12000000000002</ele>
			</trkpt>
			<trkpt lat="55.90093" lon="39.463344">
				<ele>109.64000000000003</ele>
			</trkpt>
			<trkpt lat="55.900265" lon="39.462271">
				<ele>109.58400000000003</ele>
			</trkpt>
			<trkpt lat="55.900179" lon="39.462399">
				<ele>109.60000000000002</ele>
			</trkpt>
			<trkpt lat="55.900222" lon="39.462292">
				<ele>111.05600000000001</ele>
			</trkpt>
			<trkpt lat="55.898462" lon="39.461176">
				<ele>112.36000000000001</ele>
			</trkpt>
			<trkpt lat="55.89754" lon="39.460876">
				<ele>114.28000000000002</ele>
			</trkpt>
			<trkpt lat="55.895587" lon="39.45785">
				<ele>115.08800000000002</ele>
			</trkpt>
			<trkpt lat="55.895287" lon="39.457593">
				<ele>115.68000000000002</ele>
			</trkpt>
			<trkpt lat="55.895415" lon="39.457679">
				<ele>115.53600000000003</ele>
			</trkpt>
			<trkpt lat="55.895351" lon="39.457421">
				<ele>115.4</ele>
			</trkpt>
			<trkpt lat="55.895179" lon="39.457378">
				<ele>115.03200000000001</ele>
			</trkpt>
			<trkpt lat="55.895136" lon="39.457486">
				<ele>115.19200000000001</ele>
			</trkpt>
			<trkpt lat="55.895179" lon="39.457078">
				<ele>115.38400000000001</ele>
			</trkpt>
			<trkpt lat="55.893849" lon="39.457121">
				<ele>116.888</ele>
			</trkpt>
			<trkpt lat="55.892368" lon="39.457507">
				<ele>117.92</ele>
			</trkpt>
			<trkpt lat="55.889815" lon="39.459739">
				<ele>119.48</ele>
			</trkpt>
			<trkpt lat="55.888892" lon="39.460232">
				<ele>119.27200000000002</ele>
			</trkpt>
			<trkpt lat="55.886296" lon="39.460082">
				<ele>118.81600000000003</ele>
			</trkpt>
			<trkpt lat="55.883935" lon="39.459782">
				<ele>117.28000000000003</ele>
			</trkpt>
			<trkpt lat="55.883699" lon="39.459631">
				<ele>116.09600000000002</ele>
			</trkpt>
			<trkpt lat="55.883528" lon="39.45976">
				<ele>114.76800000000003</ele>
			</trkpt>
			<trkpt lat="55.881318" lon="39.459782">
				<ele>113.80000000000003</ele>
			</trkpt>
			<trkpt lat="55.878378" lon="39.45961">
				<ele>112.94400000000003</ele>
			</trkpt>
			<trkpt lat="55.87782" lon="39.460318">
				<ele>112.64000000000001</ele>
			</trkpt>
			<trkpt lat="55.87782" lon="39.460168">
				<ele>112.72000000000003</ele>
			</trkpt>
			<trkpt lat="55.877691" lon="39.460854">
				<ele>113.49600000000002</ele>
			</trkpt>
			<trkpt lat="55.877133" lon="39.467699">
				<ele>114.40800000000002</ele>
			</trkpt>
			<trkpt lat="55.876726" lon="39.468493">
				<ele>115.87200000000001</ele>
			</trkpt>
			<trkpt lat="55.876125" lon="39.469137">
				<ele>117.07200000000003</ele>
			</trkpt>
			<trkpt lat="55.875739" lon="39.468901">
				<ele>118.28800000000004</ele>
			</trkpt>
			<trkpt lat="55.874988" lon="39.467742">
				<ele>119.11200000000002</ele>
			</trkpt>
			<trkpt lat="55.874473" lon="39.467657">
				<ele>119.75200000000002</ele>
			</trkpt>
			<trkpt lat="55.873571" lon="39.46712">
				<ele>120.46400000000003</ele>
			</trkpt>
			<trkpt lat="55.872069" lon="39.468257">
				<ele>121.04000000000002</ele>
			</trkpt>
			<trkpt lat="55.871833" lon="39.468172">
				<ele>121.61600000000001</ele>
			</trkpt>
			<trkpt lat="55.871447" lon="39.468257">
				<ele>121.61600000000001</ele>
			</trkpt>
			<trkpt lat="55.871104" lon="39.468579">
				<ele>121.168</ele>
			</trkpt>
			<trkpt lat="55.870911" lon="39.468644">
				<ele>119.92000000000002</ele>
			</trkpt>
			<trkpt lat="55.870546" lon="39.468644">
				<ele>118.46400000000001</ele>
			</trkpt>
			<trkpt lat="55.869494" lon="39.46815">
				<ele>117.00000000000001</ele>
			</trkpt>
			<trkpt lat="55.869494" lon="39.468021">
				<ele>116.45600000000002</ele>
			</trkpt>
			<trkpt lat="55.869044" lon="39.467914">
				<ele>116.84800000000003</ele>
			</trkpt>
			<trkpt lat="55.868851" lon="39.467614">
				<ele>118.41600000000004</ele>
			</trkpt>
			<trkpt lat="55.868014" lon="39.467785">
				<ele>120.37600000000002</ele>
			</trkpt>
			<trkpt lat="55.867241" lon="39.468365">
				<ele>122.13600000000002</ele>
			</trkpt>
			<trkpt lat="55.865825" lon="39.470596">
				<ele>123.28000000000002</ele>
			</trkpt>
			<trkpt lat="55.865096" lon="39.470532">
				<ele>123.31200000000001</ele>
			</trkpt>
			<trkpt lat="55.864409" lon="39.472806">
				<ele>122.792</ele>
			</trkpt>
			<trkpt lat="55.864323" lon="39.472678">
				<ele>121.41600000000001</ele>
			</trkpt>
			<trkpt lat="55.86383" lon="39.473107">
				<ele>119.90400000000001</ele>
			</trkpt>
			<trkpt lat="55.862435" lon="39.475274">
				<ele>118.34400000000001</ele>
			</trkpt>
			<trkpt lat="55.861383" lon="39.475746">
				<ele>117.23200000000003</ele>
			</trkpt>
			<trkpt lat="55.860954" lon="39.475682">
				<ele>116.81600000000003</ele>
			</trkpt>
			<trkpt lat="55.860804" lon="39.47581">
				<ele>116.88800000000003</ele>
			</trkpt>
			<trkpt lat="55.860547" lon="39.47566">
				<ele>117.40000000000002</ele>
			</trkpt>
			<trkpt lat="55.860053" lon="39.476304">
				<ele>118.00000000000003</ele>
			</trkpt>
			<trkpt lat="55.859667" lon="39.476068">
				<ele>118.60000000000001</ele>
			</trkpt>
			<trkpt lat="55.859366" lon="39.475167">
				<ele>119.17600000000002</ele>
			</trkpt>
			<trkpt lat="55.859474" lon="39.474652">
				<ele>119.53600000000002</ele>
			</trkpt>
			<trkpt lat="55.859517" lon="39.474802">
				<ele>119.584</ele>
			</trkpt>
			<trkpt lat="55.859602" lon="39.474716">
				<ele>119.168</ele>
			</trkpt>
			<trkpt lat="55.859602" lon="39.474373">
				<ele>118.08000000000001</ele>
			</trkpt>
			<trkpt lat="55.859216" lon="39.472806">
				<ele>116.48000000000002</ele>
			</trkpt>
			<trkpt lat="55.858551" lon="39.473515">
				<ele>114.64000000000001</ele>
			</trkpt>
			<trkpt lat="55.858379" lon="39.473429">
				<ele>112.57600000000002</ele>
			</trkpt>
			<trkpt lat="55.858208" lon="39.472635">
				<ele>111.12800000000001</ele>
			</trkpt>
			<trkpt lat="55.858165" lon="39.472764">
				<ele>109.80000000000001</ele>
			</trkpt>
			<trkpt lat="55.857671" lon="39.472978">
				<ele>109.32000000000002</ele>
			</trkpt>
			<trkpt lat="55.857779" lon="39.472935">
				<ele>108.936</ele>
			</trkpt>
			<trkpt lat="55.857478" lon="39.472978">
				<ele>109.096</ele>
			</trkpt>
			<trkpt lat="55.857156" lon="39.472527">
				<ele>109.24000000000001</ele>
			</trkpt>
			<trkpt lat="55.856684" lon="39.472377">
				<ele>109.87200000000001</ele>
			</trkpt>
			<trkpt lat="55.85662" lon="39.47242">
				<ele>110.68800000000002</ele>
			</trkpt>
			<trkpt lat="55.856577" lon="39.472034">
				<ele>111.87200000000001</ele>
			</trkpt>
			<trkpt lat="55.85559" lon="39.469738">
				<ele>113.60000000000002</ele>
			</trkpt>
			<trkpt lat="55.854496" lon="39.468429">
				<ele>115.48000000000002</ele>
			</trkpt>
			<trkpt lat="55.853938" lon="39.467506">
				<ele>117.28800000000003</ele>
			</trkpt>
			<trkpt lat="55.853637" lon="39.466412">
				<ele>118.76800000000003</ele>
			</trkpt>
			<trkpt lat="55.853551" lon="39.464867">
				<ele>119.12800000000003</ele>
			</trkpt>
			<trkpt lat="55.852779" lon="39.462442">
				<ele>119.12000000000003</ele>
			</trkpt>
			<trkpt lat="55.852521" lon="39.460897">
				<ele>118.96800000000002</ele>
			</trkpt>
			<trkpt lat="55.852092" lon="39.460361">
				<ele>118.34400000000002</ele>
			</trkpt>
			<trkpt lat="55.851942" lon="39.457121">
				<ele>119.04800000000003</ele>
			</trkpt>
			<trkpt lat="55.852414" lon="39.454653">
				<ele>118.46400000000003</ele>
			</trkpt>
			<trkpt lat="55.852114" lon="39.453108">
				<ele>119.26400000000001</ele>
			</trkpt>
			<trkpt lat="55.852028" lon="39.45137">
				<ele>119.176</ele>
			</trkpt>
			<trkpt lat="55.851942" lon="39.451027">
				<ele>120.056</ele>
			</trkpt>
			<trkpt lat="55.851727" lon="39.450855">
				<ele>121.208</ele>
			</trkpt>
			<trkpt lat="55.851491" lon="39.450555">
				<ele>121.96000000000001</ele>
			</trkpt>
			<trkpt lat="55.851127" lon="39.450555">
				<ele>122.05600000000001</ele>
			</trkpt>
			<trkpt lat="55.849989" lon="39.449224">
				<ele>120.584</ele>
			</trkpt>
			<trkpt lat="55.849432" lon="39.449053">
				<ele>118.62400000000002</ele>
			</trkpt>
			<trkpt lat="55.848809" lon="39.449117">
				<ele>117.28000000000003</ele>
			</trkpt>
			<trkpt lat="55.847801" lon="39.447551">
				<ele>117.29600000000002</ele>
			</trkpt>
			<trkpt lat="55.8472" lon="39.44695">
				<ele>118.83200000000002</ele>
			</trkpt>
			<trkpt lat="55.84602" lon="39.446456">
				<ele>120.50400000000002</ele>
			</trkpt>
			<trkpt lat="55.845719" lon="39.446671">
				<ele>122.01600000000002</ele>
			</trkpt>
			<trkpt lat="55.84529" lon="39.447679">
				<ele>122.36800000000002</ele>
			</trkpt>
			<trkpt lat="55.844711" lon="39.448495">
				<ele>122.48000000000002</ele>
			</trkpt>
			<trkpt lat="55.844754" lon="39.448538">
				<ele>122.09600000000002</ele>
			</trkpt>
			<trkpt lat="55.844561" lon="39.448774">
				<ele>121.88800000000003</ele>
			</trkpt>
			<trkpt lat="55.843402" lon="39.451027">
				<ele>121.92800000000003</ele>
			</trkpt>
			<trkpt lat="55.843187" lon="39.453859">
				<ele>122.01600000000003</ele>
			</trkpt>
			<trkpt lat="55.842801" lon="39.454138">
				<ele>122.28800000000003</ele>
			</trkpt>
			<trkpt lat="55.842522" lon="39.454288">
				<ele>122.28800000000003</ele>
			</trkpt>
			<trkpt lat="55.842136" lon="39.455318">
				<ele>121.57600000000002</ele>
			</trkpt>
			<trkpt lat="55.841449" lon="39.456542">
				<ele>120.87200000000003</ele>
			</trkpt>
			<trkpt lat="55.841042" lon="39.457078">
				<ele>119.04000000000002</ele>
			</trkpt>
			<trkpt lat="55.840655" lon="39.457164">
				<ele>118.01600000000002</ele>
			</trkpt>
			<trkpt lat="55.840097" lon="39.457099">
				<ele>116.36800000000002</ele>
			</trkpt>
			<trkpt lat="55.839046" lon="39.457293">
				<ele>116.04000000000002</ele>
			</trkpt>
			<trkpt lat="55.838359" lon="39.457486">
				<ele>115.73600000000002</ele>
			</trkpt>
			<trkpt lat="55.837995" lon="39.457293">
				<ele>116.50400000000002</ele>
			</trkpt>
			<trkpt lat="55.83705" lon="39.457808">
				<ele>116.87200000000001</ele>
			</trkpt>
			<trkpt lat="55.8366" lon="39.45843">
				<ele>117.50400000000002</ele>
			</trkpt>
			<trkpt lat="55.836342" lon="39.459631">
				<ele>117.26400000000004</ele>
			</trkpt>
			<trkpt lat="55.835248" lon="39.460533">
				<ele>117.90400000000004</ele>
			</trkpt>
			<trkpt lat="55.834819" lon="39.460404">
				<ele>118.26400000000004</ele>
			</trkpt>
			<trkpt lat="55.834454" lon="39.460661">
				<ele>120.00800000000004</ele>
			</trkpt>
			<trkpt lat="55.833467" lon="39.464288">
				<ele>120.53600000000003</ele>
			</trkpt>
			<trkpt lat="55.83278" lon="39.465361">
				<ele>120.93600000000002</ele>
			</trkpt>
			<trkpt lat="55.832351" lon="39.466391">
				<ele>119.71200000000002</ele>
			</trkpt>
			<trkpt lat="55.831922" lon="39.466412">
				<ele>118.46400000000003</ele>
			</trkpt>
			<trkpt lat="55.831471" lon="39.466155">
				<ele>117.24000000000004</ele>
			</trkpt>
			<trkpt lat="55.83115" lon="39.465704">
				<ele>116.76000000000005</ele>
			</trkpt>
			<trkpt lat="55.830699" lon="39.465575">
				<ele>116.58400000000003</ele>
			</trkpt>
			<trkpt lat="55.830463" lon="39.465618">
				<ele>117.19200000000004</ele>
			</trkpt>
			<trkpt lat="55.830141" lon="39.46579">
				<ele>117.83200000000002</ele>
			</trkpt>
			<trkpt lat="55.829926" lon="39.466648">
				<ele>119.20800000000003</ele>
			</trkpt>
			<trkpt lat="55.830098" lon="39.467699">
				<ele>120.31200000000003</ele>
			</trkpt>
			<trkpt lat="55.830012" lon="39.468064">
				<ele>121.32000000000002</ele>
			</trkpt>
			<trkpt lat="55.829605" lon="39.468944">
				<ele>122.01600000000002</ele>
			</trkpt>
			<trkpt lat="55.829605" lon="39.46948">
				<ele>122.28000000000003</ele>
			</trkpt>
			<trkpt lat="55.829884" lon="39.470468">
				<ele>122.64800000000002</ele>
			</trkpt>
			<trkpt lat="55.829926" lon="39.470983">
				<ele>122.71200000000003</ele>
			</trkpt>
			<trkpt lat="55.829884" lon="39.471519">
				<ele>122.76000000000003</ele>
			</trkpt>
			<trkpt lat="55.82969" lon="39.471905">
				<ele>122.92800000000003</ele>
			</trkpt>
			<trkpt lat="55.829497" lon="39.472742">
				<ele>123.08000000000003</ele>
			</trkpt>
			<trkpt lat="55.829497" lon="39.473236">
				<ele>123.57600000000002</ele>
			</trkpt>
			<trkpt lat="55.829626" lon="39.473772">
				<ele>123.62400000000002</ele>
			</trkpt>
			<trkpt lat="55.829884" lon="39.474502">
				<ele>123.40000000000002</ele>
			</trkpt>
			<trkpt lat="55.829862" lon="39.475446">
				<ele>122.40800000000002</ele>
			</trkpt>
			<trkpt lat="55.829733" lon="39.476004">
				<ele>121.55200000000002</ele>
			</trkpt>
			<trkpt lat="55.829519" lon="39.476454">
				<ele>120.62400000000001</ele>
			</trkpt>
			<trkpt lat="55.828832" lon="39.477012">
				<ele>120.56800000000001</ele>
			</trkpt>
			<trkpt lat="55.828424" lon="39.478021">
				<ele>120.33600000000001</ele>
			</trkpt>
			<trkpt lat="55.828339" lon="39.478664">
				<ele>120.29600000000002</ele>
			</trkpt>
			<trkpt lat="55.827845" lon="39.47948">
				<ele>119.45600000000002</ele>
			</trkpt>
			<trkpt lat="55.827223" lon="39.479995">
				<ele>118.152</ele>
			</trkpt>
			<trkpt lat="55.82718" lon="39.48066">
				<ele>116.21600000000001</ele>
			</trkpt>
			<trkpt lat="55.826493" lon="39.481389">
				<ele>114</ele>
			</trkpt>
		</trkseg>
	</trk>
</gpx>