<?xml version="1.0" encoding="UTF-8"?>
<gpx xmlns="http://www.topografix.com/GPX/1/1" version="1.1" creator="http://nakarte.tk">
	<metadata>
		<author></author>
	</metadata>
	<wpt lat="58.205656" lon="38.610423">
		<name>место привала со столиком</name>
	</wpt>
	<wpt lat="58.170701" lon="38.657329">
		<name>Старт</name>
	</wpt>
	<wpt lat="58.232542" lon="38.583772">
		<name>Рожновский мыс</name>
	</wpt>
	<trk>
		<name>Рожновский мыс</name>
		<trkseg>
			<trkpt lat="58.17068" lon="38.657329">
				<ele>121</ele>
			</trkpt>
			<trkpt lat="58.170916" lon="38.65735">
				<ele>120.05600000000003</ele>
			</trkpt>
			<trkpt lat="58.171109" lon="38.656943">
				<ele>119.28800000000003</ele>
			</trkpt>
			<trkpt lat="58.171624" lon="38.656363">
				<ele>118.85600000000002</ele>
			</trkpt>
			<trkpt lat="58.171731" lon="38.656192">
				<ele>118.72000000000003</ele>
			</trkpt>
			<trkpt lat="58.171881" lon="38.655848">
				<ele>118.96000000000001</ele>
			</trkpt>
			<trkpt lat="58.172139" lon="38.655226">
				<ele>119.26400000000001</ele>
			</trkpt>
			<trkpt lat="58.172246" lon="38.655054">
				<ele>119.48800000000001</ele>
			</trkpt>
			<trkpt lat="58.172375" lon="38.654926">
				<ele>119.52000000000001</ele>
			</trkpt>
			<trkpt lat="58.172439" lon="38.654582">
				<ele>119.12000000000002</ele>
			</trkpt>
			<trkpt lat="58.172568" lon="38.654346">
				<ele>119.00000000000001</ele>
			</trkpt>
			<trkpt lat="58.172697" lon="38.653939">
				<ele>118.74400000000003</ele>
			</trkpt>
			<trkpt lat="58.172954" lon="38.653531">
				<ele>118.84</ele>
			</trkpt>
			<trkpt lat="58.173147" lon="38.653445">
				<ele>119.11200000000002</ele>
			</trkpt>
			<trkpt lat="58.173298" lon="38.653316">
				<ele>119.13600000000002</ele>
			</trkpt>
			<trkpt lat="58.173619" lon="38.652995">
				<ele>119.88000000000002</ele>
			</trkpt>
			<trkpt lat="58.173791" lon="38.652329">
				<ele>120.08000000000001</ele>
			</trkpt>
			<trkpt lat="58.17422" lon="38.652158">
				<ele>120.95200000000003</ele>
			</trkpt>
			<trkpt lat="58.174671" lon="38.652029">
				<ele>121.24000000000001</ele>
			</trkpt>
			<trkpt lat="58.1751" lon="38.652093">
				<ele>121.72800000000002</ele>
			</trkpt>
			<trkpt lat="58.175551" lon="38.652007">
				<ele>121.936</ele>
			</trkpt>
			<trkpt lat="58.175679" lon="38.6519">
				<ele>122.17600000000002</ele>
			</trkpt>
			<trkpt lat="58.176066" lon="38.651793">
				<ele>122.26400000000002</ele>
			</trkpt>
			<trkpt lat="58.176237" lon="38.651621">
				<ele>122.40000000000003</ele>
			</trkpt>
			<trkpt lat="58.176452" lon="38.65145">
				<ele>122.49600000000004</ele>
			</trkpt>
			<trkpt lat="58.17701" lon="38.651171">
				<ele>122.53600000000003</ele>
			</trkpt>
			<trkpt lat="58.177181" lon="38.650978">
				<ele>122.52000000000004</ele>
			</trkpt>
			<trkpt lat="58.177332" lon="38.650956">
				<ele>122.13600000000002</ele>
			</trkpt>
			<trkpt lat="58.177782" lon="38.650699">
				<ele>121.73600000000003</ele>
			</trkpt>
			<trkpt lat="58.178168" lon="38.650591">
				<ele>121.16000000000001</ele>
			</trkpt>
			<trkpt lat="58.178297" lon="38.650505">
				<ele>120.72800000000004</ele>
			</trkpt>
			<trkpt lat="58.178469" lon="38.650463">
				<ele>120.46400000000001</ele>
			</trkpt>
			<trkpt lat="58.178683" lon="38.650227">
				<ele>120.12800000000001</ele>
			</trkpt>
			<trkpt lat="58.178919" lon="38.650119">
				<ele>119.98400000000001</ele>
			</trkpt>
			<trkpt lat="58.179027" lon="38.649926">
				<ele>119.40000000000002</ele>
			</trkpt>
			<trkpt lat="58.179198" lon="38.649754">
				<ele>119.16800000000002</ele>
			</trkpt>
			<trkpt lat="58.179349" lon="38.649669">
				<ele>118.73600000000002</ele>
			</trkpt>
			<trkpt lat="58.17967" lon="38.649368">
				<ele>118.92800000000003</ele>
			</trkpt>
			<trkpt lat="58.179778" lon="38.649111">
				<ele>119.04000000000002</ele>
			</trkpt>
			<trkpt lat="58.179906" lon="38.648961">
				<ele>119.34400000000001</ele>
			</trkpt>
			<trkpt lat="58.180078" lon="38.648574">
				<ele>119.43200000000002</ele>
			</trkpt>
			<trkpt lat="58.180271" lon="38.648403">
				<ele>119.56</ele>
			</trkpt>
			<trkpt lat="58.1804" lon="38.648231">
				<ele>119.66400000000002</ele>
			</trkpt>
			<trkpt lat="58.18055" lon="38.647973">
				<ele>119.84</ele>
			</trkpt>
			<trkpt lat="58.180765" lon="38.647909">
				<ele>119.87200000000001</ele>
			</trkpt>
			<trkpt lat="58.180915" lon="38.647802">
				<ele>119.84</ele>
			</trkpt>
			<trkpt lat="58.18113" lon="38.647544">
				<ele>119.60000000000002</ele>
			</trkpt>
			<trkpt lat="58.181344" lon="38.647437">
				<ele>119.4</ele>
			</trkpt>
			<trkpt lat="58.181537" lon="38.647222">
				<ele>119.16</ele>
			</trkpt>
			<trkpt lat="58.181666" lon="38.647115">
				<ele>119.12800000000001</ele>
			</trkpt>
			<trkpt lat="58.181881" lon="38.646729">
				<ele>119.16000000000001</ele>
			</trkpt>
			<trkpt lat="58.182095" lon="38.6466">
				<ele>119.40000000000003</ele>
			</trkpt>
			<trkpt lat="58.182567" lon="38.6466">
				<ele>119.60000000000002</ele>
			</trkpt>
			<trkpt lat="58.182739" lon="38.646579">
				<ele>119.84</ele>
			</trkpt>
			<trkpt lat="58.182889" lon="38.646493">
				<ele>119.936</ele>
			</trkpt>
			<trkpt lat="58.183254" lon="38.646471">
				<ele>120</ele>
			</trkpt>
			<trkpt lat="58.183576" lon="38.646557">
				<ele>120.12800000000001</ele>
			</trkpt>
			<trkpt lat="58.183812" lon="38.646493">
				<ele>120.32000000000002</ele>
			</trkpt>
			<trkpt lat="58.183962" lon="38.6466">
				<ele>120.80000000000003</ele>
			</trkpt>
			<trkpt lat="58.184241" lon="38.646536">
				<ele>121.20000000000002</ele>
			</trkpt>
			<trkpt lat="58.184541" lon="38.6466">
				<ele>121.61600000000001</ele>
			</trkpt>
			<trkpt lat="58.184692" lon="38.646707">
				<ele>121.71200000000002</ele>
			</trkpt>
			<trkpt lat="58.184885" lon="38.646729">
				<ele>121.60000000000002</ele>
			</trkpt>
			<trkpt lat="58.185164" lon="38.646536">
				<ele>121.144</ele>
			</trkpt>
			<trkpt lat="58.185593" lon="38.646343">
				<ele>120.52000000000002</ele>
			</trkpt>
			<trkpt lat="58.185786" lon="38.6463">
				<ele>119.46400000000003</ele>
			</trkpt>
			<trkpt lat="58.186065" lon="38.646021">
				<ele>118.72800000000002</ele>
			</trkpt>
			<trkpt lat="58.186215" lon="38.645978">
				<ele>117.96000000000004</ele>
			</trkpt>
			<trkpt lat="58.186387" lon="38.645978">
				<ele>118.05600000000003</ele>
			</trkpt>
			<trkpt lat="58.186537" lon="38.645806">
				<ele>118.20000000000002</ele>
			</trkpt>
			<trkpt lat="58.186709" lon="38.645828">
				<ele>118.36000000000001</ele>
			</trkpt>
			<trkpt lat="58.187159" lon="38.645635">
				<ele>118.07200000000002</ele>
			</trkpt>
			<trkpt lat="58.18746" lon="38.645463">
				<ele>116.87200000000001</ele>
			</trkpt>
			<trkpt lat="58.187674" lon="38.64542">
				<ele>115.68</ele>
			</trkpt>
			<trkpt lat="58.187975" lon="38.645291">
				<ele>114.00000000000001</ele>
			</trkpt>
			<trkpt lat="58.188575" lon="38.644969">
				<ele>113.12000000000002</ele>
			</trkpt>
			<trkpt lat="58.188747" lon="38.644991">
				<ele>112.32000000000002</ele>
			</trkpt>
			<trkpt lat="58.188769" lon="38.644712">
				<ele>112.06400000000002</ele>
			</trkpt>
			<trkpt lat="58.188854" lon="38.644454">
				<ele>111.84</ele>
			</trkpt>
			<trkpt lat="58.189026" lon="38.644283">
				<ele>111.60000000000002</ele>
			</trkpt>
			<trkpt lat="58.189198" lon="38.643768">
				<ele>111.4</ele>
			</trkpt>
			<trkpt lat="58.189284" lon="38.643339">
				<ele>111.16000000000003</ele>
			</trkpt>
			<trkpt lat="58.189241" lon="38.642008">
				<ele>111.06400000000002</ele>
			</trkpt>
			<trkpt lat="58.189412" lon="38.641901">
				<ele>110.93600000000002</ele>
			</trkpt>
			<trkpt lat="58.18952" lon="38.641708">
				<ele>110.84000000000002</ele>
			</trkpt>
			<trkpt lat="58.189756" lon="38.641407">
				<ele>110.60000000000002</ele>
			</trkpt>
			<trkpt lat="58.189798" lon="38.640807">
				<ele>110.4</ele>
			</trkpt>
			<trkpt lat="58.189734" lon="38.640485">
				<ele>110.22400000000002</ele>
			</trkpt>
			<trkpt lat="58.189348" lon="38.639734">
				<ele>110.22400000000002</ele>
			</trkpt>
			<trkpt lat="58.189219" lon="38.639347">
				<ele>110.4</ele>
			</trkpt>
			<trkpt lat="58.189112" lon="38.63909">
				<ele>110.60000000000002</ele>
			</trkpt>
			<trkpt lat="58.188854" lon="38.638296">
				<ele>111.22400000000002</ele>
			</trkpt>
			<trkpt lat="58.188854" lon="38.637867">
				<ele>112.02400000000002</ele>
			</trkpt>
			<trkpt lat="58.18864" lon="38.637159">
				<ele>113.72000000000003</ele>
			</trkpt>
			<trkpt lat="58.188125" lon="38.636472">
				<ele>115.40000000000002</ele>
			</trkpt>
			<trkpt lat="58.18791" lon="38.635764">
				<ele>117.11200000000002</ele>
			</trkpt>
			<trkpt lat="58.187803" lon="38.635399">
				<ele>117.97600000000001</ele>
			</trkpt>
			<trkpt lat="58.187803" lon="38.635077">
				<ele>118.07200000000003</ele>
			</trkpt>
			<trkpt lat="58.187674" lon="38.634841">
				<ele>117.86400000000003</ele>
			</trkpt>
			<trkpt lat="58.187588" lon="38.634455">
				<ele>117.48000000000002</ele>
			</trkpt>
			<trkpt lat="58.187417" lon="38.634348">
				<ele>117.72000000000003</ele>
			</trkpt>
			<trkpt lat="58.187438" lon="38.633983">
				<ele>118.08000000000001</ele>
			</trkpt>
			<trkpt lat="58.187331" lon="38.633447">
				<ele>119.04000000000002</ele>
			</trkpt>
			<trkpt lat="58.187202" lon="38.633103">
				<ele>119.67200000000003</ele>
			</trkpt>
			<trkpt lat="58.187009" lon="38.632932">
				<ele>120.23200000000003</ele>
			</trkpt>
			<trkpt lat="58.186816" lon="38.632524">
				<ele>120.08800000000002</ele>
			</trkpt>
			<trkpt lat="58.186494" lon="38.631773">
				<ele>119.53600000000003</ele>
			</trkpt>
			<trkpt lat="58.186344" lon="38.631151">
				<ele>118.80000000000001</ele>
			</trkpt>
			<trkpt lat="58.186194" lon="38.630872">
				<ele>118.04800000000003</ele>
			</trkpt>
			<trkpt lat="58.186086" lon="38.630528">
				<ele>117.68800000000002</ele>
			</trkpt>
			<trkpt lat="58.185872" lon="38.630357">
				<ele>117.62400000000002</ele>
			</trkpt>
			<trkpt lat="58.185614" lon="38.630249">
				<ele>117.82400000000003</ele>
			</trkpt>
			<trkpt lat="58.185485" lon="38.630013">
				<ele>118.17600000000004</ele>
			</trkpt>
			<trkpt lat="58.185357" lon="38.62982">
				<ele>118.37600000000003</ele>
			</trkpt>
			<trkpt lat="58.185121" lon="38.629692">
				<ele>118.44000000000003</ele>
			</trkpt>
			<trkpt lat="58.184971" lon="38.629734">
				<ele>118.33600000000003</ele>
			</trkpt>
			<trkpt lat="58.184734" lon="38.629627">
				<ele>118.03200000000001</ele>
			</trkpt>
			<trkpt lat="58.184305" lon="38.629005">
				<ele>117.74400000000003</ele>
			</trkpt>
			<trkpt lat="58.184177" lon="38.628619">
				<ele>117.20000000000002</ele>
			</trkpt>
			<trkpt lat="58.183983" lon="38.628318">
				<ele>116.67200000000003</ele>
			</trkpt>
			<trkpt lat="58.183941" lon="38.627846">
				<ele>116.00000000000001</ele>
			</trkpt>
			<trkpt lat="58.183855" lon="38.62761">
				<ele>115.45600000000002</ele>
			</trkpt>
			<trkpt lat="58.184069" lon="38.627331">
				<ele>114.99200000000002</ele>
			</trkpt>
			<trkpt lat="58.184155" lon="38.627095">
				<ele>114.80000000000004</ele>
			</trkpt>
			<trkpt lat="58.184391" lon="38.626838">
				<ele>114.52800000000002</ele>
			</trkpt>
			<trkpt lat="58.18452" lon="38.626559">
				<ele>114.54400000000001</ele>
			</trkpt>
			<trkpt lat="58.184649" lon="38.626301">
				<ele>114.22400000000002</ele>
			</trkpt>
			<trkpt lat="58.18482" lon="38.626087">
				<ele>114.20800000000003</ele>
			</trkpt>
			<trkpt lat="58.185013" lon="38.626022">
				<ele>113.80000000000003</ele>
			</trkpt>
			<trkpt lat="58.185164" lon="38.625829">
				<ele>113.64000000000001</ele>
			</trkpt>
			<trkpt lat="58.1854" lon="38.625636">
				<ele>113.38400000000001</ele>
			</trkpt>
			<trkpt lat="58.185614" lon="38.6251">
				<ele>113.32000000000002</ele>
			</trkpt>
			<trkpt lat="58.185722" lon="38.624928">
				<ele>113.48000000000003</ele>
			</trkpt>
			<trkpt lat="58.185915" lon="38.62422">
				<ele>113.40000000000003</ele>
			</trkpt>
			<trkpt lat="58.186237" lon="38.623705">
				<ele>113.35200000000003</ele>
			</trkpt>
			<trkpt lat="58.186408" lon="38.623576">
				<ele>112.87200000000001</ele>
			</trkpt>
			<trkpt lat="58.18658" lon="38.62349">
				<ele>112.32800000000002</ele>
			</trkpt>
			<trkpt lat="58.186945" lon="38.622997">
				<ele>111.80000000000004</ele>
			</trkpt>
			<trkpt lat="58.187138" lon="38.622997">
				<ele>111.32000000000002</ele>
			</trkpt>
			<trkpt lat="58.187352" lon="38.623125">
				<ele>111.12800000000001</ele>
			</trkpt>
			<trkpt lat="58.187266" lon="38.622889">
				<ele>111.06400000000002</ele>
			</trkpt>
			<trkpt lat="58.18746" lon="38.622439">
				<ele>111.03200000000001</ele>
			</trkpt>
			<trkpt lat="58.18746" lon="38.62201">
				<ele>111.08000000000001</ele>
			</trkpt>
			<trkpt lat="58.187717" lon="38.621859">
				<ele>110.92800000000003</ele>
			</trkpt>
			<trkpt lat="58.18791" lon="38.621645">
				<ele>110.96000000000002</ele>
			</trkpt>
			<trkpt lat="58.188189" lon="38.621452">
				<ele>111.05600000000004</ele>
			</trkpt>
			<trkpt lat="58.188575" lon="38.620701">
				<ele>111.32800000000003</ele>
			</trkpt>
			<trkpt lat="58.188726" lon="38.620529">
				<ele>111.87200000000001</ele>
			</trkpt>
			<trkpt lat="58.188897" lon="38.620293">
				<ele>112.352</ele>
			</trkpt>
			<trkpt lat="58.188983" lon="38.620057">
				<ele>113.13600000000001</ele>
			</trkpt>
			<trkpt lat="58.189241" lon="38.619971">
				<ele>113.76800000000001</ele>
			</trkpt>
			<trkpt lat="58.18952" lon="38.619714">
				<ele>114.44000000000003</ele>
			</trkpt>
			<trkpt lat="58.189906" lon="38.619006">
				<ele>114.94400000000002</ele>
			</trkpt>
			<trkpt lat="58.190056" lon="38.618512">
				<ele>115.07200000000003</ele>
			</trkpt>
			<trkpt lat="58.190249" lon="38.618383">
				<ele>115.21600000000002</ele>
			</trkpt>
			<trkpt lat="58.190528" lon="38.617804">
				<ele>114.95200000000003</ele>
			</trkpt>
			<trkpt lat="58.190828" lon="38.617182">
				<ele>114.90400000000002</ele>
			</trkpt>
			<trkpt lat="58.191" lon="38.616881">
				<ele>114.54400000000003</ele>
			</trkpt>
			<trkpt lat="58.191129" lon="38.616667">
				<ele>114.04800000000003</ele>
			</trkpt>
			<trkpt lat="58.191343" lon="38.616431">
				<ele>113.53600000000003</ele>
			</trkpt>
			<trkpt lat="58.191472" lon="38.616323">
				<ele>112.96000000000004</ele>
			</trkpt>
			<trkpt lat="58.191622" lon="38.615959">
				<ele>113.05600000000003</ele>
			</trkpt>
			<trkpt lat="58.19203" lon="38.615186">
				<ele>113.32800000000003</ele>
			</trkpt>
			<trkpt lat="58.192202" lon="38.615079">
				<ele>114.00000000000003</ele>
			</trkpt>
			<trkpt lat="58.192395" lon="38.614821">
				<ele>114.60800000000003</ele>
			</trkpt>
			<trkpt lat="58.192545" lon="38.614736">
				<ele>115.04000000000002</ele>
			</trkpt>
			<trkpt lat="58.192781" lon="38.614371">
				<ele>115.34400000000002</ele>
			</trkpt>
			<trkpt lat="58.193103" lon="38.613963">
				<ele>115.43200000000002</ele>
			</trkpt>
			<trkpt lat="58.193275" lon="38.613834">
				<ele>115.43200000000002</ele>
			</trkpt>
			<trkpt lat="58.193468" lon="38.613727">
				<ele>115.34400000000002</ele>
			</trkpt>
			<trkpt lat="58.193747" lon="38.613362">
				<ele>114.78400000000002</ele>
			</trkpt>
			<trkpt lat="58.193875" lon="38.613191">
				<ele>114.09600000000003</ele>
			</trkpt>
			<trkpt lat="58.19409" lon="38.613298">
				<ele>112.72000000000003</ele>
			</trkpt>
			<trkpt lat="58.194348" lon="38.613255">
				<ele>111.72800000000001</ele>
			</trkpt>
			<trkpt lat="58.194605" lon="38.613105">
				<ele>110.512</ele>
			</trkpt>
			<trkpt lat="58.194905" lon="38.612826">
				<ele>109.936</ele>
			</trkpt>
			<trkpt lat="58.195141" lon="38.612633">
				<ele>109.13600000000002</ele>
			</trkpt>
			<trkpt lat="58.195292" lon="38.612332">
				<ele>108.70400000000002</ele>
			</trkpt>
			<trkpt lat="58.195656" lon="38.611903">
				<ele>108.08000000000003</ele>
			</trkpt>
			<trkpt lat="58.195871" lon="38.61186">
				<ele>107.92800000000003</ele>
			</trkpt>
			<trkpt lat="58.196086" lon="38.611603">
				<ele>107.76000000000005</ele>
			</trkpt>
			<trkpt lat="58.196279" lon="38.61141">
				<ele>107.96800000000003</ele>
			</trkpt>
			<trkpt lat="58.196493" lon="38.611431">
				<ele>108.09600000000003</ele>
			</trkpt>
			<trkpt lat="58.196622" lon="38.611538">
				<ele>108.46400000000003</ele>
			</trkpt>
			<trkpt lat="58.197051" lon="38.611431">
				<ele>108.76</ele>
			</trkpt>
			<trkpt lat="58.197437" lon="38.611495">
				<ele>109.17600000000002</ele>
			</trkpt>
			<trkpt lat="58.197652" lon="38.611495">
				<ele>109.37600000000002</ele>
			</trkpt>
			<trkpt lat="58.197931" lon="38.611581">
				<ele>109.44000000000003</ele>
			</trkpt>
			<trkpt lat="58.198167" lon="38.611689">
				<ele>109.33600000000001</ele>
			</trkpt>
			<trkpt lat="58.198317" lon="38.611753">
				<ele>109.16</ele>
			</trkpt>
			<trkpt lat="58.198424" lon="38.612289">
				<ele>109.064</ele>
			</trkpt>
			<trkpt lat="58.198661" lon="38.612461">
				<ele>109</ele>
			</trkpt>
			<trkpt lat="58.198918" lon="38.612204">
				<ele>109</ele>
			</trkpt>
			<trkpt lat="58.199154" lon="38.611946">
				<ele>109</ele>
			</trkpt>
			<trkpt lat="58.199304" lon="38.611774">
				<ele>109</ele>
			</trkpt>
			<trkpt lat="58.199819" lon="38.611796">
				<ele>109</ele>
			</trkpt>
			<trkpt lat="58.200055" lon="38.611796">
				<ele>109</ele>
			</trkpt>
			<trkpt lat="58.200205" lon="38.611839">
				<ele>109.06400000000002</ele>
			</trkpt>
			<trkpt lat="58.200356" lon="38.611753">
				<ele>109.16000000000001</ele>
			</trkpt>
			<trkpt lat="58.20072" lon="38.611839">
				<ele>109.40000000000003</ele>
			</trkpt>
			<trkpt lat="58.200914" lon="38.611731">
				<ele>109.60000000000002</ele>
			</trkpt>
			<trkpt lat="58.201064" lon="38.611774">
				<ele>109.904</ele>
			</trkpt>
			<trkpt lat="58.201471" lon="38.611753">
				<ele>110.096</ele>
			</trkpt>
			<trkpt lat="58.201643" lon="38.611796">
				<ele>110.272</ele>
			</trkpt>
			<trkpt lat="58.201772" lon="38.611689">
				<ele>110.21600000000004</ele>
			</trkpt>
			<trkpt lat="58.202115" lon="38.611667">
				<ele>109.88000000000002</ele>
			</trkpt>
			<trkpt lat="58.202351" lon="38.611517">
				<ele>109.33600000000004</ele>
			</trkpt>
			<trkpt lat="58.202866" lon="38.611517">
				<ele>108.78400000000002</ele>
			</trkpt>
			<trkpt lat="58.203016" lon="38.611367">
				<ele>108.44800000000002</ele>
			</trkpt>
			<trkpt lat="58.203167" lon="38.611388">
				<ele>108.46400000000003</ele>
			</trkpt>
			<trkpt lat="58.203682" lon="38.611066">
				<ele>108.66400000000002</ele>
			</trkpt>
			<trkpt lat="58.203875" lon="38.611066">
				<ele>109.00000000000001</ele>
			</trkpt>
			<trkpt lat="58.204154" lon="38.610873">
				<ele>109.33600000000001</ele>
			</trkpt>
			<trkpt lat="58.204282" lon="38.610787">
				<ele>109.92000000000002</ele>
			</trkpt>
			<trkpt lat="58.204433" lon="38.610659">
				<ele>110.64000000000001</ele>
			</trkpt>
			<trkpt lat="58.204905" lon="38.610423">
				<ele>111.936</ele>
			</trkpt>
			<trkpt lat="58.205098" lon="38.610401">
				<ele>113.00000000000001</ele>
			</trkpt>
			<trkpt lat="58.205312" lon="38.610229">
				<ele>114.26400000000001</ele>
			</trkpt>
			<trkpt lat="58.205506" lon="38.61038">
				<ele>114.84</ele>
			</trkpt>
			<trkpt lat="58.205699" lon="38.610508">
				<ele>115.08000000000001</ele>
			</trkpt>
			<trkpt lat="58.20587" lon="38.610508">
				<ele>114.86400000000003</ele>
			</trkpt>
			<trkpt lat="58.20587" lon="38.610036">
				<ele>114.00000000000003</ele>
			</trkpt>
			<trkpt lat="58.205784" lon="38.609693">
				<ele>113.40000000000003</ele>
			</trkpt>
			<trkpt lat="58.206042" lon="38.6095">
				<ele>112.62400000000004</ele>
			</trkpt>
			<trkpt lat="58.206428" lon="38.609285">
				<ele>112.72000000000001</ele>
			</trkpt>
			<trkpt lat="58.206621" lon="38.609114">
				<ele>112.93600000000004</ele>
			</trkpt>
			<trkpt lat="58.206857" lon="38.609114">
				<ele>113.44000000000001</ele>
			</trkpt>
			<trkpt lat="58.207008" lon="38.608878">
				<ele>114.03200000000002</ele>
			</trkpt>
			<trkpt lat="58.207201" lon="38.608727">
				<ele>114.576</ele>
			</trkpt>
			<trkpt lat="58.207437" lon="38.608363">
				<ele>115.60000000000002</ele>
			</trkpt>
			<trkpt lat="58.207523" lon="38.608663">
				<ele>116.40000000000003</ele>
			</trkpt>
			<trkpt lat="58.207651" lon="38.608556">
				<ele>117.36000000000004</ele>
			</trkpt>
			<trkpt lat="58.207823" lon="38.608427">
				<ele>117.74400000000003</ele>
			</trkpt>
			<trkpt lat="58.207973" lon="38.608384">
				<ele>118.06400000000004</ele>
			</trkpt>
			<trkpt lat="58.208145" lon="38.608448">
				<ele>118.16000000000003</ele>
			</trkpt>
			<trkpt lat="58.208274" lon="38.608642">
				<ele>118.40000000000002</ele>
			</trkpt>
			<trkpt lat="58.20851" lon="38.608749">
				<ele>118.47200000000001</ele>
			</trkpt>
			<trkpt lat="58.208853" lon="38.60877">
				<ele>118.52000000000002</ele>
			</trkpt>
			<trkpt lat="58.209196" lon="38.608427">
				<ele>118.13600000000002</ele>
			</trkpt>
			<trkpt lat="58.209304" lon="38.608084">
				<ele>117.73600000000002</ele>
			</trkpt>
			<trkpt lat="58.20954" lon="38.607826">
				<ele>117.16000000000003</ele>
			</trkpt>
			<trkpt lat="58.209776" lon="38.607547">
				<ele>116.72800000000004</ele>
			</trkpt>
			<trkpt lat="58.20984" lon="38.60729">
				<ele>116.4</ele>
			</trkpt>
			<trkpt lat="58.20999" lon="38.607054">
				<ele>116.16000000000003</ele>
			</trkpt>
			<trkpt lat="58.210205" lon="38.607054">
				<ele>116.06400000000002</ele>
			</trkpt>
			<trkpt lat="58.210333" lon="38.606903">
				<ele>116.00000000000001</ele>
			</trkpt>
			<trkpt lat="58.210612" lon="38.606839">
				<ele>116.00000000000001</ele>
			</trkpt>
			<trkpt lat="58.210763" lon="38.606796">
				<ele>116.00000000000001</ele>
			</trkpt>
			<trkpt lat="58.210913" lon="38.606839">
				<ele>116.00000000000001</ele>
			</trkpt>
			<trkpt lat="58.211235" lon="38.607032">
				<ele>116.06400000000002</ele>
			</trkpt>
			<trkpt lat="58.211428" lon="38.607161">
				<ele>116.16000000000003</ele>
			</trkpt>
			<trkpt lat="58.211599" lon="38.607333">
				<ele>116.4</ele>
			</trkpt>
			<trkpt lat="58.211793" lon="38.607161">
				<ele>116.66400000000003</ele>
			</trkpt>
			<trkpt lat="58.211943" lon="38.606968">
				<ele>117</ele>
			</trkpt>
			<trkpt lat="58.212179" lon="38.606925">
				<ele>117.33600000000003</ele>
			</trkpt>
			<trkpt lat="58.212393" lon="38.606603">
				<ele>117.60000000000002</ele>
			</trkpt>
			<trkpt lat="58.212587" lon="38.606603">
				<ele>117.84000000000005</ele>
			</trkpt>
			<trkpt lat="58.21278" lon="38.606346">
				<ele>117.87200000000004</ele>
			</trkpt>
			<trkpt lat="58.21293" lon="38.60611">
				<ele>117.84000000000003</ele>
			</trkpt>
			<trkpt lat="58.213187" lon="38.605702">
				<ele>117.60000000000004</ele>
			</trkpt>
			<trkpt lat="58.213338" lon="38.605637">
				<ele>117.40000000000003</ele>
			</trkpt>
			<trkpt lat="58.213702" lon="38.605359">
				<ele>117.09600000000002</ele>
			</trkpt>
			<trkpt lat="58.21396" lon="38.605187">
				<ele>116.90400000000002</ele>
			</trkpt>
			<trkpt lat="58.21411" lon="38.605144">
				<ele>116.66400000000002</ele>
			</trkpt>
			<trkpt lat="58.214325" lon="38.605101">
				<ele>116.56000000000003</ele>
			</trkpt>
			<trkpt lat="58.214518" lon="38.605037">
				<ele>116.49600000000002</ele>
			</trkpt>
			<trkpt lat="58.214668" lon="38.604929">
				<ele>116.50400000000002</ele>
			</trkpt>
			<trkpt lat="58.214883" lon="38.604929">
				<ele>116.50400000000002</ele>
			</trkpt>
			<trkpt lat="58.215054" lon="38.604886">
				<ele>116.49600000000004</ele>
			</trkpt>
			<trkpt lat="58.215333" lon="38.604436">
				<ele>116.56000000000003</ele>
			</trkpt>
			<trkpt lat="58.215526" lon="38.604114">
				<ele>116.66400000000003</ele>
			</trkpt>
			<trkpt lat="58.215719" lon="38.603899">
				<ele>116.77600000000002</ele>
			</trkpt>
			<trkpt lat="58.215998" lon="38.604028">
				<ele>116.77600000000001</ele>
			</trkpt>
			<trkpt lat="58.216191" lon="38.604071">
				<ele>116.72800000000001</ele>
			</trkpt>
			<trkpt lat="58.216342" lon="38.604178">
				<ele>116.72</ele>
			</trkpt>
			<trkpt lat="58.216578" lon="38.604371">
				<ele>116.96000000000001</ele>
			</trkpt>
			<trkpt lat="58.216942" lon="38.604715">
				<ele>117.39200000000002</ele>
			</trkpt>
			<trkpt lat="58.217157" lon="38.604736">
				<ele>117.93600000000002</ele>
			</trkpt>
			<trkpt lat="58.217329" lon="38.604822">
				<ele>118.51200000000003</ele>
			</trkpt>
			<trkpt lat="58.217565" lon="38.604779">
				<ele>118.80000000000001</ele>
			</trkpt>
			<trkpt lat="58.217801" lon="38.605015">
				<ele>119.08000000000001</ele>
			</trkpt>
			<trkpt lat="58.217972" lon="38.605037">
				<ele>119.03200000000001</ele>
			</trkpt>
			<trkpt lat="58.218187" lon="38.605058">
				<ele>118.936</ele>
			</trkpt>
			<trkpt lat="58.218702" lon="38.604951">
				<ele>118.68000000000002</ele>
			</trkpt>
			<trkpt lat="58.219131" lon="38.60465">
				<ele>118.20000000000002</ele>
			</trkpt>
			<trkpt lat="58.21926" lon="38.6045">
				<ele>117.80000000000003</ele>
			</trkpt>
			<trkpt lat="58.219453" lon="38.604243">
				<ele>117.32000000000002</ele>
			</trkpt>
			<trkpt lat="58.219474" lon="38.603985">
				<ele>117.25600000000003</ele>
			</trkpt>
			<trkpt lat="58.219625" lon="38.603878">
				<ele>117.32000000000002</ele>
			</trkpt>
			<trkpt lat="58.219989" lon="38.603363">
				<ele>117.80000000000003</ele>
			</trkpt>
			<trkpt lat="58.220204" lon="38.603213">
				<ele>118.20000000000002</ele>
			</trkpt>
			<trkpt lat="58.220397" lon="38.602955">
				<ele>118.68</ele>
			</trkpt>
			<trkpt lat="58.220547" lon="38.602698">
				<ele>118.808</ele>
			</trkpt>
			<trkpt lat="58.220676" lon="38.60259">
				<ele>118.712</ele>
			</trkpt>
			<trkpt lat="58.220869" lon="38.602054">
				<ele>118.28</ele>
			</trkpt>
			<trkpt lat="58.22132" lon="38.601088">
				<ele>117.60000000000002</ele>
			</trkpt>
			<trkpt lat="58.22132" lon="38.600724">
				<ele>117.02400000000002</ele>
			</trkpt>
			<trkpt lat="58.22147" lon="38.600423">
				<ele>116.60800000000003</ele>
			</trkpt>
			<trkpt lat="58.221534" lon="38.600166">
				<ele>116.68800000000003</ele>
			</trkpt>
			<trkpt lat="58.22162" lon="38.599951">
				<ele>117.00000000000003</ele>
			</trkpt>
			<trkpt lat="58.22177" lon="38.599822">
				<ele>117.44000000000003</ele>
			</trkpt>
			<trkpt lat="58.222071" lon="38.599007">
				<ele>117.71200000000005</ele>
			</trkpt>
			<trkpt lat="58.2222" lon="38.598792">
				<ele>117.77600000000004</ele>
			</trkpt>
			<trkpt lat="58.222436" lon="38.598492">
				<ele>117.60000000000004</ele>
			</trkpt>
			<trkpt lat="58.222629" lon="38.59832">
				<ele>117.46400000000003</ele>
			</trkpt>
			<trkpt lat="58.222779" lon="38.59817">
				<ele>117.32000000000002</ele>
			</trkpt>
			<trkpt lat="58.223079" lon="38.597805">
				<ele>117.52800000000002</ele>
			</trkpt>
			<trkpt lat="58.223508" lon="38.597505">
				<ele>117.76000000000002</ele>
			</trkpt>
			<trkpt lat="58.223745" lon="38.597569">
				<ele>118.24000000000004</ele>
			</trkpt>
			<trkpt lat="58.22426" lon="38.597398">
				<ele>118.47200000000002</ele>
			</trkpt>
			<trkpt lat="58.224474" lon="38.59729">
				<ele>118.68000000000002</ele>
			</trkpt>
			<trkpt lat="58.22471" lon="38.59729">
				<ele>118.53600000000003</ele>
			</trkpt>
			<trkpt lat="58.225032" lon="38.597183">
				<ele>118.40000000000002</ele>
			</trkpt>
			<trkpt lat="58.225204" lon="38.597205">
				<ele>118.03200000000001</ele>
			</trkpt>
			<trkpt lat="58.225397" lon="38.597333">
				<ele>117.68000000000002</ele>
			</trkpt>
			<trkpt lat="58.225783" lon="38.597269">
				<ele>117.04000000000002</ele>
			</trkpt>
			<trkpt lat="58.225976" lon="38.596969">
				<ele>116.40000000000002</ele>
			</trkpt>
			<trkpt lat="58.226212" lon="38.596454">
				<ele>115.72</ele>
			</trkpt>
			<trkpt lat="58.226341" lon="38.596346">
				<ele>115.352</ele>
			</trkpt>
			<trkpt lat="58.226491" lon="38.596089">
				<ele>115.22400000000002</ele>
			</trkpt>
			<trkpt lat="58.226641" lon="38.595982">
				<ele>115.4</ele>
			</trkpt>
			<trkpt lat="58.226792" lon="38.595767">
				<ele>115.60000000000002</ele>
			</trkpt>
			<trkpt lat="58.227006" lon="38.595788">
				<ele>115.90400000000002</ele>
			</trkpt>
			<trkpt lat="58.227242" lon="38.595724">
				<ele>116.09600000000003</ele>
			</trkpt>
			<trkpt lat="58.227435" lon="38.595595">
				<ele>116.4</ele>
			</trkpt>
			<trkpt lat="58.228015" lon="38.594973">
				<ele>116.47200000000004</ele>
			</trkpt>
			<trkpt lat="58.228186" lon="38.594694">
				<ele>116.52000000000002</ele>
			</trkpt>
			<trkpt lat="58.228251" lon="38.594458">
				<ele>116.13600000000002</ele>
			</trkpt>
			<trkpt lat="58.228401" lon="38.594115">
				<ele>115.60800000000002</ele>
			</trkpt>
			<trkpt lat="58.228422" lon="38.59375">
				<ele>114.84000000000003</ele>
			</trkpt>
			<trkpt lat="58.228594" lon="38.593535">
				<ele>113.92800000000003</ele>
			</trkpt>
			<trkpt lat="58.22883" lon="38.593063">
				<ele>113.32800000000002</ele>
			</trkpt>
			<trkpt lat="58.22898" lon="38.59287">
				<ele>112.73600000000002</ele>
			</trkpt>
			<trkpt lat="58.229109" lon="38.592334">
				<ele>112.83200000000002</ele>
			</trkpt>
			<trkpt lat="58.229238" lon="38.592055">
				<ele>112.80000000000004</ele>
			</trkpt>
			<trkpt lat="58.229517" lon="38.591325">
				<ele>113.20800000000003</ele>
			</trkpt>
			<trkpt lat="58.229645" lon="38.591025">
				<ele>113.35200000000003</ele>
			</trkpt>
			<trkpt lat="58.229774" lon="38.590875">
				<ele>113.92800000000003</ele>
			</trkpt>
			<trkpt lat="58.229839" lon="38.590639">
				<ele>114.36000000000001</ele>
			</trkpt>
			<trkpt lat="58.230182" lon="38.590124">
				<ele>115.01600000000002</ele>
			</trkpt>
			<trkpt lat="58.230375" lon="38.589759">
				<ele>115.18400000000003</ele>
			</trkpt>
			<trkpt lat="58.230504" lon="38.589544">
				<ele>115.05600000000003</ele>
			</trkpt>
			<trkpt lat="58.230847" lon="38.589222">
				<ele>114.37600000000002</ele>
			</trkpt>
			<trkpt lat="58.231276" lon="38.588579">
				<ele>113.68800000000002</ele>
			</trkpt>
			<trkpt lat="58.231448" lon="38.588235">
				<ele>113.10400000000001</ele>
			</trkpt>
			<trkpt lat="58.231619" lon="38.587999">
				<ele>113.15200000000002</ele>
			</trkpt>
			<trkpt lat="58.231727" lon="38.587763">
				<ele>113.42400000000002</ele>
			</trkpt>
			<trkpt lat="58.231834" lon="38.587935">
				<ele>114.08000000000001</ele>
			</trkpt>
			<trkpt lat="58.232134" lon="38.587356">
				<ele>114.40800000000002</ele>
			</trkpt>
			<trkpt lat="58.232177" lon="38.586948">
				<ele>114.68</ele>
			</trkpt>
			<trkpt lat="58.232156" lon="38.586669">
				<ele>114.40800000000002</ele>
			</trkpt>
			<trkpt lat="58.23207" lon="38.586283">
				<ele>113.88800000000002</ele>
			</trkpt>
			<trkpt lat="58.232092" lon="38.585853">
				<ele>112.68800000000002</ele>
			</trkpt>
			<trkpt lat="58.232049" lon="38.58551">
				<ele>111.18400000000003</ele>
			</trkpt>
			<trkpt lat="58.23222" lon="38.584566">
				<ele>109.76800000000003</ele>
			</trkpt>
			<trkpt lat="58.23222" lon="38.584073">
				<ele>109.37600000000002</ele>
			</trkpt>
			<trkpt lat="58.232306" lon="38.583751">
				<ele>110.59200000000003</ele>
			</trkpt>
			<trkpt lat="58.232542" lon="38.583772">
				<ele>113</ele>
			</trkpt>
		</trkseg>
	</trk>
</gpx>