<?xml version="1.0" encoding="UTF-8"?>
<gpx xmlns:xsi="http://www.w3.org/2001/XMLSchema-instance" xmlns="http://www.topografix.com/GPX/1/1" xsi:schemaLocation="http://www.topografix.com/GPX/1/1 http://www.topografix.com/GPX/1/1/gpx.xsd" version="1.1" creator="http://nakarte.me">
<metadata>
<author>
<link ></link></author>
<copyright ></copyright>
<link ></link></metadata>
<wpt lat="56.342186" lon="37.523677">
<name>Музейно-выставочный комплекс</name>
<link ></link></wpt>
<wpt lat="56.344009" lon="37.519986">
<name>Дмитровский кремль</name>
<link ></link></wpt>
<wpt lat="56.343087" lon="37.530994">
<name>Борисоглебский монастырь</name>
<link ></link></wpt>
<wpt lat="56.339246" lon="37.548375">
<name>Магазины</name>
<link ></link></wpt>
<wpt lat="56.358686" lon="37.60571">
<name>Памятник воинам Великой Отечественной войны</name>
<link ></link></wpt>
<wpt lat="56.34946" lon="37.597663">
<name>Памятник воинам Великой Отечественной войны</name>
<link ></link></wpt>
<wpt lat="56.378492" lon="37.631309">
<name>Приусадебная церковь</name>
<link ></link></wpt>
<wpt lat="56.377998" lon="37.629635">
<name>Остатки усадебного дома</name>
<link ></link></wpt>
<wpt lat="56.377848" lon="37.62985">
<name>Магазин</name>
<link ></link></wpt>
<wpt lat="56.379157" lon="37.629185">
<name>Магазин</name>
<link ></link></wpt>
<wpt lat="56.379457" lon="37.629356">
<name>Автобусная остановка</name>
<link ></link></wpt>
<wpt lat="56.399628" lon="37.662809">
<name>Место отдыха</name>
<link ></link></wpt>
<wpt lat="56.398855" lon="37.659676">
<name>Место отдыха</name>
<link ></link></wpt>
<wpt lat="56.394027" lon="37.646308">
<name>Место отдыха</name>
<link ></link></wpt>
<wpt lat="56.398684" lon="37.643733">
<name>Место отдыха</name>
<link ></link></wpt>
<wpt lat="56.410957" lon="37.63354">
<name>Родник</name>
<link ></link></wpt>
<wpt lat="56.405958" lon="37.64442">
<name>Магазин</name>
<link ></link></wpt>
<wpt lat="56.405529" lon="37.643347">
<name>Автобусная остановка</name>
<link ></link></wpt>
<wpt lat="56.414991" lon="37.624678">
<name>Автобусная остановка</name>
<link ></link></wpt>
<wpt lat="56.41615" lon="37.620215">
<name>Магазин</name>
<link ></link></wpt>
<wpt lat="56.416043" lon="37.618563">
<name>Автобусная остановка</name>
<link ></link></wpt>
<wpt lat="56.440526" lon="37.573931">
<name>Магазин</name>
<link ></link></wpt>
<wpt lat="56.437994" lon="37.56331">
<name>Автобусная остановка</name>
<link ></link></wpt>
<wpt lat="56.469494" lon="37.554769">
<name>Место отдыха</name>
<link ></link></wpt>
<wpt lat="56.527194" lon="37.598286">
<name>Салон фарфора</name>
<link ></link></wpt>
<wpt lat="56.526636" lon="37.602813">
<name>Салон фарфора</name>
<link ></link></wpt>
<wpt lat="56.527751" lon="37.59556">
<name>Магазин</name>
<link ></link></wpt>
<wpt lat="56.526872" lon="37.598264">
<name>Магазин</name>
<link ></link></wpt>
<wpt lat="56.537686" lon="37.580969">
<name>Братская могила</name>
<link ></link></wpt>
<wpt lat="56.538459" lon="37.582986">
<name>Место отдыха</name>
<link ></link></wpt>
<wpt lat="56.539725" lon="37.559919">
<name>ж/д станция Вербилки</name>
<link ></link></wpt>
<wpt lat="56.516958" lon="37.598672">
<name>Место отдыха</name>
<link ></link></wpt>
<wpt lat="56.402524" lon="37.650664">
<name>Церковь</name>
<link ></link></wpt>
<wpt lat="56.357571" lon="37.610237">
<name>Автобусная остановка</name>
<link ></link></wpt>
<wpt lat="56.539982" lon="37.561335">
<name>Магазин</name>
<link ></link></wpt>
<trk>
<name>Вербилки-Дмитров_1</name>
<link ></link>
<trkseg>
<trkpt lat="56.540583" lon="37.562623">
<ele>137</ele>
<time>1970-01-01T00:00:01Z</time>
<link ></link></trkpt>
<trkpt lat="56.542514" lon="37.568502">
<ele>141.12</ele>
<time>1970-01-01T00:00:01Z</time>
<link ></link></trkpt>
<trkpt lat="56.541742" lon="37.569682">
<ele>143.72000000000003</ele>
<time>1970-01-01T00:00:01Z</time>
<link ></link></trkpt>
<trkpt lat="56.542235" lon="37.56891">
<ele>145.36</ele>
<time>1970-01-01T00:00:01Z</time>
<link ></link></trkpt>
<trkpt lat="56.541742" lon="37.569682">
<ele>145.48000000000002</ele>
<time>1970-01-01T00:00:01Z</time>
<link ></link></trkpt>
<trkpt lat="56.542021" lon="37.570519">
<ele>146.0</ele>
<time>1970-01-01T00:00:01Z</time>
<link ></link></trkpt>
<trkpt lat="56.542214" lon="37.570712">
<ele>146.00000000000003</ele>
<time>1970-01-01T00:00:01Z</time>
<link ></link></trkpt>
<trkpt lat="56.5423" lon="37.571077">
<ele>145.4</ele>
<time>1970-01-01T00:00:01Z</time>
<link ></link></trkpt>
<trkpt lat="56.542278" lon="37.571785">
<ele>144.56000000000003</ele>
<time>1970-01-01T00:00:01Z</time>
<link ></link></trkpt>
<trkpt lat="56.542836" lon="37.572987">
<ele>142.72000000000003</ele>
<time>1970-01-01T00:00:01Z</time>
<link ></link></trkpt>
<trkpt lat="56.542879" lon="37.573609">
<ele>142.32000000000002</ele>
<time>1970-01-01T00:00:01Z</time>
<link ></link></trkpt>
<trkpt lat="56.543008" lon="37.573953">
<ele>141.68</ele>
<time>1970-01-01T00:00:01Z</time>
<link ></link></trkpt>
<trkpt lat="56.543265" lon="37.574189">
<ele>140.88</ele>
<time>1970-01-01T00:00:01Z</time>
<link ></link></trkpt>
<trkpt lat="56.543222" lon="37.574489">
<ele>139.76</ele>
<time>1970-01-01T00:00:01Z</time>
<link ></link></trkpt>
<trkpt lat="56.543351" lon="37.575025">
<ele>137.24</ele>
<time>1970-01-01T00:00:01Z</time>
<link ></link></trkpt>
<trkpt lat="56.543544" lon="37.575497">
<ele>136.12</ele>
<time>1970-01-01T00:00:01Z</time>
<link ></link></trkpt>
<trkpt lat="56.543544" lon="37.575669">
<ele>134.04</ele>
<time>1970-01-01T00:00:01Z</time>
<link ></link></trkpt>
<trkpt lat="56.543652" lon="37.575734">
<ele>133.07999999999998</ele>
<time>1970-01-01T00:00:01Z</time>
<link ></link></trkpt>
<trkpt lat="56.543952" lon="37.57612">
<ele>130.44</ele>
<time>1970-01-01T00:00:01Z</time>
<link ></link></trkpt>
<trkpt lat="56.543888" lon="37.57642">
<ele>129.96</ele>
<time>1970-01-01T00:00:01Z</time>
<link ></link></trkpt>
<trkpt lat="56.543523" lon="37.577064">
<ele>128.56</ele>
<time>1970-01-01T00:00:01Z</time>
<link ></link></trkpt>
<trkpt lat="56.543244" lon="37.577901">
<ele>129.60000000000002</ele>
<time>1970-01-01T00:00:01Z</time>
<link ></link></trkpt>
<trkpt lat="56.542901" lon="37.57863">
<ele>129.04000000000002</ele>
<time>1970-01-01T00:00:01Z</time>
<link ></link></trkpt>
<trkpt lat="56.542707" lon="37.579317">
<ele>128.8</ele>
<time>1970-01-01T00:00:01Z</time>
<link ></link></trkpt>
<trkpt lat="56.542729" lon="37.580154">
<ele>128.00000000000003</ele>
<time>1970-01-01T00:00:01Z</time>
<link ></link></trkpt>
<trkpt lat="56.542879" lon="37.581119">
<ele>127.00000000000001</ele>
<time>1970-01-01T00:00:01Z</time>
<link ></link></trkpt>
<trkpt lat="56.542815" lon="37.581484">
<ele>126.52000000000002</ele>
<time>1970-01-01T00:00:01Z</time>
<link ></link></trkpt>
<trkpt lat="56.542729" lon="37.5826">
<ele>126.76000000000002</ele>
<time>1970-01-01T00:00:01Z</time>
<link ></link></trkpt>
<trkpt lat="56.542579" lon="37.583051">
<ele>127.40000000000002</ele>
<time>1970-01-01T00:00:01Z</time>
<link ></link></trkpt>
<trkpt lat="56.542471" lon="37.583222">
<ele>129.44</ele>
<time>1970-01-01T00:00:01Z</time>
<link ></link></trkpt>
<trkpt lat="56.542214" lon="37.583415">
<ele>131.16000000000003</ele>
<time>1970-01-01T00:00:01Z</time>
<link ></link></trkpt>
<trkpt lat="56.541956" lon="37.583458">
<ele>132.92000000000002</ele>
<time>1970-01-01T00:00:01Z</time>
<link ></link></trkpt>
<trkpt lat="56.541098" lon="37.583222">
<ele>134.76000000000002</ele>
<time>1970-01-01T00:00:01Z</time>
<link ></link></trkpt>
<trkpt lat="56.540755" lon="37.583093">
<ele>136.48000000000002</ele>
<time>1970-01-01T00:00:01Z</time>
<link ></link></trkpt>
<trkpt lat="56.540133" lon="37.582686">
<ele>138.88</ele>
<time>1970-01-01T00:00:01Z</time>
<link ></link></trkpt>
<trkpt lat="56.539424" lon="37.58245">
<ele>140.44000000000003</ele>
<time>1970-01-01T00:00:01Z</time>
<link ></link></trkpt>
<trkpt lat="56.539081" lon="37.582214">
<ele>140.88</ele>
<time>1970-01-01T00:00:01Z</time>
<link ></link></trkpt>
<trkpt lat="56.538631" lon="37.582686">
<ele>138.8</ele>
<time>1970-01-01T00:00:01Z</time>
<link ></link></trkpt>
<trkpt lat="56.53818" lon="37.583995">
<ele>136.12</ele>
<time>1970-01-01T00:00:01Z</time>
<link ></link></trkpt>
<trkpt lat="56.537708" lon="37.585089">
<ele>133.8</ele>
<time>1970-01-01T00:00:01Z</time>
<link ></link></trkpt>
<trkpt lat="56.53745" lon="37.585196">
<ele>132.56</ele>
<time>1970-01-01T00:00:01Z</time>
<link ></link></trkpt>
<trkpt lat="56.537386" lon="37.58496">
<ele>134.16000000000003</ele>
<time>1970-01-01T00:00:01Z</time>
<link ></link></trkpt>
<trkpt lat="56.537365" lon="37.584638">
<ele>135.28</ele>
<time>1970-01-01T00:00:01Z</time>
<link ></link></trkpt>
<trkpt lat="56.537064" lon="37.583866">
<ele>138.07999999999998</ele>
<time>1970-01-01T00:00:01Z</time>
<link ></link></trkpt>
<trkpt lat="56.536871" lon="37.583759">
<ele>138.07999999999998</ele>
<time>1970-01-01T00:00:01Z</time>
<link ></link></trkpt>
<trkpt lat="56.536828" lon="37.584038">
<ele>137.76</ele>
<time>1970-01-01T00:00:01Z</time>
<link ></link></trkpt>
<trkpt lat="56.536742" lon="37.584231">
<ele>134.48000000000002</ele>
<time>1970-01-01T00:00:01Z</time>
<link ></link></trkpt>
<trkpt lat="56.536485" lon="37.584574">
<ele>132.0</ele>
<time>1970-01-01T00:00:01Z</time>
<link ></link></trkpt>
<trkpt lat="56.536034" lon="37.585068">
<ele>129.4</ele>
<time>1970-01-01T00:00:01Z</time>
<link ></link></trkpt>
<trkpt lat="56.53597" lon="37.585089">
<ele>128.44</ele>
<time>1970-01-01T00:00:01Z</time>
<link ></link></trkpt>
<trkpt lat="56.535777" lon="37.58496">
<ele>128.07999999999998</ele>
<time>1970-01-01T00:00:01Z</time>
<link ></link></trkpt>
<trkpt lat="56.53494" lon="37.586527">
<ele>127.20000000000002</ele>
<time>1970-01-01T00:00:01Z</time>
<link ></link></trkpt>
<trkpt lat="56.533867" lon="37.588351">
<ele>126.96000000000001</ele>
<time>1970-01-01T00:00:01Z</time>
<link ></link></trkpt>
<trkpt lat="56.531786" lon="37.592192">
<ele>126.24000000000001</ele>
<time>1970-01-01T00:00:01Z</time>
<link ></link></trkpt>
<trkpt lat="56.531528" lon="37.592428">
<ele>127.04</ele>
<time>1970-01-01T00:00:01Z</time>
<link ></link></trkpt>
<trkpt lat="56.531421" lon="37.592363">
<ele>127.20000000000002</ele>
<time>1970-01-01T00:00:01Z</time>
<link ></link></trkpt>
<trkpt lat="56.531378" lon="37.592385">
<ele>127.68000000000002</ele>
<time>1970-01-01T00:00:01Z</time>
<link ></link></trkpt>
<trkpt lat="56.531313" lon="37.592578">
<ele>127.32000000000002</ele>
<time>1970-01-01T00:00:01Z</time>
<link ></link></trkpt>
<trkpt lat="56.531249" lon="37.592599">
<ele>128.12</ele>
<time>1970-01-01T00:00:01Z</time>
<link ></link></trkpt>
<trkpt lat="56.530992" lon="37.593264">
<ele>128.60000000000002</ele>
<time>1970-01-01T00:00:01Z</time>
<link ></link></trkpt>
<trkpt lat="56.52994" lon="37.592642">
<ele>130.44000000000003</ele>
<time>1970-01-01T00:00:01Z</time>
<link ></link></trkpt>
<trkpt lat="56.529189" lon="37.596333">
<ele>130.68</ele>
<time>1970-01-01T00:00:01Z</time>
<link ></link></trkpt>
<trkpt lat="56.527408" lon="37.595882">
<ele>130.68</ele>
<time>1970-01-01T00:00:01Z</time>
<link ></link></trkpt>
<trkpt lat="56.526207" lon="37.595818">
<ele>129.72000000000003</ele>
<time>1970-01-01T00:00:01Z</time>
<link ></link></trkpt>
<trkpt lat="56.523653" lon="37.595796">
<ele>128.28000000000003</ele>
<time>1970-01-01T00:00:01Z</time>
<link ></link></trkpt>
<trkpt lat="56.523031" lon="37.595711">
<ele>127.64000000000001</ele>
<time>1970-01-01T00:00:01Z</time>
<link ></link></trkpt>
<trkpt lat="56.522902" lon="37.595732">
<ele>127.0</ele>
<time>1970-01-01T00:00:01Z</time>
<link ></link></trkpt>
<trkpt lat="56.521529" lon="37.596075">
<ele>127.32000000000001</ele>
<time>1970-01-01T00:00:01Z</time>
<link ></link></trkpt>
<trkpt lat="56.521336" lon="37.596161">
<ele>127.96000000000001</ele>
<time>1970-01-01T00:00:01Z</time>
<link ></link></trkpt>
<trkpt lat="56.520155" lon="37.597084">
<ele>129.0</ele>
<time>1970-01-01T00:00:01Z</time>
<link ></link></trkpt>
<trkpt lat="56.519812" lon="37.59732">
<ele>130.20000000000002</ele>
<time>1970-01-01T00:00:01Z</time>
<link ></link></trkpt>
<trkpt lat="56.519512" lon="37.597449">
<ele>131.64000000000001</ele>
<time>1970-01-01T00:00:01Z</time>
<link ></link></trkpt>
<trkpt lat="56.518911" lon="37.59747">
<ele>132.96</ele>
<time>1970-01-01T00:00:01Z</time>
<link ></link></trkpt>
<trkpt lat="56.51831" lon="37.597406">
<ele>135.36</ele>
<time>1970-01-01T00:00:01Z</time>
<link ></link></trkpt>
<trkpt lat="56.517817" lon="37.59747">
<ele>136.48000000000002</ele>
<time>1970-01-01T00:00:01Z</time>
<link ></link></trkpt>
<trkpt lat="56.51743" lon="37.597899">
<ele>139.56</ele>
<time>1970-01-01T00:00:01Z</time>
<link ></link></trkpt>
<trkpt lat="56.515928" lon="37.599337">
<ele>140.56000000000003</ele>
<time>1970-01-01T00:00:01Z</time>
<link ></link></trkpt>
<trkpt lat="56.515606" lon="37.599187">
<ele>142.92000000000002</ele>
<time>1970-01-01T00:00:01Z</time>
<link ></link></trkpt>
<trkpt lat="56.51477" lon="37.598886">
<ele>142.8</ele>
<time>1970-01-01T00:00:01Z</time>
<link ></link></trkpt>
<trkpt lat="56.514448" lon="37.5982">
<ele>142.16000000000003</ele>
<time>1970-01-01T00:00:01Z</time>
<link ></link></trkpt>
<trkpt lat="56.514319" lon="37.597062">
<ele>140.92000000000002</ele>
<time>1970-01-01T00:00:01Z</time>
<link ></link></trkpt>
<trkpt lat="56.51331" lon="37.594423">
<ele>139.96000000000004</ele>
<time>1970-01-01T00:00:01Z</time>
<link ></link></trkpt>
<trkpt lat="56.512624" lon="37.593758">
<ele>139.08</ele>
<time>1970-01-01T00:00:01Z</time>
<link ></link></trkpt>
<trkpt lat="56.511787" lon="37.593243">
<ele>137.92000000000002</ele>
<time>1970-01-01T00:00:01Z</time>
<link ></link></trkpt>
<trkpt lat="56.511358" lon="37.592406">
<ele>136.4</ele>
<time>1970-01-01T00:00:01Z</time>
<link ></link></trkpt>
<trkpt lat="56.510864" lon="37.591612">
<ele>135.24</ele>
<time>1970-01-01T00:00:01Z</time>
<link ></link></trkpt>
<trkpt lat="56.510049" lon="37.590883">
<ele>134.92000000000002</ele>
<time>1970-01-01T00:00:01Z</time>
<link ></link></trkpt>
<trkpt lat="56.509534" lon="37.58996">
<ele>135.32</ele>
<time>1970-01-01T00:00:01Z</time>
<link ></link></trkpt>
<trkpt lat="56.508976" lon="37.58923">
<ele>135.88</ele>
<time>1970-01-01T00:00:01Z</time>
<link ></link></trkpt>
<trkpt lat="56.508204" lon="37.588072">
<ele>136.92000000000002</ele>
<time>1970-01-01T00:00:01Z</time>
<link ></link></trkpt>
<trkpt lat="56.507624" lon="37.587771">
<ele>137.08</ele>
<time>1970-01-01T00:00:01Z</time>
<link ></link></trkpt>
<trkpt lat="56.506337" lon="37.587964">
<ele>136.8</ele>
<time>1970-01-01T00:00:01Z</time>
<link ></link></trkpt>
<trkpt lat="56.505908" lon="37.588072">
<ele>136.8</ele>
<time>1970-01-01T00:00:01Z</time>
<link ></link></trkpt>
<trkpt lat="56.505199" lon="37.58775">
<ele>136.92000000000002</ele>
<time>1970-01-01T00:00:01Z</time>
<link ></link></trkpt>
<trkpt lat="56.503161" lon="37.586055">
<ele>138.04</ele>
<time>1970-01-01T00:00:01Z</time>
<link ></link></trkpt>
<trkpt lat="56.503547" lon="37.586377">
<ele>138.44</ele>
<time>1970-01-01T00:00:01Z</time>
<link ></link></trkpt>
<trkpt lat="56.501316" lon="37.584424">
<ele>138.0</ele>
<time>1970-01-01T00:00:01Z</time>
<link ></link></trkpt>
<trkpt lat="56.500844" lon="37.584059">
<ele>137.28000000000003</ele>
<time>1970-01-01T00:00:01Z</time>
<link ></link></trkpt>
<trkpt lat="56.500329" lon="37.584081">
<ele>136.8</ele>
<time>1970-01-01T00:00:01Z</time>
<link ></link></trkpt>
<trkpt lat="56.49947" lon="37.584574">
<ele>137.32000000000002</ele>
<time>1970-01-01T00:00:01Z</time>
<link ></link></trkpt>
<trkpt lat="56.498676" lon="37.58451">
<ele>137.36</ele>
<time>1970-01-01T00:00:01Z</time>
<link ></link></trkpt>
<trkpt lat="56.49638" lon="37.58496">
<ele>137.76000000000002</ele>
<time>1970-01-01T00:00:01Z</time>
<link ></link></trkpt>
<trkpt lat="56.495694" lon="37.584896">
<ele>136.76</ele>
<time>1970-01-01T00:00:01Z</time>
<link ></link></trkpt>
<trkpt lat="56.493913" lon="37.584081">
<ele>136.96</ele>
<time>1970-01-01T00:00:01Z</time>
<link ></link></trkpt>
<trkpt lat="56.49269" lon="37.583802">
<ele>136.52</ele>
<time>1970-01-01T00:00:01Z</time>
<link ></link></trkpt>
<trkpt lat="56.491273" lon="37.582793">
<ele>136.88000000000002</ele>
<time>1970-01-01T00:00:01Z</time>
<link ></link></trkpt>
<trkpt lat="56.490007" lon="37.581484">
<ele>136.00000000000003</ele>
<time>1970-01-01T00:00:01Z</time>
<link ></link></trkpt>
<trkpt lat="56.489342" lon="37.580433">
<ele>136.48000000000002</ele>
<time>1970-01-01T00:00:01Z</time>
<link ></link></trkpt>
<trkpt lat="56.488527" lon="37.578974">
<ele>136.36</ele>
<time>1970-01-01T00:00:01Z</time>
<link ></link></trkpt>
<trkpt lat="56.488119" lon="37.577364">
<ele>138.56</ele>
<time>1970-01-01T00:00:01Z</time>
<link ></link></trkpt>
<trkpt lat="56.487905" lon="37.576163">
<ele>139.24000000000004</ele>
<time>1970-01-01T00:00:01Z</time>
<link ></link></trkpt>
<trkpt lat="56.487561" lon="37.575004">
<ele>140.20000000000002</ele>
<time>1970-01-01T00:00:01Z</time>
<link ></link></trkpt>
<trkpt lat="56.486639" lon="37.571227">
<ele>139.8</ele>
<time>1970-01-01T00:00:01Z</time>
<link ></link></trkpt>
<trkpt lat="56.486574" lon="37.570841">
<ele>139.64000000000001</ele>
<time>1970-01-01T00:00:01Z</time>
<link ></link></trkpt>
<trkpt lat="56.486016" lon="37.569125">
<ele>139.04000000000002</ele>
<time>1970-01-01T00:00:01Z</time>
<link ></link></trkpt>
<trkpt lat="56.485909" lon="37.568567">
<ele>138.08</ele>
<time>1970-01-01T00:00:01Z</time>
<link ></link></trkpt>
<trkpt lat="56.485287" lon="37.566957">
<ele>137.44000000000003</ele>
<time>1970-01-01T00:00:01Z</time>
<link ></link></trkpt>
<trkpt lat="56.485008" lon="37.566035">
<ele>138.28000000000003</ele>
<time>1970-01-01T00:00:01Z</time>
<link ></link></trkpt>
<trkpt lat="56.48475" lon="37.564962">
<ele>141.44</ele>
<time>1970-01-01T00:00:01Z</time>
<link ></link></trkpt>
<trkpt lat="56.484149" lon="37.561679">
<ele>145.96</ele>
<time>1970-01-01T00:00:01Z</time>
<link ></link></trkpt>
<trkpt lat="56.483549" lon="37.559404">
<ele>149.72</ele>
<time>1970-01-01T00:00:01Z</time>
<link ></link></trkpt>
<trkpt lat="56.483334" lon="37.558911">
<ele>151.4</ele>
<time>1970-01-01T00:00:01Z</time>
<link ></link></trkpt>
<trkpt lat="56.482862" lon="37.558138">
<ele>151.60000000000002</ele>
<time>1970-01-01T00:00:01Z</time>
<link ></link></trkpt>
<trkpt lat="56.482454" lon="37.557602">
<ele>150.07999999999998</ele>
<time>1970-01-01T00:00:01Z</time>
<link ></link></trkpt>
<trkpt lat="56.48224" lon="37.556851">
<ele>150.12</ele>
<time>1970-01-01T00:00:01Z</time>
<link ></link></trkpt>
<trkpt lat="56.48209" lon="37.556679">
<ele>149.64000000000001</ele>
<time>1970-01-01T00:00:01Z</time>
<link ></link></trkpt>
<trkpt lat="56.48151" lon="37.556443">
<ele>150.56</ele>
<time>1970-01-01T00:00:01Z</time>
<link ></link></trkpt>
<trkpt lat="56.480545" lon="37.555585">
<ele>150.68</ele>
<time>1970-01-01T00:00:01Z</time>
<link ></link></trkpt>
<trkpt lat="56.479643" lon="37.554362">
<ele>150.48000000000002</ele>
<time>1970-01-01T00:00:01Z</time>
<link ></link></trkpt>
<trkpt lat="56.479257" lon="37.553611">
<ele>150.04000000000002</ele>
<time>1970-01-01T00:00:01Z</time>
<link ></link></trkpt>
<trkpt lat="56.478849" lon="37.552581">
<ele>149.0</ele>
<time>1970-01-01T00:00:01Z</time>
<link ></link></trkpt>
<trkpt lat="56.478742" lon="37.552237">
<ele>148.16000000000003</ele>
<time>1970-01-01T00:00:01Z</time>
<link ></link></trkpt>
<trkpt lat="56.47857" lon="37.551443">
<ele>147.16000000000003</ele>
<time>1970-01-01T00:00:01Z</time>
<link ></link></trkpt>
<trkpt lat="56.478077" lon="37.5511">
<ele>146.48000000000002</ele>
<time>1970-01-01T00:00:01Z</time>
<link ></link></trkpt>
<trkpt lat="56.477455" lon="37.551079">
<ele>144.88</ele>
<time>1970-01-01T00:00:01Z</time>
<link ></link></trkpt>
<trkpt lat="56.476747" lon="37.551422">
<ele>143.44</ele>
<time>1970-01-01T00:00:01Z</time>
<link ></link></trkpt>
<trkpt lat="56.475824" lon="37.551765">
<ele>140.56</ele>
<time>1970-01-01T00:00:01Z</time>
<link ></link></trkpt>
<trkpt lat="56.47533" lon="37.55183">
<ele>139.12</ele>
<time>1970-01-01T00:00:01Z</time>
<link ></link></trkpt>
<trkpt lat="56.475051" lon="37.552173">
<ele>137.68</ele>
<time>1970-01-01T00:00:01Z</time>
<link ></link></trkpt>
<trkpt lat="56.474451" lon="37.552516">
<ele>137.0</ele>
<time>1970-01-01T00:00:01Z</time>
<link ></link></trkpt>
<trkpt lat="56.474257" lon="37.552731">
<ele>136.52</ele>
<time>1970-01-01T00:00:01Z</time>
<link ></link></trkpt>
<trkpt lat="56.47415" lon="37.552752">
<ele>135.64</ele>
<time>1970-01-01T00:00:01Z</time>
<link ></link></trkpt>
<trkpt lat="56.473893" lon="37.552731">
<ele>134.84000000000003</ele>
<time>1970-01-01T00:00:01Z</time>
<link ></link></trkpt>
<trkpt lat="56.473528" lon="37.552945">
<ele>134.04000000000002</ele>
<time>1970-01-01T00:00:01Z</time>
<link ></link></trkpt>
<trkpt lat="56.47312" lon="37.552945">
<ele>132.96</ele>
<time>1970-01-01T00:00:01Z</time>
<link ></link></trkpt>
<trkpt lat="56.472734" lon="37.552667">
<ele>132.0</ele>
<time>1970-01-01T00:00:01Z</time>
<link ></link></trkpt>
<trkpt lat="56.472648" lon="37.552409">
<ele>131.04000000000002</ele>
<time>1970-01-01T00:00:01Z</time>
<link ></link></trkpt>
<trkpt lat="56.472219" lon="37.547903">
<ele>130.28000000000003</ele>
<time>1970-01-01T00:00:01Z</time>
<link ></link></trkpt>
<trkpt lat="56.471854" lon="37.541144">
<ele>131.08000000000004</ele>
<time>1970-01-01T00:00:01Z</time>
<link ></link></trkpt>
<trkpt lat="56.471854" lon="37.540693">
<ele>132.76000000000002</ele>
<time>1970-01-01T00:00:01Z</time>
<link ></link></trkpt>
<trkpt lat="56.471962" lon="37.539019">
<ele>135.72000000000003</ele>
<time>1970-01-01T00:00:01Z</time>
<link ></link></trkpt>
<trkpt lat="56.471983" lon="37.535586">
<ele>138.08</ele>
<time>1970-01-01T00:00:01Z</time>
<link ></link></trkpt>
<trkpt lat="56.47194" lon="37.535114">
<ele>139.20000000000002</ele>
<time>1970-01-01T00:00:01Z</time>
<link ></link></trkpt>
<trkpt lat="56.47179" lon="37.534406">
<ele>139.20000000000002</ele>
<time>1970-01-01T00:00:01Z</time>
<link ></link></trkpt>
<trkpt lat="56.471339" lon="37.534106">
<ele>137.36</ele>
<time>1970-01-01T00:00:01Z</time>
<link ></link></trkpt>
<trkpt lat="56.471125" lon="37.533312">
<ele>135.4</ele>
<time>1970-01-01T00:00:01Z</time>
<link ></link></trkpt>
<trkpt lat="56.470653" lon="37.532475">
<ele>132.44</ele>
<time>1970-01-01T00:00:01Z</time>
<link ></link></trkpt>
<trkpt lat="56.469344" lon="37.531595">
<ele>130.6</ele>
<time>1970-01-01T00:00:01Z</time>
<link ></link></trkpt>
<trkpt lat="56.468206" lon="37.531423">
<ele>128.84000000000003</ele>
<time>1970-01-01T00:00:01Z</time>
<link ></link></trkpt>
<trkpt lat="56.467691" lon="37.531509">
<ele>127.88</ele>
<time>1970-01-01T00:00:01Z</time>
<link ></link></trkpt>
<trkpt lat="56.467477" lon="37.531702">
<ele>126.64000000000001</ele>
<time>1970-01-01T00:00:01Z</time>
<link ></link></trkpt>
<trkpt lat="56.466812" lon="37.531659">
<ele>125.96000000000001</ele>
<time>1970-01-01T00:00:01Z</time>
<link ></link></trkpt>
<trkpt lat="56.466597" lon="37.531466">
<ele>125.48000000000002</ele>
<time>1970-01-01T00:00:01Z</time>
<link ></link></trkpt>
<trkpt lat="56.465374" lon="37.531187">
<ele>125.68</ele>
<time>1970-01-01T00:00:01Z</time>
<link ></link></trkpt>
<trkpt lat="56.465224" lon="37.531381">
<ele>125.68000000000002</ele>
<time>1970-01-01T00:00:01Z</time>
<link ></link></trkpt>
<trkpt lat="56.465095" lon="37.531402">
<ele>125.68</ele>
<time>1970-01-01T00:00:01Z</time>
<link ></link></trkpt>
<trkpt lat="56.464988" lon="37.531938">
<ele>125.32000000000001</ele>
<time>1970-01-01T00:00:01Z</time>
<link ></link></trkpt>
<trkpt lat="56.46488" lon="37.53196">
<ele>125.16</ele>
<time>1970-01-01T00:00:01Z</time>
<link ></link></trkpt>
<trkpt lat="56.464752" lon="37.532046">
<ele>125.0</ele>
<time>1970-01-01T00:00:01Z</time>
<link ></link></trkpt>
<trkpt lat="56.464451" lon="37.532346">
<ele>125.0</ele>
<time>1970-01-01T00:00:01Z</time>
<link ></link></trkpt>
<trkpt lat="56.464344" lon="37.532303">
<ele>125.0</ele>
<time>1970-01-01T00:00:01Z</time>
<link ></link></trkpt>
<trkpt lat="56.464258" lon="37.532153">
<ele>125.0</ele>
<time>1970-01-01T00:00:01Z</time>
<link ></link></trkpt>
<trkpt lat="56.464258" lon="37.531981">
<ele>125.0</ele>
<time>1970-01-01T00:00:01Z</time>
<link ></link></trkpt>
<trkpt lat="56.464194" lon="37.531831">
<ele>125.0</ele>
<time>1970-01-01T00:00:01Z</time>
<link ></link></trkpt>
<trkpt lat="56.464065" lon="37.53123">
<ele>125.0</ele>
<time>1970-01-01T00:00:01Z</time>
<link ></link></trkpt>
<trkpt lat="56.463765" lon="37.530436">
<ele>125.0</ele>
<time>1970-01-01T00:00:01Z</time>
<link ></link></trkpt>
<trkpt lat="56.463636" lon="37.52975">
<ele>125.0</ele>
<time>1970-01-01T00:00:01Z</time>
<link ></link></trkpt>
<trkpt lat="56.46355" lon="37.529685">
<ele>125.16</ele>
<time>1970-01-01T00:00:01Z</time>
<link ></link></trkpt>
<trkpt lat="56.463421" lon="37.529707">
<ele>125.48</ele>
<time>1970-01-01T00:00:01Z</time>
<link ></link></trkpt>
<trkpt lat="56.462799" lon="37.531037">
<ele>126.00000000000003</ele>
<time>1970-01-01T00:00:01Z</time>
<link ></link></trkpt>
<trkpt lat="56.462477" lon="37.531252">
<ele>126.52000000000001</ele>
<time>1970-01-01T00:00:01Z</time>
<link ></link></trkpt>
<trkpt lat="56.462241" lon="37.531338">
<ele>127.64000000000001</ele>
<time>1970-01-01T00:00:01Z</time>
<link ></link></trkpt>
<trkpt lat="56.46207" lon="37.531273">
<ele>128.44000000000003</ele>
<time>1970-01-01T00:00:01Z</time>
<link ></link></trkpt>
<trkpt lat="56.460975" lon="37.531445">
<ele>130.08</ele>
<time>1970-01-01T00:00:01Z</time>
<link ></link></trkpt>
<trkpt lat="56.459731" lon="37.531767">
<ele>130.36</ele>
<time>1970-01-01T00:00:01Z</time>
<link ></link></trkpt>
<trkpt lat="56.459409" lon="37.531724">
<ele>130.36</ele>
<time>1970-01-01T00:00:01Z</time>
<link ></link></trkpt>
<trkpt lat="56.455954" lon="37.532325">
<ele>129.52000000000004</ele>
<time>1970-01-01T00:00:01Z</time>
<link ></link></trkpt>
<trkpt lat="56.455074" lon="37.532539">
<ele>128.44</ele>
<time>1970-01-01T00:00:01Z</time>
<link ></link></trkpt>
<trkpt lat="56.45516" lon="37.533355">
<ele>128.16000000000003</ele>
<time>1970-01-01T00:00:01Z</time>
<link ></link></trkpt>
<trkpt lat="56.45516" lon="37.533655">
<ele>128.8</ele>
<time>1970-01-01T00:00:01Z</time>
<link ></link></trkpt>
<trkpt lat="56.455782" lon="37.534792">
<ele>129.12</ele>
<time>1970-01-01T00:00:01Z</time>
<link ></link></trkpt>
<trkpt lat="56.455933" lon="37.534942">
<ele>130.48000000000002</ele>
<time>1970-01-01T00:00:01Z</time>
<link ></link></trkpt>
<trkpt lat="56.455825" lon="37.535007">
<ele>130.28000000000003</ele>
<time>1970-01-01T00:00:01Z</time>
<link ></link></trkpt>
<trkpt lat="56.455761" lon="37.535651">
<ele>130.28000000000003</ele>
<time>1970-01-01T00:00:01Z</time>
<link ></link></trkpt>
<trkpt lat="56.455911" lon="37.538397">
<ele>130.44</ele>
<time>1970-01-01T00:00:01Z</time>
<link ></link></trkpt>
<trkpt lat="56.456169" lon="37.540672">
<ele>129.44000000000003</ele>
<time>1970-01-01T00:00:01Z</time>
<link ></link></trkpt>
<trkpt lat="56.456512" lon="37.542281">
<ele>129.84000000000003</ele>
<time>1970-01-01T00:00:01Z</time>
<link ></link></trkpt>
<trkpt lat="56.456727" lon="37.542968">
<ele>129.48000000000002</ele>
<time>1970-01-01T00:00:01Z</time>
<link ></link></trkpt>
<trkpt lat="56.456984" lon="37.544083">
<ele>130.28</ele>
<time>1970-01-01T00:00:01Z</time>
<link ></link></trkpt>
<trkpt lat="56.457585" lon="37.546208">
<ele>131.36</ele>
<time>1970-01-01T00:00:01Z</time>
<link ></link></trkpt>
<trkpt lat="56.458121" lon="37.547173">
<ele>131.88</ele>
<time>1970-01-01T00:00:01Z</time>
<link ></link></trkpt>
<trkpt lat="56.458121" lon="37.547409">
<ele>132.20000000000002</ele>
<time>1970-01-01T00:00:01Z</time>
<link ></link></trkpt>
<trkpt lat="56.45795" lon="37.547753">
<ele>131.48000000000002</ele>
<time>1970-01-01T00:00:01Z</time>
<link ></link></trkpt>
<trkpt lat="56.457757" lon="37.547989">
<ele>131.0</ele>
<time>1970-01-01T00:00:01Z</time>
<link ></link></trkpt>
<trkpt lat="56.455546" lon="37.550027">
<ele>130.16000000000003</ele>
<time>1970-01-01T00:00:01Z</time>
<link ></link></trkpt>
<trkpt lat="56.453873" lon="37.551658">
<ele>129.84000000000003</ele>
<time>1970-01-01T00:00:01Z</time>
<link ></link></trkpt>
<trkpt lat="56.45207" lon="37.553267">
<ele>129.8</ele>
<time>1970-01-01T00:00:01Z</time>
<link ></link></trkpt>
<trkpt lat="56.451834" lon="37.55346">
<ele>130.12</ele>
<time>1970-01-01T00:00:01Z</time>
<link ></link></trkpt>
<trkpt lat="56.451641" lon="37.553503">
<ele>131.04000000000002</ele>
<time>1970-01-01T00:00:01Z</time>
<link ></link></trkpt>
<trkpt lat="56.451491" lon="37.553482">
<ele>131.36</ele>
<time>1970-01-01T00:00:01Z</time>
<link ></link></trkpt>
<trkpt lat="56.451362" lon="37.553353">
<ele>131.84</ele>
<time>1970-01-01T00:00:01Z</time>
<link ></link></trkpt>
<trkpt lat="56.450654" lon="37.551958">
<ele>132.44000000000003</ele>
<time>1970-01-01T00:00:01Z</time>
<link ></link></trkpt>
<trkpt lat="56.450397" lon="37.551572">
<ele>133.44</ele>
<time>1970-01-01T00:00:01Z</time>
<link ></link></trkpt>
<trkpt lat="56.449882" lon="37.551293">
<ele>135.24</ele>
<time>1970-01-01T00:00:01Z</time>
<link ></link></trkpt>
<trkpt lat="56.449431" lon="37.551207">
<ele>137.48000000000002</ele>
<time>1970-01-01T00:00:01Z</time>
<link ></link></trkpt>
<trkpt lat="56.449345" lon="37.550993">
<ele>139.56</ele>
<time>1970-01-01T00:00:01Z</time>
<link ></link></trkpt>
<trkpt lat="56.448487" lon="37.550306">
<ele>142.44</ele>
<time>1970-01-01T00:00:01Z</time>
<link ></link></trkpt>
<trkpt lat="56.448058" lon="37.549791">
<ele>143.56</ele>
<time>1970-01-01T00:00:01Z</time>
<link ></link></trkpt>
<trkpt lat="56.44795" lon="37.549298">
<ele>144.68</ele>
<time>1970-01-01T00:00:01Z</time>
<link ></link></trkpt>
<trkpt lat="56.447714" lon="37.548847">
<ele>144.0</ele>
<time>1970-01-01T00:00:01Z</time>
<link ></link></trkpt>
<trkpt lat="56.447629" lon="37.548826">
<ele>143.52</ele>
<time>1970-01-01T00:00:01Z</time>
<link ></link></trkpt>
<trkpt lat="56.447478" lon="37.54889">
<ele>143.28000000000003</ele>
<time>1970-01-01T00:00:01Z</time>
<link ></link></trkpt>
<trkpt lat="56.447392" lon="37.549019">
<ele>143.60000000000002</ele>
<time>1970-01-01T00:00:01Z</time>
<link ></link></trkpt>
<trkpt lat="56.447199" lon="37.549169">
<ele>143.76000000000005</ele>
<time>1970-01-01T00:00:01Z</time>
<link ></link></trkpt>
<trkpt lat="56.446749" lon="37.54919">
<ele>145.04000000000002</ele>
<time>1970-01-01T00:00:01Z</time>
<link ></link></trkpt>
<trkpt lat="56.446148" lon="37.548954">
<ele>145.28000000000003</ele>
<time>1970-01-01T00:00:01Z</time>
<link ></link></trkpt>
<trkpt lat="56.445676" lon="37.550328">
<ele>148.08</ele>
<time>1970-01-01T00:00:01Z</time>
<link ></link></trkpt>
<trkpt lat="56.444667" lon="37.551658">
<ele>149.08</ele>
<time>1970-01-01T00:00:01Z</time>
<link ></link></trkpt>
<trkpt lat="56.443616" lon="37.552752">
<ele>150.04000000000002</ele>
<time>1970-01-01T00:00:01Z</time>
<link ></link></trkpt>
<trkpt lat="56.44353" lon="37.553139">
<ele>149.08</ele>
<time>1970-01-01T00:00:01Z</time>
<link ></link></trkpt>
<trkpt lat="56.442822" lon="37.554576">
<ele>146.32</ele>
<time>1970-01-01T00:00:01Z</time>
<link ></link></trkpt>
<trkpt lat="56.442672" lon="37.555241">
<ele>144.48000000000002</ele>
<time>1970-01-01T00:00:01Z</time>
<link ></link></trkpt>
<trkpt lat="56.4425" lon="37.556357">
<ele>142.24</ele>
<time>1970-01-01T00:00:01Z</time>
<link ></link></trkpt>
<trkpt lat="56.442178" lon="37.557065">
<ele>142.32000000000002</ele>
<time>1970-01-01T00:00:01Z</time>
<link ></link></trkpt>
<trkpt lat="56.441792" lon="37.557216">
<ele>142.48000000000002</ele>
<time>1970-01-01T00:00:01Z</time>
<link ></link></trkpt>
<trkpt lat="56.440397" lon="37.558009">
<ele>143.68</ele>
<time>1970-01-01T00:00:01Z</time>
<link ></link></trkpt>
<trkpt lat="56.439904" lon="37.557816">
<ele>145.16000000000003</ele>
<time>1970-01-01T00:00:01Z</time>
<link ></link></trkpt>
<trkpt lat="56.439668" lon="37.557795">
<ele>145.8</ele>
<time>1970-01-01T00:00:01Z</time>
<link ></link></trkpt>
<trkpt lat="56.439088" lon="37.558009">
<ele>147.12000000000003</ele>
<time>1970-01-01T00:00:01Z</time>
<link ></link></trkpt>
<trkpt lat="56.437286" lon="37.559426">
<ele>146.48000000000002</ele>
<time>1970-01-01T00:00:01Z</time>
<link ></link></trkpt>
<trkpt lat="56.437179" lon="37.559597">
<ele>146.48000000000002</ele>
<time>1970-01-01T00:00:01Z</time>
<link ></link></trkpt>
<trkpt lat="56.437114" lon="37.559919">
<ele>145.68</ele>
<time>1970-01-01T00:00:01Z</time>
<link ></link></trkpt>
<trkpt lat="56.437114" lon="37.561056">
<ele>144.2</ele>
<time>1970-01-01T00:00:01Z</time>
<link ></link></trkpt>
<trkpt lat="56.437071" lon="37.56125">
<ele>142.6</ele>
<time>1970-01-01T00:00:01Z</time>
<link ></link></trkpt>
<trkpt lat="56.439518" lon="37.567623">
<ele>140.07999999999998</ele>
<time>1970-01-01T00:00:01Z</time>
<link ></link></trkpt>
<trkpt lat="56.440011" lon="37.569082">
<ele>138.72</ele>
<time>1970-01-01T00:00:01Z</time>
<link ></link></trkpt>
<trkpt lat="56.440161" lon="37.570412">
<ele>138.20000000000002</ele>
<time>1970-01-01T00:00:01Z</time>
<link ></link></trkpt>
<trkpt lat="56.44029" lon="37.572644">
<ele>137.4</ele>
<time>1970-01-01T00:00:01Z</time>
<link ></link></trkpt>
<trkpt lat="56.440569" lon="37.575734">
<ele>136.56000000000003</ele>
<time>1970-01-01T00:00:01Z</time>
<link ></link></trkpt>
<trkpt lat="56.440934" lon="37.578909">
<ele>134.44</ele>
<time>1970-01-01T00:00:01Z</time>
<link ></link></trkpt>
<trkpt lat="56.441256" lon="37.580969">
<ele>133.12000000000003</ele>
<time>1970-01-01T00:00:01Z</time>
<link ></link></trkpt>
<trkpt lat="56.441213" lon="37.581119">
<ele>132.16000000000003</ele>
<time>1970-01-01T00:00:01Z</time>
<link ></link></trkpt>
<trkpt lat="56.441105" lon="37.581205">
<ele>132.0</ele>
<time>1970-01-01T00:00:01Z</time>
<link ></link></trkpt>
<trkpt lat="56.440998" lon="37.581205">
<ele>131.84000000000003</ele>
<time>1970-01-01T00:00:01Z</time>
<link ></link></trkpt>
<trkpt lat="56.440891" lon="37.581291">
<ele>132.0</ele>
<time>1970-01-01T00:00:01Z</time>
<link ></link></trkpt>
<trkpt lat="56.440676" lon="37.581377">
<ele>131.96</ele>
<time>1970-01-01T00:00:01Z</time>
<link ></link></trkpt>
<trkpt lat="56.440269" lon="37.582064">
<ele>132.51999999999998</ele>
<time>1970-01-01T00:00:01Z</time>
<link ></link></trkpt>
<trkpt lat="56.440118" lon="37.582192">
<ele>132.68</ele>
<time>1970-01-01T00:00:01Z</time>
<link ></link></trkpt>
<trkpt lat="56.439882" lon="37.582106">
<ele>133.0</ele>
<time>1970-01-01T00:00:01Z</time>
<link ></link></trkpt>
<trkpt lat="56.439646" lon="37.582171">
<ele>132.84000000000003</ele>
<time>1970-01-01T00:00:01Z</time>
<link ></link></trkpt>
<trkpt lat="56.439453" lon="37.582364">
<ele>133.16000000000003</ele>
<time>1970-01-01T00:00:01Z</time>
<link ></link></trkpt>
<trkpt lat="56.438981" lon="37.582471">
<ele>133.60000000000002</ele>
<time>1970-01-01T00:00:01Z</time>
<link ></link></trkpt>
<trkpt lat="56.438509" lon="37.582793">
<ele>134.84000000000003</ele>
<time>1970-01-01T00:00:01Z</time>
<link ></link></trkpt>
<trkpt lat="56.438123" lon="37.583351">
<ele>135.88000000000002</ele>
<time>1970-01-01T00:00:01Z</time>
<link ></link></trkpt>
<trkpt lat="56.437994" lon="37.58363">
<ele>136.36</ele>
<time>1970-01-01T00:00:01Z</time>
<link ></link></trkpt>
<trkpt lat="56.437672" lon="37.584746">
<ele>136.36</ele>
<time>1970-01-01T00:00:01Z</time>
<link ></link></trkpt>
<trkpt lat="56.437436" lon="37.586226">
<ele>135.64</ele>
<time>1970-01-01T00:00:01Z</time>
<link ></link></trkpt>
<trkpt lat="56.437114" lon="37.586806">
<ele>135.16000000000003</ele>
<time>1970-01-01T00:00:01Z</time>
<link ></link></trkpt>
<trkpt lat="56.436857" lon="37.58687">
<ele>134.68</ele>
<time>1970-01-01T00:00:01Z</time>
<link ></link></trkpt>
<trkpt lat="56.436621" lon="37.586849">
<ele>134.32</ele>
<time>1970-01-01T00:00:01Z</time>
<link ></link></trkpt>
<trkpt lat="56.436299" lon="37.586999">
<ele>134.16</ele>
<time>1970-01-01T00:00:01Z</time>
<link ></link></trkpt>
<trkpt lat="56.43602" lon="37.586827">
<ele>134.16000000000003</ele>
<time>1970-01-01T00:00:01Z</time>
<link ></link></trkpt>
<trkpt lat="56.435848" lon="37.586913">
<ele>134.32</ele>
<time>1970-01-01T00:00:01Z</time>
<link ></link></trkpt>
<trkpt lat="56.435698" lon="37.587213">
<ele>134.68</ele>
<time>1970-01-01T00:00:01Z</time>
<link ></link></trkpt>
<trkpt lat="56.435441" lon="37.587492">
<ele>134.68</ele>
<time>1970-01-01T00:00:01Z</time>
<link ></link></trkpt>
<trkpt lat="56.435505" lon="37.588844">
<ele>134.68</ele>
<time>1970-01-01T00:00:01Z</time>
<link ></link></trkpt>
<trkpt lat="56.435634" lon="37.590089">
<ele>134.48000000000002</ele>
<time>1970-01-01T00:00:01Z</time>
<link ></link></trkpt>
<trkpt lat="56.435634" lon="37.590668">
<ele>134.00000000000003</ele>
<time>1970-01-01T00:00:01Z</time>
<link ></link></trkpt>
<trkpt lat="56.435805" lon="37.591998">
<ele>133.72000000000003</ele>
<time>1970-01-01T00:00:01Z</time>
<link ></link></trkpt>
<trkpt lat="56.436277" lon="37.597856">
<ele>132.8</ele>
<time>1970-01-01T00:00:01Z</time>
<link ></link></trkpt>
<trkpt lat="56.436556" lon="37.602041">
<ele>132.48000000000002</ele>
<time>1970-01-01T00:00:01Z</time>
<link ></link></trkpt>
<trkpt lat="56.436471" lon="37.602384">
<ele>132.0</ele>
<time>1970-01-01T00:00:01Z</time>
<link ></link></trkpt>
<trkpt lat="56.436256" lon="37.602792">
<ele>132.0</ele>
<time>1970-01-01T00:00:01Z</time>
<link ></link></trkpt>
<trkpt lat="56.436106" lon="37.602899">
<ele>132.16000000000003</ele>
<time>1970-01-01T00:00:01Z</time>
<link ></link></trkpt>
<trkpt lat="56.436063" lon="37.603114">
<ele>132.32000000000002</ele>
<time>1970-01-01T00:00:01Z</time>
<link ></link></trkpt>
<trkpt lat="56.436084" lon="37.60335">
<ele>133.00000000000003</ele>
<time>1970-01-01T00:00:01Z</time>
<link ></link></trkpt>
<trkpt lat="56.436192" lon="37.603671">
<ele>133.0</ele>
<time>1970-01-01T00:00:01Z</time>
<link ></link></trkpt>
<trkpt lat="56.436599" lon="37.604422">
<ele>133.4</ele>
<time>1970-01-01T00:00:01Z</time>
<link ></link></trkpt>
<trkpt lat="56.436749" lon="37.604809">
<ele>132.96</ele>
<time>1970-01-01T00:00:01Z</time>
<link ></link></trkpt>
<trkpt lat="56.436921" lon="37.605495">
<ele>133.44</ele>
<time>1970-01-01T00:00:01Z</time>
<link ></link></trkpt>
<trkpt lat="56.437522" lon="37.60659">
<ele>134.32</ele>
<time>1970-01-01T00:00:01Z</time>
<link ></link></trkpt>
<trkpt lat="56.437672" lon="37.607255">
<ele>136.16000000000003</ele>
<time>1970-01-01T00:00:01Z</time>
<link ></link></trkpt>
<trkpt lat="56.437565" lon="37.607791">
<ele>138.48000000000002</ele>
<time>1970-01-01T00:00:01Z</time>
<link ></link></trkpt>
<trkpt lat="56.437071" lon="37.608414">
<ele>140.68</ele>
<time>1970-01-01T00:00:01Z</time>
<link ></link></trkpt>
<trkpt lat="56.437028" lon="37.609572">
<ele>142.88000000000002</ele>
<time>1970-01-01T00:00:01Z</time>
<link ></link></trkpt>
<trkpt lat="56.436363" lon="37.610688">
<ele>144.00000000000003</ele>
<time>1970-01-01T00:00:01Z</time>
<link ></link></trkpt>
<trkpt lat="56.436299" lon="37.61234">
<ele>145.04000000000002</ele>
<time>1970-01-01T00:00:01Z</time>
<link ></link></trkpt>
<trkpt lat="56.43632" lon="37.613671">
<ele>145.32000000000002</ele>
<time>1970-01-01T00:00:01Z</time>
<link ></link></trkpt>
<trkpt lat="56.436084" lon="37.614593">
<ele>145.8</ele>
<time>1970-01-01T00:00:01Z</time>
<link ></link></trkpt>
<trkpt lat="56.435784" lon="37.615323">
<ele>146.84000000000003</ele>
<time>1970-01-01T00:00:01Z</time>
<link ></link></trkpt>
<trkpt lat="56.434475" lon="37.616138">
<ele>147.16000000000003</ele>
<time>1970-01-01T00:00:01Z</time>
<link ></link></trkpt>
<trkpt lat="56.433037" lon="37.618563">
<ele>148.24</ele>
<time>1970-01-01T00:00:01Z</time>
<link ></link></trkpt>
<trkpt lat="56.431771" lon="37.620945">
<ele>148.28000000000003</ele>
<time>1970-01-01T00:00:01Z</time>
<link ></link></trkpt>
<trkpt lat="56.430934" lon="37.621567">
<ele>149.12000000000003</ele>
<time>1970-01-01T00:00:01Z</time>
<link ></link></trkpt>
<trkpt lat="56.430548" lon="37.62161">
<ele>150.36</ele>
<time>1970-01-01T00:00:01Z</time>
<link ></link></trkpt>
<trkpt lat="56.430098" lon="37.62131">
<ele>151.48000000000002</ele>
<time>1970-01-01T00:00:01Z</time>
<link ></link></trkpt>
<trkpt lat="56.429626" lon="37.621181">
<ele>152.72000000000003</ele>
<time>1970-01-01T00:00:01Z</time>
<link ></link></trkpt>
<trkpt lat="56.429239" lon="37.620966">
<ele>153.04000000000002</ele>
<time>1970-01-01T00:00:01Z</time>
<link ></link></trkpt>
<trkpt lat="56.428853" lon="37.620172">
<ele>152.96000000000004</ele>
<time>1970-01-01T00:00:01Z</time>
<link ></link></trkpt>
<trkpt lat="56.428145" lon="37.619936">
<ele>153.0</ele>
<time>1970-01-01T00:00:01Z</time>
<link ></link></trkpt>
<trkpt lat="56.42763" lon="37.620151">
<ele>152.68000000000004</ele>
<time>1970-01-01T00:00:01Z</time>
<link ></link></trkpt>
<trkpt lat="56.427308" lon="37.62058">
<ele>152.36</ele>
<time>1970-01-01T00:00:01Z</time>
<link ></link></trkpt>
<trkpt lat="56.427115" lon="37.621353">
<ele>151.52</ele>
<time>1970-01-01T00:00:01Z</time>
<link ></link></trkpt>
<trkpt lat="56.427051" lon="37.622189">
<ele>150.8</ele>
<time>1970-01-01T00:00:01Z</time>
<link ></link></trkpt>
<trkpt lat="56.427072" lon="37.623284">
<ele>152.2</ele>
<time>1970-01-01T00:00:01Z</time>
<link ></link></trkpt>
<trkpt lat="56.427029" lon="37.62397">
<ele>154.52</ele>
<time>1970-01-01T00:00:01Z</time>
<link ></link></trkpt>
<trkpt lat="56.426557" lon="37.627468">
<ele>159.0</ele>
<time>1970-01-01T00:00:01Z</time>
<link ></link></trkpt>
<trkpt lat="56.426192" lon="37.628562">
<ele>160.64000000000004</ele>
<time>1970-01-01T00:00:01Z</time>
<link ></link></trkpt>
<trkpt lat="56.425849" lon="37.629442">
<ele>162.20000000000002</ele>
<time>1970-01-01T00:00:01Z</time>
<link ></link></trkpt>
<trkpt lat="56.425677" lon="37.630601">
<ele>161.20000000000005</ele>
<time>1970-01-01T00:00:01Z</time>
<link ></link></trkpt>
<trkpt lat="56.425334" lon="37.631802">
<ele>161.52000000000004</ele>
<time>1970-01-01T00:00:01Z</time>
<link ></link></trkpt>
<trkpt lat="56.424647" lon="37.633047">
<ele>161.40000000000003</ele>
<time>1970-01-01T00:00:01Z</time>
<link ></link></trkpt>
<trkpt lat="56.424047" lon="37.63294">
<ele>161.16000000000003</ele>
<time>1970-01-01T00:00:01Z</time>
<link ></link></trkpt>
<trkpt lat="56.423746" lon="37.632747">
<ele>160.68000000000004</ele>
<time>1970-01-01T00:00:01Z</time>
<link ></link></trkpt>
<trkpt lat="56.423038" lon="37.631974">
<ele>159.48000000000002</ele>
<time>1970-01-01T00:00:01Z</time>
<link ></link></trkpt>
<trkpt lat="56.422673" lon="37.631631">
<ele>158.84000000000003</ele>
<time>1970-01-01T00:00:01Z</time>
<link ></link></trkpt>
<trkpt lat="56.422008" lon="37.631223">
<ele>157.68000000000004</ele>
<time>1970-01-01T00:00:01Z</time>
<link ></link></trkpt>
<trkpt lat="56.421236" lon="37.630043">
<ele>157.48000000000002</ele>
<time>1970-01-01T00:00:01Z</time>
<link ></link></trkpt>
<trkpt lat="56.419819" lon="37.62867">
<ele>157.08000000000004</ele>
<time>1970-01-01T00:00:01Z</time>
<link ></link></trkpt>
<trkpt lat="56.417888" lon="37.627146">
<ele>157.88000000000002</ele>
<time>1970-01-01T00:00:01Z</time>
<link ></link></trkpt>
<trkpt lat="56.417824" lon="37.627125">
<ele>158.20000000000002</ele>
<time>1970-01-01T00:00:01Z</time>
<link ></link></trkpt>
<trkpt lat="56.417395" lon="37.627468">
<ele>158.48000000000002</ele>
<time>1970-01-01T00:00:01Z</time>
<link ></link></trkpt>
<trkpt lat="56.417116" lon="37.627511">
<ele>158.52</ele>
<time>1970-01-01T00:00:01Z</time>
<link ></link></trkpt>
<trkpt lat="56.416923" lon="37.627447">
<ele>158.16000000000003</ele>
<time>1970-01-01T00:00:01Z</time>
<link ></link></trkpt>
<trkpt lat="56.41688" lon="37.627339">
<ele>158.32000000000002</ele>
<time>1970-01-01T00:00:01Z</time>
<link ></link></trkpt>
<trkpt lat="56.416687" lon="37.627275">
<ele>158.32</ele>
<time>1970-01-01T00:00:01Z</time>
<link ></link></trkpt>
<trkpt lat="56.416172" lon="37.627253">
<ele>159.16000000000003</ele>
<time>1970-01-01T00:00:01Z</time>
<link ></link></trkpt>
<trkpt lat="56.416" lon="37.627103">
<ele>159.8</ele>
<time>1970-01-01T00:00:01Z</time>
<link ></link></trkpt>
<trkpt lat="56.415678" lon="37.626953">
<ele>161.04000000000002</ele>
<time>1970-01-01T00:00:01Z</time>
<link ></link></trkpt>
<trkpt lat="56.415528" lon="37.625644">
<ele>162.16</ele>
<time>1970-01-01T00:00:01Z</time>
<link ></link></trkpt>
<trkpt lat="56.415185" lon="37.626073">
<ele>163.28</ele>
<time>1970-01-01T00:00:01Z</time>
<link ></link></trkpt>
<trkpt lat="56.414906" lon="37.62691">
<ele>165.04000000000002</ele>
<time>1970-01-01T00:00:01Z</time>
<link ></link></trkpt>
<trkpt lat="56.414627" lon="37.627361">
<ele>166.64000000000001</ele>
<time>1970-01-01T00:00:01Z</time>
<link ></link></trkpt>
<trkpt lat="56.414348" lon="37.62824">
<ele>168.8</ele>
<time>1970-01-01T00:00:01Z</time>
<link ></link></trkpt>
<trkpt lat="56.414155" lon="37.628434">
<ele>170.88</ele>
<time>1970-01-01T00:00:01Z</time>
<link ></link></trkpt>
<trkpt lat="56.413704" lon="37.629313">
<ele>172.36</ele>
<time>1970-01-01T00:00:01Z</time>
<link ></link></trkpt>
<trkpt lat="56.413125" lon="37.630107">
<ele>172.56000000000003</ele>
<time>1970-01-01T00:00:01Z</time>
<link ></link></trkpt>
<trkpt lat="56.412824" lon="37.630129">
<ele>171.60000000000002</ele>
<time>1970-01-01T00:00:01Z</time>
<link ></link></trkpt>
<trkpt lat="56.411944" lon="37.6297">
<ele>169.28000000000003</ele>
<time>1970-01-01T00:00:01Z</time>
<link ></link></trkpt>
<trkpt lat="56.411472" lon="37.629421">
<ele>167.60000000000002</ele>
<time>1970-01-01T00:00:01Z</time>
<link ></link></trkpt>
<trkpt lat="56.411279" lon="37.629442">
<ele>166.32000000000002</ele>
<time>1970-01-01T00:00:01Z</time>
<link ></link></trkpt>
<trkpt lat="56.411258" lon="37.629571">
<ele>166.48000000000002</ele>
<time>1970-01-01T00:00:01Z</time>
<link ></link></trkpt>
<trkpt lat="56.411" lon="37.629979">
<ele>166.96</ele>
<time>1970-01-01T00:00:01Z</time>
<link ></link></trkpt>
<trkpt lat="56.410936" lon="37.630343">
<ele>167.24</ele>
<time>1970-01-01T00:00:01Z</time>
<link ></link></trkpt>
<trkpt lat="56.410957" lon="37.630772">
<ele>166.92000000000002</ele>
<time>1970-01-01T00:00:01Z</time>
<link ></link></trkpt>
<trkpt lat="56.410807" lon="37.631137">
<ele>165.76</ele>
<time>1970-01-01T00:00:01Z</time>
<link ></link></trkpt>
<trkpt lat="56.410743" lon="37.631459">
<ele>165.12</ele>
<time>1970-01-01T00:00:01Z</time>
<link ></link></trkpt>
<trkpt lat="56.410786" lon="37.631824">
<ele>165.96</ele>
<time>1970-01-01T00:00:01Z</time>
<link ></link></trkpt>
<trkpt lat="56.410807" lon="37.632747">
<ele>167.40000000000003</ele>
<time>1970-01-01T00:00:01Z</time>
<link ></link></trkpt>
<trkpt lat="56.410872" lon="37.633026">
<ele>170.12</ele>
<time>1970-01-01T00:00:01Z</time>
<link ></link></trkpt>
<trkpt lat="56.411043" lon="37.633304">
<ele>171.08000000000004</ele>
<time>1970-01-01T00:00:01Z</time>
<link ></link></trkpt>
<trkpt lat="56.411086" lon="37.63354">
<ele>171.64000000000001</ele>
<time>1970-01-01T00:00:01Z</time>
<link ></link></trkpt>
<trkpt lat="56.411301" lon="37.633948">
<ele>171.64000000000004</ele>
<time>1970-01-01T00:00:01Z</time>
<link ></link></trkpt>
<trkpt lat="56.411472" lon="37.634055">
<ele>171.16000000000003</ele>
<time>1970-01-01T00:00:01Z</time>
<link ></link></trkpt>
<trkpt lat="56.412052" lon="37.634098">
<ele>171.40000000000003</ele>
<time>1970-01-01T00:00:01Z</time>
<link ></link></trkpt>
<trkpt lat="56.412653" lon="37.634249">
<ele>170.64000000000001</ele>
<time>1970-01-01T00:00:01Z</time>
<link ></link></trkpt>
<trkpt lat="56.41321" lon="37.634635">
<ele>169.52</ele>
<time>1970-01-01T00:00:01Z</time>
<link ></link></trkpt>
<trkpt lat="56.413125" lon="37.634978">
<ele>168.40000000000003</ele>
<time>1970-01-01T00:00:01Z</time>
<link ></link></trkpt>
<trkpt lat="56.412931" lon="37.635279">
<ele>165.92000000000002</ele>
<time>1970-01-01T00:00:01Z</time>
<link ></link></trkpt>
<trkpt lat="56.412481" lon="37.63545">
<ele>165.04000000000002</ele>
<time>1970-01-01T00:00:01Z</time>
<link ></link></trkpt>
<trkpt lat="56.410593" lon="37.635686">
<ele>162.96000000000004</ele>
<time>1970-01-01T00:00:01Z</time>
<link ></link></trkpt>
<trkpt lat="56.410142" lon="37.635622">
<ele>162.48000000000002</ele>
<time>1970-01-01T00:00:01Z</time>
<link ></link></trkpt>
<trkpt lat="56.409563" lon="37.6353">
<ele>162.32</ele>
<time>1970-01-01T00:00:01Z</time>
<link ></link></trkpt>
<trkpt lat="56.409262" lon="37.634828">
<ele>162.60000000000002</ele>
<time>1970-01-01T00:00:01Z</time>
<link ></link></trkpt>
<trkpt lat="56.408855" lon="37.634892">
<ele>161.48</ele>
<time>1970-01-01T00:00:01Z</time>
<link ></link></trkpt>
<trkpt lat="56.408404" lon="37.634742">
<ele>160.04</ele>
<time>1970-01-01T00:00:01Z</time>
<link ></link></trkpt>
<trkpt lat="56.407481" lon="37.633691">
<ele>155.28</ele>
<time>1970-01-01T00:00:01Z</time>
<link ></link></trkpt>
<trkpt lat="56.407181" lon="37.63442">
<ele>153.8</ele>
<time>1970-01-01T00:00:01Z</time>
<link ></link></trkpt>
<trkpt lat="56.406644" lon="37.636201">
<ele>151.44</ele>
<time>1970-01-01T00:00:01Z</time>
<link ></link></trkpt>
<trkpt lat="56.406451" lon="37.636995">
<ele>152.96</ele>
<time>1970-01-01T00:00:01Z</time>
<link ></link></trkpt>
<trkpt lat="56.406237" lon="37.638519">
<ele>154.64000000000001</ele>
<time>1970-01-01T00:00:01Z</time>
<link ></link></trkpt>
<trkpt lat="56.404842" lon="37.638798">
<ele>157.48000000000002</ele>
<time>1970-01-01T00:00:01Z</time>
<link ></link></trkpt>
<trkpt lat="56.404842" lon="37.640471">
<ele>160.20000000000002</ele>
<time>1970-01-01T00:00:01Z</time>
<link ></link></trkpt>
<trkpt lat="56.404928" lon="37.642875">
<ele>162.40000000000003</ele>
<time>1970-01-01T00:00:01Z</time>
<link ></link></trkpt>
<trkpt lat="56.40482" lon="37.643175">
<ele>162.88000000000002</ele>
<time>1970-01-01T00:00:01Z</time>
<link ></link></trkpt>
<trkpt lat="56.404305" lon="37.642789">
<ele>161.44000000000003</ele>
<time>1970-01-01T00:00:01Z</time>
<link ></link></trkpt>
<trkpt lat="56.403984" lon="37.642703">
<ele>158.40000000000003</ele>
<time>1970-01-01T00:00:01Z</time>
<link ></link></trkpt>
<trkpt lat="56.402954" lon="37.642166">
<ele>154.24</ele>
<time>1970-01-01T00:00:01Z</time>
<link ></link></trkpt>
<trkpt lat="56.40216" lon="37.641694">
<ele>151.28000000000003</ele>
<time>1970-01-01T00:00:01Z</time>
<link ></link></trkpt>
<trkpt lat="56.400357" lon="37.640343">
<ele>150.24</ele>
<time>1970-01-01T00:00:01Z</time>
<link ></link></trkpt>
<trkpt lat="56.400229" lon="37.640428">
<ele>150.88000000000002</ele>
<time>1970-01-01T00:00:01Z</time>
<link ></link></trkpt>
<trkpt lat="56.399907" lon="37.640407">
<ele>155.36</ele>
<time>1970-01-01T00:00:01Z</time>
<link ></link></trkpt>
<trkpt lat="56.399542" lon="37.640235">
<ele>158.07999999999998</ele>
<time>1970-01-01T00:00:01Z</time>
<link ></link></trkpt>
<trkpt lat="56.397954" lon="37.638712">
<ele>163.68</ele>
<time>1970-01-01T00:00:01Z</time>
<link ></link></trkpt>
<trkpt lat="56.396194" lon="37.642531">
<ele>164.51999999999998</ele>
<time>1970-01-01T00:00:01Z</time>
<link ></link></trkpt>
<trkpt lat="56.39392" lon="37.639634">
<ele>166.56</ele>
<time>1970-01-01T00:00:01Z</time>
<link ></link></trkpt>
<trkpt lat="56.3898" lon="37.634678">
<ele>165.32</ele>
<time>1970-01-01T00:00:01Z</time>
<link ></link></trkpt>
<trkpt lat="56.38965" lon="37.634442">
<ele>165.16000000000003</ele>
<time>1970-01-01T00:00:01Z</time>
<link ></link></trkpt>
<trkpt lat="56.388792" lon="37.633605">
<ele>164.32000000000005</ele>
<time>1970-01-01T00:00:01Z</time>
<link ></link></trkpt>
<trkpt lat="56.388663" lon="37.633605">
<ele>164.64000000000004</ele>
<time>1970-01-01T00:00:01Z</time>
<link ></link></trkpt>
<trkpt lat="56.388491" lon="37.633755">
<ele>164.96000000000004</ele>
<time>1970-01-01T00:00:01Z</time>
<link ></link></trkpt>
<trkpt lat="56.388105" lon="37.633304">
<ele>166.52</ele>
<time>1970-01-01T00:00:01Z</time>
<link ></link></trkpt>
<trkpt lat="56.387869" lon="37.632875">
<ele>168.60000000000002</ele>
<time>1970-01-01T00:00:01Z</time>
<link ></link></trkpt>
<trkpt lat="56.38729" lon="37.632189">
<ele>171.27999999999997</ele>
<time>1970-01-01T00:00:01Z</time>
<link ></link></trkpt>
<trkpt lat="56.382698" lon="37.627511">
<ele>174.76</ele>
<time>1970-01-01T00:00:01Z</time>
<link ></link></trkpt>
<trkpt lat="56.382504" lon="37.627017">
<ele>176.68</ele>
<time>1970-01-01T00:00:01Z</time>
<link ></link></trkpt>
<trkpt lat="56.382268" lon="37.626052">
<ele>178.08</ele>
<time>1970-01-01T00:00:01Z</time>
<link ></link></trkpt>
<trkpt lat="56.3792" lon="37.628713">
<ele>177.88</ele>
<time>1970-01-01T00:00:01Z</time>
<link ></link></trkpt>
<trkpt lat="56.378492" lon="37.629378">
<ele>177.08</ele>
<time>1970-01-01T00:00:01Z</time>
<link ></link></trkpt>
<trkpt lat="56.377805" lon="37.630086">
<ele>177.0</ele>
<time>1970-01-01T00:00:01Z</time>
<link ></link></trkpt>
<trkpt lat="56.377719" lon="37.630064">
<ele>176.68</ele>
<time>1970-01-01T00:00:01Z</time>
<link ></link></trkpt>
<trkpt lat="56.377612" lon="37.630107">
<ele>177.48</ele>
<time>1970-01-01T00:00:01Z</time>
<link ></link></trkpt>
<trkpt lat="56.376346" lon="37.631502">
<ele>177.8</ele>
<time>1970-01-01T00:00:01Z</time>
<link ></link></trkpt>
<trkpt lat="56.375853" lon="37.62985">
<ele>178.72000000000003</ele>
<time>1970-01-01T00:00:01Z</time>
<link ></link></trkpt>
<trkpt lat="56.375531" lon="37.629721">
<ele>178.84000000000003</ele>
<time>1970-01-01T00:00:01Z</time>
<link ></link></trkpt>
<trkpt lat="56.375338" lon="37.629678">
<ele>179.00000000000006</ele>
<time>1970-01-01T00:00:01Z</time>
<link ></link></trkpt>
<trkpt lat="56.375145" lon="37.629742">
<ele>178.68000000000004</ele>
<time>1970-01-01T00:00:01Z</time>
<link ></link></trkpt>
<trkpt lat="56.374887" lon="37.629506">
<ele>178.64000000000004</ele>
<time>1970-01-01T00:00:01Z</time>
<link ></link></trkpt>
<trkpt lat="56.373793" lon="37.629464">
<ele>178.8</ele>
<time>1970-01-01T00:00:01Z</time>
<link ></link></trkpt>
<trkpt lat="56.373192" lon="37.629614">
<ele>179.36</ele>
<time>1970-01-01T00:00:01Z</time>
<link ></link></trkpt>
<trkpt lat="56.372849" lon="37.629871">
<ele>179.35999999999999</ele>
<time>1970-01-01T00:00:01Z</time>
<link ></link></trkpt>
<trkpt lat="56.372655" lon="37.629957">
<ele>179.68</ele>
<time>1970-01-01T00:00:01Z</time>
<link ></link></trkpt>
<trkpt lat="56.372441" lon="37.63">
<ele>179.27999999999997</ele>
<time>1970-01-01T00:00:01Z</time>
<link ></link></trkpt>
<trkpt lat="56.372226" lon="37.629936">
<ele>179.68</ele>
<time>1970-01-01T00:00:01Z</time>
<link ></link></trkpt>
<trkpt lat="56.372076" lon="37.629721">
<ele>180.0</ele>
<time>1970-01-01T00:00:01Z</time>
<link ></link></trkpt>
<trkpt lat="56.371904" lon="37.629292">
<ele>180.64</ele>
<time>1970-01-01T00:00:01Z</time>
<link ></link></trkpt>
<trkpt lat="56.371261" lon="37.627146">
<ele>181.68</ele>
<time>1970-01-01T00:00:01Z</time>
<link ></link></trkpt>
<trkpt lat="56.371025" lon="37.625837">
<ele>182.16000000000003</ele>
<time>1970-01-01T00:00:01Z</time>
<link ></link></trkpt>
<trkpt lat="56.370917" lon="37.625494">
<ele>182.88</ele>
<time>1970-01-01T00:00:01Z</time>
<link ></link></trkpt>
<trkpt lat="56.370724" lon="37.625472">
<ele>182.84</ele>
<time>1970-01-01T00:00:01Z</time>
<link ></link></trkpt>
<trkpt lat="56.370166" lon="37.626202">
<ele>182.8</ele>
<time>1970-01-01T00:00:01Z</time>
<link ></link></trkpt>
<trkpt lat="56.369952" lon="37.626352">
<ele>182.84000000000003</ele>
<time>1970-01-01T00:00:01Z</time>
<link ></link></trkpt>
<trkpt lat="56.369802" lon="37.626331">
<ele>183.32000000000002</ele>
<time>1970-01-01T00:00:01Z</time>
<link ></link></trkpt>
<trkpt lat="56.369501" lon="37.626395">
<ele>183.96</ele>
<time>1970-01-01T00:00:01Z</time>
<link ></link></trkpt>
<trkpt lat="56.368922" lon="37.626395">
<ele>185.36</ele>
<time>1970-01-01T00:00:01Z</time>
<link ></link></trkpt>
<trkpt lat="56.368063" lon="37.626674">
<ele>186.16</ele>
<time>1970-01-01T00:00:01Z</time>
<link ></link></trkpt>
<trkpt lat="56.367463" lon="37.626824">
<ele>187.36</ele>
<time>1970-01-01T00:00:01Z</time>
<link ></link></trkpt>
<trkpt lat="56.367205" lon="37.626824">
<ele>187.68</ele>
<time>1970-01-01T00:00:01Z</time>
<link ></link></trkpt>
<trkpt lat="56.367119" lon="37.626932">
<ele>188.64000000000004</ele>
<time>1970-01-01T00:00:01Z</time>
<link ></link></trkpt>
<trkpt lat="56.366755" lon="37.626953">
<ele>189.28000000000003</ele>
<time>1970-01-01T00:00:01Z</time>
<link ></link></trkpt>
<trkpt lat="56.36639" lon="37.626932">
<ele>190.88000000000005</ele>
<time>1970-01-01T00:00:01Z</time>
<link ></link></trkpt>
<trkpt lat="56.366089" lon="37.62661">
<ele>191.68000000000004</ele>
<time>1970-01-01T00:00:01Z</time>
<link ></link></trkpt>
<trkpt lat="56.365768" lon="37.626417">
<ele>192.68000000000004</ele>
<time>1970-01-01T00:00:01Z</time>
<link ></link></trkpt>
<trkpt lat="56.365553" lon="37.626374">
<ele>192.84000000000003</ele>
<time>1970-01-01T00:00:01Z</time>
<link ></link></trkpt>
<trkpt lat="56.365446" lon="37.626502">
<ele>193.0</ele>
<time>1970-01-01T00:00:01Z</time>
<link ></link></trkpt>
<trkpt lat="56.365274" lon="37.626438">
<ele>193.0</ele>
<time>1970-01-01T00:00:01Z</time>
<link ></link></trkpt>
<trkpt lat="56.365081" lon="37.62603">
<ele>193.0</ele>
<time>1970-01-01T00:00:01Z</time>
<link ></link></trkpt>
<trkpt lat="56.364974" lon="37.625708">
<ele>193.0</ele>
<time>1970-01-01T00:00:01Z</time>
<link ></link></trkpt>
<trkpt lat="56.364823" lon="37.625494">
<ele>193.0</ele>
<time>1970-01-01T00:00:01Z</time>
<link ></link></trkpt>
<trkpt lat="56.364673" lon="37.625451">
<ele>193.0</ele>
<time>1970-01-01T00:00:01Z</time>
<link ></link></trkpt>
<trkpt lat="56.36463" lon="37.625344">
<ele>193.32000000000002</ele>
<time>1970-01-01T00:00:01Z</time>
<link ></link></trkpt>
<trkpt lat="56.364566" lon="37.624314">
<ele>194.12</ele>
<time>1970-01-01T00:00:01Z</time>
<link ></link></trkpt>
<trkpt lat="56.36448" lon="37.624142">
<ele>195.48000000000002</ele>
<time>1970-01-01T00:00:01Z</time>
<link ></link></trkpt>
<trkpt lat="56.364244" lon="37.621116">
<ele>197.36</ele>
<time>1970-01-01T00:00:01Z</time>
<link ></link></trkpt>
<trkpt lat="56.364265" lon="37.620602">
<ele>199.0</ele>
<time>1970-01-01T00:00:01Z</time>
<link ></link></trkpt>
<trkpt lat="56.364008" lon="37.618134">
<ele>200.52000000000004</ele>
<time>1970-01-01T00:00:01Z</time>
<link ></link></trkpt>
<trkpt lat="56.364072" lon="37.616954">
<ele>201.20000000000005</ele>
<time>1970-01-01T00:00:01Z</time>
<link ></link></trkpt>
<trkpt lat="56.363922" lon="37.616482">
<ele>201.68000000000004</ele>
<time>1970-01-01T00:00:01Z</time>
<link ></link></trkpt>
<trkpt lat="56.363665" lon="37.61528">
<ele>201.48000000000005</ele>
<time>1970-01-01T00:00:01Z</time>
<link ></link></trkpt>
<trkpt lat="56.362957" lon="37.613671">
<ele>201.52000000000004</ele>
<time>1970-01-01T00:00:01Z</time>
<link ></link></trkpt>
<trkpt lat="56.362699" lon="37.613199">
<ele>201.48000000000002</ele>
<time>1970-01-01T00:00:01Z</time>
<link ></link></trkpt>
<trkpt lat="56.362506" lon="37.613048">
<ele>202.12</ele>
<time>1970-01-01T00:00:01Z</time>
<link ></link></trkpt>
<trkpt lat="56.362334" lon="37.613005">
<ele>203.00000000000003</ele>
<time>1970-01-01T00:00:01Z</time>
<link ></link></trkpt>
<trkpt lat="56.360789" lon="37.611868">
<ele>204.04000000000002</ele>
<time>1970-01-01T00:00:01Z</time>
<link ></link></trkpt>
<trkpt lat="56.360618" lon="37.611697">
<ele>205.64000000000001</ele>
<time>1970-01-01T00:00:01Z</time>
<link ></link></trkpt>
<trkpt lat="56.360467" lon="37.611675">
<ele>206.92000000000002</ele>
<time>1970-01-01T00:00:01Z</time>
<link ></link></trkpt>
<trkpt lat="56.359051" lon="37.611954">
<ele>208.28000000000003</ele>
<time>1970-01-01T00:00:01Z</time>
<link ></link></trkpt>
<trkpt lat="56.358794" lon="37.610774">
<ele>208.60000000000002</ele>
<time>1970-01-01T00:00:01Z</time>
<link ></link></trkpt>
<trkpt lat="56.358686" lon="37.607384">
<ele>208.40000000000003</ele>
<time>1970-01-01T00:00:01Z</time>
<link ></link></trkpt>
<trkpt lat="56.35727" lon="37.607577">
<ele>208.28000000000003</ele>
<time>1970-01-01T00:00:01Z</time>
<link ></link></trkpt>
<trkpt lat="56.35742" lon="37.610001">
<ele>208.88000000000002</ele>
<time>1970-01-01T00:00:01Z</time>
<link ></link></trkpt>
<trkpt lat="56.356755" lon="37.609916">
<ele>210.28000000000003</ele>
<time>1970-01-01T00:00:01Z</time>
<link ></link></trkpt>
<trkpt lat="56.354352" lon="37.609765">
<ele>212.28000000000003</ele>
<time>1970-01-01T00:00:01Z</time>
<link ></link></trkpt>
<trkpt lat="56.353451" lon="37.609658">
<ele>214.40000000000003</ele>
<time>1970-01-01T00:00:01Z</time>
<link ></link></trkpt>
<trkpt lat="56.35315" lon="37.60968">
<ele>216.04000000000008</ele>
<time>1970-01-01T00:00:01Z</time>
<link ></link></trkpt>
<trkpt lat="56.352614" lon="37.609572">
<ele>217.32000000000005</ele>
<time>1970-01-01T00:00:01Z</time>
<link ></link></trkpt>
<trkpt lat="56.351906" lon="37.60925">
<ele>218.00000000000006</ele>
<time>1970-01-01T00:00:01Z</time>
<link ></link></trkpt>
<trkpt lat="56.351434" lon="37.608907">
<ele>218.84000000000003</ele>
<time>1970-01-01T00:00:01Z</time>
<link ></link></trkpt>
<trkpt lat="56.351155" lon="37.608778">
<ele>219.64000000000004</ele>
<time>1970-01-01T00:00:01Z</time>
<link ></link></trkpt>
<trkpt lat="56.350511" lon="37.608263">
<ele>220.68000000000004</ele>
<time>1970-01-01T00:00:01Z</time>
<link ></link></trkpt>
<trkpt lat="56.349503" lon="37.60822">
<ele>221.68</ele>
<time>1970-01-01T00:00:01Z</time>
<link ></link></trkpt>
<trkpt lat="56.349438" lon="37.608006">
<ele>222.96000000000004</ele>
<time>1970-01-01T00:00:01Z</time>
<link ></link></trkpt>
<trkpt lat="56.349352" lon="37.60674">
<ele>224.32</ele>
<time>1970-01-01T00:00:01Z</time>
<link ></link></trkpt>
<trkpt lat="56.349331" lon="37.605646">
<ele>225.88000000000005</ele>
<time>1970-01-01T00:00:01Z</time>
<link ></link></trkpt>
<trkpt lat="56.349181" lon="37.605259">
<ele>227.32000000000002</ele>
<time>1970-01-01T00:00:01Z</time>
<link ></link></trkpt>
<trkpt lat="56.349202" lon="37.604186">
<ele>229.12000000000003</ele>
<time>1970-01-01T00:00:01Z</time>
<link ></link></trkpt>
<trkpt lat="56.349052" lon="37.602384">
<ele>230.52000000000004</ele>
<time>1970-01-01T00:00:01Z</time>
<link ></link></trkpt>
<trkpt lat="56.349073" lon="37.600603">
<ele>231.92000000000002</ele>
<time>1970-01-01T00:00:01Z</time>
<link ></link></trkpt>
<trkpt lat="56.349309" lon="37.597642">
<ele>232.00000000000003</ele>
<time>1970-01-01T00:00:01Z</time>
<link ></link></trkpt>
<trkpt lat="56.349374" lon="37.597513">
<ele>232.0</ele>
<time>1970-01-01T00:00:01Z</time>
<link ></link></trkpt>
<trkpt lat="56.349352" lon="37.597213">
<ele>230.84000000000003</ele>
<time>1970-01-01T00:00:01Z</time>
<link ></link></trkpt>
<trkpt lat="56.349245" lon="37.596955">
<ele>230.36</ele>
<time>1970-01-01T00:00:01Z</time>
<link ></link></trkpt>
<trkpt lat="56.348258" lon="37.596569">
<ele>229.12000000000003</ele>
<time>1970-01-01T00:00:01Z</time>
<link ></link></trkpt>
<trkpt lat="56.347958" lon="37.596676">
<ele>228.68000000000004</ele>
<time>1970-01-01T00:00:01Z</time>
<link ></link></trkpt>
<trkpt lat="56.3477" lon="37.596655">
<ele>227.52</ele>
<time>1970-01-01T00:00:01Z</time>
<link ></link></trkpt>
<trkpt lat="56.347185" lon="37.596247">
<ele>226.84000000000003</ele>
<time>1970-01-01T00:00:01Z</time>
<link ></link></trkpt>
<trkpt lat="56.346949" lon="37.595796">
<ele>225.64000000000004</ele>
<time>1970-01-01T00:00:01Z</time>
<link ></link></trkpt>
<trkpt lat="56.346777" lon="37.595324">
<ele>225.00000000000003</ele>
<time>1970-01-01T00:00:01Z</time>
<link ></link></trkpt>
<trkpt lat="56.34667" lon="37.594895">
<ele>224.32000000000005</ele>
<time>1970-01-01T00:00:01Z</time>
<link ></link></trkpt>
<trkpt lat="56.346649" lon="37.594488">
<ele>224.00000000000006</ele>
<time>1970-01-01T00:00:01Z</time>
<link ></link></trkpt>
<trkpt lat="56.34652" lon="37.594273">
<ele>223.68000000000004</ele>
<time>1970-01-01T00:00:01Z</time>
<link ></link></trkpt>
<trkpt lat="56.34667" lon="37.593264">
<ele>223.32</ele>
<time>1970-01-01T00:00:01Z</time>
<link ></link></trkpt>
<trkpt lat="56.346799" lon="37.592835">
<ele>223.16000000000003</ele>
<time>1970-01-01T00:00:01Z</time>
<link ></link></trkpt>
<trkpt lat="56.347142" lon="37.592277">
<ele>223.16000000000003</ele>
<time>1970-01-01T00:00:01Z</time>
<link ></link></trkpt>
<trkpt lat="56.347292" lon="37.591848">
<ele>223.16</ele>
<time>1970-01-01T00:00:01Z</time>
<link ></link></trkpt>
<trkpt lat="56.347271" lon="37.591376">
<ele>223.36</ele>
<time>1970-01-01T00:00:01Z</time>
<link ></link></trkpt>
<trkpt lat="56.347035" lon="37.590711">
<ele>223.16000000000003</ele>
<time>1970-01-01T00:00:01Z</time>
<link ></link></trkpt>
<trkpt lat="56.346692" lon="37.590003">
<ele>223.16000000000003</ele>
<time>1970-01-01T00:00:01Z</time>
<link ></link></trkpt>
<trkpt lat="56.346413" lon="37.589745">
<ele>222.52000000000004</ele>
<time>1970-01-01T00:00:01Z</time>
<link ></link></trkpt>
<trkpt lat="56.346198" lon="37.589359">
<ele>221.56</ele>
<time>1970-01-01T00:00:01Z</time>
<link ></link></trkpt>
<trkpt lat="56.346391" lon="37.588265">
<ele>219.36000000000004</ele>
<time>1970-01-01T00:00:01Z</time>
<link ></link></trkpt>
<trkpt lat="56.346541" lon="37.587085">
<ele>216.04000000000002</ele>
<time>1970-01-01T00:00:01Z</time>
<link ></link></trkpt>
<trkpt lat="56.34637" lon="37.586183">
<ele>211.40000000000003</ele>
<time>1970-01-01T00:00:01Z</time>
<link ></link></trkpt>
<trkpt lat="56.346069" lon="37.585218">
<ele>206.16000000000003</ele>
<time>1970-01-01T00:00:01Z</time>
<link ></link></trkpt>
<trkpt lat="56.345426" lon="37.583694">
<ele>201.24</ele>
<time>1970-01-01T00:00:01Z</time>
<link ></link></trkpt>
<trkpt lat="56.345104" lon="37.582364">
<ele>197.92000000000002</ele>
<time>1970-01-01T00:00:01Z</time>
<link ></link></trkpt>
<trkpt lat="56.344911" lon="37.581119">
<ele>196.60000000000002</ele>
<time>1970-01-01T00:00:01Z</time>
<link ></link></trkpt>
<trkpt lat="56.344718" lon="37.580604">
<ele>197.12</ele>
<time>1970-01-01T00:00:01Z</time>
<link ></link></trkpt>
<trkpt lat="56.343838" lon="37.579617">
<ele>198.84000000000003</ele>
<time>1970-01-01T00:00:01Z</time>
<link ></link></trkpt>
<trkpt lat="56.34343" lon="37.579059">
<ele>200.36</ele>
<time>1970-01-01T00:00:01Z</time>
<link ></link></trkpt>
<trkpt lat="56.343001" lon="37.578351">
<ele>201.40000000000003</ele>
<time>1970-01-01T00:00:01Z</time>
<link ></link></trkpt>
<trkpt lat="56.3424" lon="37.576957">
<ele>201.20000000000005</ele>
<time>1970-01-01T00:00:01Z</time>
<link ></link></trkpt>
<trkpt lat="56.342336" lon="37.576399">
<ele>200.48000000000005</ele>
<time>1970-01-01T00:00:01Z</time>
<link ></link></trkpt>
<trkpt lat="56.342357" lon="37.575626">
<ele>198.68000000000006</ele>
<time>1970-01-01T00:00:01Z</time>
<link ></link></trkpt>
<trkpt lat="56.341928" lon="37.574468">
<ele>196.12000000000006</ele>
<time>1970-01-01T00:00:01Z</time>
<link ></link></trkpt>
<trkpt lat="56.341456" lon="37.572493">
<ele>191.88000000000005</ele>
<time>1970-01-01T00:00:01Z</time>
<link ></link></trkpt>
<trkpt lat="56.341241" lon="37.570047">
<ele>187.60000000000002</ele>
<time>1970-01-01T00:00:01Z</time>
<link ></link></trkpt>
<trkpt lat="56.34107" lon="37.569918">
<ele>182.60000000000002</ele>
<time>1970-01-01T00:00:01Z</time>
<link ></link></trkpt>
<trkpt lat="56.340962" lon="37.569532">
<ele>179.08</ele>
<time>1970-01-01T00:00:01Z</time>
<link ></link></trkpt>
<trkpt lat="56.340726" lon="37.569017">
<ele>174.00000000000003</ele>
<time>1970-01-01T00:00:01Z</time>
<link ></link></trkpt>
<trkpt lat="56.340276" lon="37.567687">
<ele>171.32000000000002</ele>
<time>1970-01-01T00:00:01Z</time>
<link ></link></trkpt>
<trkpt lat="56.339568" lon="37.566035">
<ele>167.8</ele>
<time>1970-01-01T00:00:01Z</time>
<link ></link></trkpt>
<trkpt lat="56.338902" lon="37.56494">
<ele>167.84</ele>
<time>1970-01-01T00:00:01Z</time>
<link ></link></trkpt>
<trkpt lat="56.338216" lon="37.563996">
<ele>167.40000000000003</ele>
<time>1970-01-01T00:00:01Z</time>
<link ></link></trkpt>
<trkpt lat="56.337229" lon="37.562859">
<ele>167.83999999999997</ele>
<time>1970-01-01T00:00:01Z</time>
<link ></link></trkpt>
<trkpt lat="56.336564" lon="37.562301">
<ele>166.36</ele>
<time>1970-01-01T00:00:01Z</time>
<link ></link></trkpt>
<trkpt lat="56.335705" lon="37.561357">
<ele>163.95999999999998</ele>
<time>1970-01-01T00:00:01Z</time>
<link ></link></trkpt>
<trkpt lat="56.33474" lon="37.559683">
<ele>158.39999999999998</ele>
<time>1970-01-01T00:00:01Z</time>
<link ></link></trkpt>
<trkpt lat="56.33519" lon="37.558524">
<ele>154.32000000000002</ele>
<time>1970-01-01T00:00:01Z</time>
<link ></link></trkpt>
<trkpt lat="56.3371" lon="37.554211">
<ele>148.72</ele>
<time>1970-01-01T00:00:01Z</time>
<link ></link></trkpt>
<trkpt lat="56.340576" lon="37.545779">
<ele>148.52</ele>
<time>1970-01-01T00:00:01Z</time>
<link ></link></trkpt>
<trkpt lat="56.341735" lon="37.542732">
<ele>147.96</ele>
<time>1970-01-01T00:00:01Z</time>
<link ></link></trkpt>
<trkpt lat="56.341971" lon="37.541852">
<ele>150.64</ele>
<time>1970-01-01T00:00:01Z</time>
<link ></link></trkpt>
<trkpt lat="56.342979" lon="37.539019">
<ele>153.0</ele>
<time>1970-01-01T00:00:01Z</time>
<link ></link></trkpt>
<trkpt lat="56.343323" lon="37.537775">
<ele>155.0</ele>
<time>1970-01-01T00:00:01Z</time>
<link ></link></trkpt>
<trkpt lat="56.343194" lon="37.535565">
<ele>156.48000000000002</ele>
<time>1970-01-01T00:00:01Z</time>
<link ></link></trkpt>
<trkpt lat="56.342701" lon="37.530672">
<ele>155.72000000000003</ele>
<time>1970-01-01T00:00:01Z</time>
<link ></link></trkpt>
<trkpt lat="56.342636" lon="37.528891">
<ele>155.08</ele>
<time>1970-01-01T00:00:01Z</time>
<link ></link></trkpt>
<trkpt lat="56.342529" lon="37.527711">
<ele>154.56</ele>
<time>1970-01-01T00:00:01Z</time>
<link ></link></trkpt>
<trkpt lat="56.3424" lon="37.527325">
<ele>155.51999999999998</ele>
<time>1970-01-01T00:00:01Z</time>
<link ></link></trkpt>
<trkpt lat="56.341284" lon="37.525437">
<ele>154.96</ele>
<time>1970-01-01T00:00:01Z</time>
<link ></link></trkpt>
<trkpt lat="56.341263" lon="37.525201">
<ele>152.4</ele>
<time>1970-01-01T00:00:01Z</time>
<link ></link></trkpt>
<trkpt lat="56.342164" lon="37.521038">
<ele>147</ele>
<time>1970-01-01T00:00:01Z</time>
<link ></link></trkpt></trkseg></trk></gpx>