<?xml version="1.0" encoding="UTF-8"?>
<gpx version="1.1" creator="GPS Track Editor" xmlns="http://www.topografix.com/GPX/1/1" xmlns:xsi="http://www.w3.org/2001/XMLSchema-instance" xmlns:gte="http://www.gpstrackeditor.com/xmlschemas/General/1" xmlns:gpxtpx="http://www.garmin.com/xmlschemas/TrackPointExtension/v1" xmlns:gpxx="http://www.garmin.com/xmlschemas/GpxExtensions/v3" targetNamespace="http://www.topografix.com/GPX/1/1" elementFormDefault="qualified" xsi:schemaLocation="http://www.topografix.com/GPX/1/1 http://www.topografix.com/GPX/1/1/gpx.xsd">
<metadata>
	<name>track58.gpx</name>
</metadata>
<trk>
	<name>Усадьбы и святые или Калистовский узел</name>
	<trkseg>
		<trkpt lat="56.162209" lon="37.944986">
			<ele>183.00</ele>
			<time>2020-01-15T03:42:00Z</time>
		</trkpt>
		<trkpt lat="56.164551" lon="37.939364">
			<ele>181.58</ele>
			<time>2020-01-15T03:50:41.27Z</time>
		</trkpt>
		<trkpt lat="56.164990" lon="37.939160">
			<ele>180.43</ele>
			<time>2020-01-15T03:51:41.73Z</time>
		</trkpt>
		<trkpt lat="56.165220" lon="37.938970">
			<ele>179.94</ele>
			<time>2020-01-15T03:52:15.49Z</time>
		</trkpt>
		<trkpt lat="56.165610" lon="37.938560">
			<ele>179.54</ele>
			<time>2020-01-15T03:53:15.74Z</time>
		</trkpt>
		<trkpt lat="56.165840" lon="37.938460">
			<ele>179.40</ele>
			<time>2020-01-15T03:53:47.30Z</time>
		</trkpt>
		<trkpt lat="56.165990" lon="37.938270">
			<ele>179.48</ele>
			<time>2020-01-15T03:54:11.77Z</time>
		</trkpt>
		<trkpt lat="56.166190" lon="37.937880">
			<ele>180.06</ele>
			<time>2020-01-15T03:54:51.13Z</time>
		</trkpt>
		<trkpt lat="56.166220" lon="37.937520">
			<ele>181.22</ele>
			<time>2020-01-15T03:55:18.16Z</time>
		</trkpt>
		<trkpt lat="56.165680" lon="37.936630">
			<ele>182.56</ele>
			<time>2020-01-15T03:56:55.88Z</time>
		</trkpt>
		<trkpt lat="56.164470" lon="37.934460">
			<ele>183.40</ele>
			<time>2020-01-15T04:00:43.87Z</time>
		</trkpt>
		<trkpt lat="56.165450" lon="37.932590">
			<ele>185.08</ele>
			<time>2020-01-15T04:03:54.52Z</time>
		</trkpt>
		<trkpt lat="56.165450" lon="37.929540">
			<ele>186.78</ele>
			<time>2020-01-15T04:07:40.95Z</time>
		</trkpt>
		<trkpt lat="56.166090" lon="37.929320">
			<ele>191.83</ele>
			<time>2020-01-15T04:09:07.84Z</time>
		</trkpt>
		<trkpt lat="56.167110" lon="37.920500">
			<ele>197.59</ele>
			<time>2020-01-15T04:20:16.58Z</time>
		</trkpt>
		<trkpt lat="56.167310" lon="37.919550">
			<ele>205.74</ele>
			<time>2020-01-15T04:21:31.98Z</time>
		</trkpt>
		<trkpt lat="56.167310" lon="37.918900">
			<ele>213.70</ele>
			<time>2020-01-15T04:22:20.23Z</time>
		</trkpt>
		<trkpt lat="56.167910" lon="37.915010">
			<ele>220.86</ele>
			<time>2020-01-15T04:27:19.89Z</time>
		</trkpt>
		<trkpt lat="56.167920" lon="37.914350">
			<ele>227.02</ele>
			<time>2020-01-15T04:28:08.90Z</time>
		</trkpt>
		<trkpt lat="56.168090" lon="37.912850">
			<ele>230.88</ele>
			<time>2020-01-15T04:30:02.54Z</time>
		</trkpt>
		<trkpt lat="56.168090" lon="37.910850">
			<ele>233.93</ele>
			<time>2020-01-15T04:32:31Z</time>
		</trkpt>
		<trkpt lat="56.168260" lon="37.908370">
			<ele>236.00</ele>
			<time>2020-01-15T04:35:36.50Z</time>
		</trkpt>
		<trkpt lat="56.168570" lon="37.907740">
			<ele>237.88</ele>
			<time>2020-01-15T04:36:38.91Z</time>
		</trkpt>
		<trkpt lat="56.168880" lon="37.906120">
			<ele>239.42</ele>
			<time>2020-01-15T04:38:46.07Z</time>
		</trkpt>
		<trkpt lat="56.168820" lon="37.904500">
			<ele>240.04</ele>
			<time>2020-01-15T04:40:46.60Z</time>
		</trkpt>
		<trkpt lat="56.168990" lon="37.903730">
			<ele>239.15</ele>
			<time>2020-01-15T04:41:48.09Z</time>
		</trkpt>
		<trkpt lat="56.169350" lon="37.903710">
			<ele>236.62</ele>
			<time>2020-01-15T04:42:36.11Z</time>
		</trkpt>
		<trkpt lat="56.170200" lon="37.904070">
			<ele>232.05</ele>
			<time>2020-01-15T04:44:32.55Z</time>
		</trkpt>
		<trkpt lat="56.170890" lon="37.904120">
			<ele>226.76</ele>
			<time>2020-01-15T04:46:04.63Z</time>
		</trkpt>
		<trkpt lat="56.171490" lon="37.904120">
			<ele>220.14</ele>
			<time>2020-01-15T04:47:24.63Z</time>
		</trkpt>
		<trkpt lat="56.172480" lon="37.904330">
			<ele>213.50</ele>
			<time>2020-01-15T04:49:37.54Z</time>
		</trkpt>
		<trkpt lat="56.172920" lon="37.904110">
			<ele>206.52</ele>
			<time>2020-01-15T04:50:38.44Z</time>
		</trkpt>
		<trkpt lat="56.174050" lon="37.903800">
			<ele>200.15</ele>
			<time>2020-01-15T04:53:10.85Z</time>
		</trkpt>
		<trkpt lat="56.174680" lon="37.903380">
			<ele>195.34</ele>
			<time>2020-01-15T04:54:40.45Z</time>
		</trkpt>
		<trkpt lat="56.174760" lon="37.903580">
			<ele>191.97</ele>
			<time>2020-01-15T04:54:58.73Z</time>
		</trkpt>
		<trkpt lat="56.175150" lon="37.903970">
			<ele>191.52</ele>
			<time>2020-01-15T04:55:58.24Z</time>
		</trkpt>
		<trkpt lat="56.175270" lon="37.904030">
			<ele>192.51</ele>
			<time>2020-01-15T04:56:14.85Z</time>
		</trkpt>
		<trkpt lat="56.176360" lon="37.904100">
			<ele>196.34</ele>
			<time>2020-01-15T04:58:40.28Z</time>
		</trkpt>
		<trkpt lat="56.177730" lon="37.904310">
			<ele>199.30</ele>
			<time>2020-01-15T05:01:43.61Z</time>
		</trkpt>
		<trkpt lat="56.177620" lon="37.903770">
			<ele>202.50</ele>
			<time>2020-01-15T05:02:26.28Z</time>
		</trkpt>
		<trkpt lat="56.177630" lon="37.903400">
			<ele>202.76</ele>
			<time>2020-01-15T05:02:53.78Z</time>
		</trkpt>
		<trkpt lat="56.177830" lon="37.901920">
			<ele>202.54</ele>
			<time>2020-01-15T05:04:46.81Z</time>
		</trkpt>
		<trkpt lat="56.177880" lon="37.901870">
			<ele>201.42</ele>
			<time>2020-01-15T05:04:54.44Z</time>
		</trkpt>
		<trkpt lat="56.177960" lon="37.901900">
			<ele>200.70</ele>
			<time>2020-01-15T05:05:05.33Z</time>
		</trkpt>
		<trkpt lat="56.178310" lon="37.899080">
			<ele>200.80</ele>
			<time>2020-01-15T05:08:39.76Z</time>
		</trkpt>
		<trkpt lat="56.178360" lon="37.898300">
			<ele>201.07</ele>
			<time>2020-01-15T05:09:38.03Z</time>
		</trkpt>
		<trkpt lat="56.178590" lon="37.898590">
			<ele>202.42</ele>
			<time>2020-01-15T05:10:15.49Z</time>
		</trkpt>
		<trkpt lat="56.178860" lon="37.898700">
			<ele>204.16</ele>
			<time>2020-01-15T05:10:52.41Z</time>
		</trkpt>
		<trkpt lat="56.179510" lon="37.898680">
			<ele>206.84</ele>
			<time>2020-01-15T05:12:19.09Z</time>
		</trkpt>
		<trkpt lat="56.180170" lon="37.898580">
			<ele>210.04</ele>
			<time>2020-01-15T05:13:47.40Z</time>
		</trkpt>
		<trkpt lat="56.180840" lon="37.898670">
			<ele>213.05</ele>
			<time>2020-01-15T05:15:16.98Z</time>
		</trkpt>
		<trkpt lat="56.181390" lon="37.898880">
			<ele>216.30</ele>
			<time>2020-01-15T05:16:31.95Z</time>
		</trkpt>
		<trkpt lat="56.182070" lon="37.899290">
			<ele>218.54</ele>
			<time>2020-01-15T05:18:07.59Z</time>
		</trkpt>
		<trkpt lat="56.182330" lon="37.899610">
			<ele>221.46</ele>
			<time>2020-01-15T05:18:49.61Z</time>
		</trkpt>
		<trkpt lat="56.182620" lon="37.900410">
			<ele>223.38</ele>
			<time>2020-01-15T05:20:00.46Z</time>
		</trkpt>
		<trkpt lat="56.182820" lon="37.900200">
			<ele>226.41</ele>
			<time>2020-01-15T05:20:31.34Z</time>
		</trkpt>
		<trkpt lat="56.184090" lon="37.899620">
			<ele>228.47</ele>
			<time>2020-01-15T05:23:26.06Z</time>
		</trkpt>
		<trkpt lat="56.184690" lon="37.899140">
			<ele>231.63</ele>
			<time>2020-01-15T05:24:53.63Z</time>
		</trkpt>
		<trkpt lat="56.185870" lon="37.900400">
			<ele>233.53</ele>
			<time>2020-01-15T05:27:56.65Z</time>
		</trkpt>
		<trkpt lat="56.187630" lon="37.902150">
			<ele>235.66</ele>
			<time>2020-01-15T05:32:24.84Z</time>
		</trkpt>
		<trkpt lat="56.188370" lon="37.902960">
			<ele>236.27</ele>
			<time>2020-01-15T05:34:20.37Z</time>
		</trkpt>
		<trkpt lat="56.189230" lon="37.904260">
			<ele>236.12</ele>
			<time>2020-01-15T05:36:50.21Z</time>
		</trkpt>
		<trkpt lat="56.190060" lon="37.905170">
			<ele>235.39</ele>
			<time>2020-01-15T05:38:59.85Z</time>
		</trkpt>
		<trkpt lat="56.190660" lon="37.905760">
			<ele>234.29</ele>
			<time>2020-01-15T05:40:31.04Z</time>
		</trkpt>
		<trkpt lat="56.191170" lon="37.906020">
			<ele>233.94</ele>
			<time>2020-01-15T05:41:41.72Z</time>
		</trkpt>
		<trkpt lat="56.193370" lon="37.906040">
			<ele>233.70</ele>
			<time>2020-01-15T05:46:35.06Z</time>
		</trkpt>
		<trkpt lat="56.193350" lon="37.908890">
			<ele>233.15</ele>
			<time>2020-01-15T05:50:06.50Z</time>
		</trkpt>
		<trkpt lat="56.193470" lon="37.918070">
			<ele>231.82</ele>
			<time>2020-01-15T06:01:27.71Z</time>
		</trkpt>
		<trkpt lat="56.193290" lon="37.919430">
			<ele>229.16</ele>
			<time>2020-01-15T06:03:11.42Z</time>
		</trkpt>
		<trkpt lat="56.189750" lon="37.929530">
			<ele>226.34</ele>
			<time>2020-01-15T06:17:57Z</time>
		</trkpt>
		<trkpt lat="56.189730" lon="37.929800">
			<ele>223.71</ele>
			<time>2020-01-15T06:18:17.21Z</time>
		</trkpt>
		<trkpt lat="56.189590" lon="37.930430">
			<ele>221.42</ele>
			<time>2020-01-15T06:19:07.54Z</time>
		</trkpt>
		<trkpt lat="56.187720" lon="37.942280">
			<ele>219.92</ele>
			<time>2020-01-15T06:34:21.42Z</time>
		</trkpt>
		<trkpt lat="56.187190" lon="37.944360">
			<ele>218.46</ele>
			<time>2020-01-15T06:37:11.16Z</time>
		</trkpt>
		<trkpt lat="56.187220" lon="37.944470">
			<ele>217.93</ele>
			<time>2020-01-15T06:37:20.25Z</time>
		</trkpt>
		<trkpt lat="56.187430" lon="37.944400">
			<ele>217.42</ele>
			<time>2020-01-15T06:37:48.72Z</time>
		</trkpt>
		<trkpt lat="56.187830" lon="37.944510">
			<ele>216.50</ele>
			<time>2020-01-15T06:38:42.68Z</time>
		</trkpt>
		<trkpt lat="56.188290" lon="37.944540">
			<ele>214.31</ele>
			<time>2020-01-15T06:39:44.05Z</time>
		</trkpt>
		<trkpt lat="56.188890" lon="37.944690">
			<ele>210.56</ele>
			<time>2020-01-15T06:41:04.82Z</time>
		</trkpt>
		<trkpt lat="56.189390" lon="37.945050">
			<ele>206.18</ele>
			<time>2020-01-15T06:42:16.64Z</time>
		</trkpt>
		<trkpt lat="56.190600" lon="37.947640">
			<ele>201.98</ele>
			<time>2020-01-15T06:46:27.54Z</time>
		</trkpt>
		<trkpt lat="56.190470" lon="37.949780">
			<ele>198.62</ele>
			<time>2020-01-15T06:49:07.26Z</time>
		</trkpt>
		<trkpt lat="56.190470" lon="37.950320">
			<ele>196.46</ele>
			<time>2020-01-15T06:49:47.32Z</time>
		</trkpt>
		<trkpt lat="56.190160" lon="37.956460">
			<ele>194.67</ele>
			<time>2020-01-15T06:57:24.73Z</time>
		</trkpt>
		<trkpt lat="56.190100" lon="37.956850">
			<ele>193.74</ele>
			<time>2020-01-15T06:57:54.75Z</time>
		</trkpt>
		<trkpt lat="56.189990" lon="37.958360">
			<ele>192.69</ele>
			<time>2020-01-15T06:59:47.73Z</time>
		</trkpt>
		<trkpt lat="56.189490" lon="37.962850">
			<ele>192.19</ele>
			<time>2020-01-15T07:05:27.46Z</time>
		</trkpt>
		<trkpt lat="56.189600" lon="37.962900">
			<ele>191.47</ele>
			<time>2020-01-15T07:05:42.59Z</time>
		</trkpt>
		<trkpt lat="56.189530" lon="37.964430">
			<ele>190.98</ele>
			<time>2020-01-15T07:07:36.49Z</time>
		</trkpt>
		<trkpt lat="56.189390" lon="37.965270">
			<ele>190.18</ele>
			<time>2020-01-15T07:08:41.55Z</time>
		</trkpt>
		<trkpt lat="56.191198" lon="37.966658">
			<ele>189.63</ele>
			<time>2020-01-15T07:13:03.69Z</time>
		</trkpt>
		<trkpt lat="56.191401" lon="37.966937">
			<ele>189.00</ele>
			<time>2020-01-15T07:13:37.76Z</time>
		</trkpt>
		<extensions>
			<gte:name>Ашукино — ст. Калистово</gte:name>
			<gte:color>#fbaf00</gte:color>
		</extensions>
	</trkseg>
	<trkseg>
		<trkpt lat="56.191401" lon="37.966937">
			<ele>189.00</ele>
			<time>2020-01-15T07:13:38.96Z</time>
		</trkpt>
		<trkpt lat="56.191200" lon="37.967230">
			<ele>190.95</ele>
			<time>2020-01-15T07:14:13.47Z</time>
		</trkpt>
		<trkpt lat="56.190940" lon="37.968370">
			<ele>191.67</ele>
			<time>2020-01-15T07:15:44.88Z</time>
		</trkpt>
		<trkpt lat="56.191020" lon="37.969110">
			<ele>191.72</ele>
			<time>2020-01-15T07:16:40.80Z</time>
		</trkpt>
		<trkpt lat="56.191470" lon="37.970150">
			<ele>189.22</ele>
			<time>2020-01-15T07:18:18.54Z</time>
		</trkpt>
		<trkpt lat="56.191750" lon="37.971080">
			<ele>186.90</ele>
			<time>2020-01-15T07:19:36.99Z</time>
		</trkpt>
		<trkpt lat="56.191800" lon="37.971320">
			<ele>183.89</ele>
			<time>2020-01-15T07:19:56Z</time>
		</trkpt>
		<trkpt lat="56.191800" lon="37.971590">
			<ele>182.53</ele>
			<time>2020-01-15T07:20:16.04Z</time>
		</trkpt>
		<trkpt lat="56.191650" lon="37.972010">
			<ele>181.93</ele>
			<time>2020-01-15T07:20:53.06Z</time>
		</trkpt>
		<trkpt lat="56.191820" lon="37.972050">
			<ele>182.34</ele>
			<time>2020-01-15T07:21:15.92Z</time>
		</trkpt>
		<trkpt lat="56.191880" lon="37.972150">
			<ele>183.54</ele>
			<time>2020-01-15T07:21:26.83Z</time>
		</trkpt>
		<trkpt lat="56.192090" lon="37.973710">
			<ele>185.28</ele>
			<time>2020-01-15T07:23:25.90Z</time>
		</trkpt>
		<trkpt lat="56.192740" lon="37.976530">
			<ele>187.50</ele>
			<time>2020-01-15T07:27:12.35Z</time>
		</trkpt>
		<trkpt lat="56.193360" lon="37.978800">
			<ele>189.53</ele>
			<time>2020-01-15T07:30:19.95Z</time>
		</trkpt>
		<trkpt lat="56.193450" lon="37.979360">
			<ele>191.42</ele>
			<time>2020-01-15T07:31:03.19Z</time>
		</trkpt>
		<trkpt lat="56.193430" lon="37.980187">
			<ele>192.58</ele>
			<time>2020-01-15T07:32:04.60Z</time>
		</trkpt>
		<trkpt lat="56.192893" lon="37.980198">
			<ele>193.70</ele>
			<time>2020-01-15T07:33:16.21Z</time>
		</trkpt>
		<trkpt lat="56.192840" lon="37.982450">
			<ele>193.77</ele>
			<time>2020-01-15T07:36:03.43Z</time>
		</trkpt>
		<trkpt lat="56.192710" lon="37.982810">
			<ele>193.02</ele>
			<time>2020-01-15T07:36:35.27Z</time>
		</trkpt>
		<trkpt lat="56.192440" lon="37.982980">
			<ele>191.24</ele>
			<time>2020-01-15T07:37:13.41Z</time>
		</trkpt>
		<trkpt lat="56.191650" lon="37.983200">
			<ele>188.66</ele>
			<time>2020-01-15T07:39:00Z</time>
		</trkpt>
		<trkpt lat="56.191190" lon="37.983560">
			<ele>186.70</ele>
			<time>2020-01-15T07:40:06.90Z</time>
		</trkpt>
		<trkpt lat="56.190900" lon="37.983680">
			<ele>185.09</ele>
			<time>2020-01-15T07:40:46.58Z</time>
		</trkpt>
		<trkpt lat="56.190790" lon="37.983910">
			<ele>184.66</ele>
			<time>2020-01-15T07:41:09.08Z</time>
		</trkpt>
		<trkpt lat="56.190750" lon="37.984520">
			<ele>184.76</ele>
			<time>2020-01-15T07:41:54.65Z</time>
		</trkpt>
		<trkpt lat="56.190770" lon="37.984970">
			<ele>184.86</ele>
			<time>2020-01-15T07:42:28.14Z</time>
		</trkpt>
		<trkpt lat="56.191210" lon="37.985890">
			<ele>185.31</ele>
			<time>2020-01-15T07:43:58.14Z</time>
		</trkpt>
		<trkpt lat="56.191040" lon="37.988470">
			<ele>185.11</ele>
			<time>2020-01-15T07:47:10.89Z</time>
		</trkpt>
		<trkpt lat="56.190338" lon="37.988566">
			<ele>185.29</ele>
			<time>2020-01-15T07:48:44.76Z</time>
		</trkpt>
		<trkpt lat="56.189705" lon="37.987622">
			<ele>186.43</ele>
			<time>2020-01-15T07:50:34.43Z</time>
		</trkpt>
		<trkpt lat="56.188511" lon="37.987622">
			<ele>188.14</ele>
			<time>2020-01-15T07:53:13.63Z</time>
		</trkpt>
		<trkpt lat="56.188120" lon="37.987700">
			<ele>192.38</ele>
			<time>2020-01-15T07:54:06.09Z</time>
		</trkpt>
		<trkpt lat="56.188100" lon="37.989490">
			<ele>195.74</ele>
			<time>2020-01-15T07:56:18.92Z</time>
		</trkpt>
		<trkpt lat="56.188130" lon="37.994280">
			<ele>199.70</ele>
			<time>2020-01-15T08:02:14.34Z</time>
		</trkpt>
		<trkpt lat="56.189150" lon="37.994920">
			<ele>201.10</ele>
			<time>2020-01-15T08:04:38.40Z</time>
		</trkpt>
		<trkpt lat="56.189600" lon="37.995240">
			<ele>201.53</ele>
			<time>2020-01-15T08:05:42.92Z</time>
		</trkpt>
		<trkpt lat="56.189760" lon="37.995520">
			<ele>200.09</ele>
			<time>2020-01-15T08:06:12.70Z</time>
		</trkpt>
		<trkpt lat="56.189910" lon="37.996240">
			<ele>198.37</ele>
			<time>2020-01-15T08:07:09.74Z</time>
		</trkpt>
		<trkpt lat="56.189950" lon="37.998060">
			<ele>195.67</ele>
			<time>2020-01-15T08:09:24.87Z</time>
		</trkpt>
		<trkpt lat="56.190080" lon="37.999080">
			<ele>193.51</ele>
			<time>2020-01-15T08:10:42.51Z</time>
		</trkpt>
		<trkpt lat="56.190820" lon="37.999950">
			<ele>190.73</ele>
			<time>2020-01-15T08:12:40.41Z</time>
		</trkpt>
		<trkpt lat="56.191560" lon="38.000960">
			<ele>188.38</ele>
			<time>2020-01-15T08:14:44.31Z</time>
		</trkpt>
		<trkpt lat="56.191670" lon="38.002090">
			<ele>185.83</ele>
			<time>2020-01-15T08:16:09.41Z</time>
		</trkpt>
		<trkpt lat="56.192344" lon="38.003479">
			<ele>183.73</ele>
			<time>2020-01-15T08:18:26.14Z</time>
		</trkpt>
		<trkpt lat="56.196710" lon="38.000910">
			<ele>181.69</ele>
			<time>2020-01-15T08:28:38.68Z</time>
		</trkpt>
		<trkpt lat="56.196940" lon="38.002330">
			<ele>180.46</ele>
			<time>2020-01-15T08:30:28.39Z</time>
		</trkpt>
		<trkpt lat="56.197460" lon="38.002290">
			<ele>178.37</ele>
			<time>2020-01-15T08:31:37.78Z</time>
		</trkpt>
		<trkpt lat="56.197700" lon="38.002660">
			<ele>177.34</ele>
			<time>2020-01-15T08:32:19.94Z</time>
		</trkpt>
		<trkpt lat="56.198170" lon="38.002400">
			<ele>174.52</ele>
			<time>2020-01-15T08:33:25.51Z</time>
		</trkpt>
		<trkpt lat="56.198430" lon="38.002450">
			<ele>172.34</ele>
			<time>2020-01-15T08:34:00.37Z</time>
		</trkpt>
		<trkpt lat="56.199660" lon="38.002250">
			<ele>168.48</ele>
			<time>2020-01-15T08:36:45.04Z</time>
		</trkpt>
		<trkpt lat="56.199990" lon="38.002930">
			<ele>164.90</ele>
			<time>2020-01-15T08:37:51.97Z</time>
		</trkpt>
		<trkpt lat="56.199740" lon="38.006110">
			<ele>161.89</ele>
			<time>2020-01-15T08:41:50.19Z</time>
		</trkpt>
		<trkpt lat="56.199910" lon="38.006820">
			<ele>159.84</ele>
			<time>2020-01-15T08:42:47.52Z</time>
		</trkpt>
		<trkpt lat="56.200580" lon="38.008300">
			<ele>159.85</ele>
			<time>2020-01-15T08:45:09.05Z</time>
		</trkpt>
		<trkpt lat="56.200910" lon="38.009390">
			<ele>160.16</ele>
			<time>2020-01-15T08:46:41.10Z</time>
		</trkpt>
		<trkpt lat="56.201090" lon="38.009590">
			<ele>161.78</ele>
			<time>2020-01-15T08:47:09.31Z</time>
		</trkpt>
		<trkpt lat="56.201260" lon="38.009710">
			<ele>162.51</ele>
			<time>2020-01-15T08:47:33.66Z</time>
		</trkpt>
		<trkpt lat="56.201620" lon="38.009570">
			<ele>164.14</ele>
			<time>2020-01-15T08:48:22.77Z</time>
		</trkpt>
		<trkpt lat="56.202190" lon="38.009190">
			<ele>164.35</ele>
			<time>2020-01-15T08:49:43.83Z</time>
		</trkpt>
		<trkpt lat="56.202470" lon="38.009100">
			<ele>166.68</ele>
			<time>2020-01-15T08:50:21.76Z</time>
		</trkpt>
		<trkpt lat="56.202850" lon="38.009480">
			<ele>169.50</ele>
			<time>2020-01-15T08:51:19.73Z</time>
		</trkpt>
		<trkpt lat="56.203350" lon="38.010460">
			<ele>176.33</ele>
			<time>2020-01-15T08:52:58.36Z</time>
		</trkpt>
		<trkpt lat="56.202850" lon="38.012850">
			<ele>184.06</ele>
			<time>2020-01-15T08:56:07.74Z</time>
		</trkpt>
		<trkpt lat="56.202960" lon="38.015950">
			<ele>192.01</ele>
			<time>2020-01-15T08:59:58.13Z</time>
		</trkpt>
		<trkpt lat="56.203130" lon="38.016320">
			<ele>197.48</ele>
			<time>2020-01-15T09:00:33.72Z</time>
		</trkpt>
		<trkpt lat="56.203200" lon="38.016970">
			<ele>200.04</ele>
			<time>2020-01-15T09:01:22.82Z</time>
		</trkpt>
		<trkpt lat="56.203180" lon="38.017680">
			<ele>200.84</ele>
			<time>2020-01-15T09:02:15.55Z</time>
		</trkpt>
		<trkpt lat="56.203430" lon="38.018700">
			<ele>200.47</ele>
			<time>2020-01-15T09:03:38.22Z</time>
		</trkpt>
		<trkpt lat="56.203700" lon="38.019470">
			<ele>200.08</ele>
			<time>2020-01-15T09:04:45.72Z</time>
		</trkpt>
		<trkpt lat="56.203780" lon="38.019800">
			<ele>198.98</ele>
			<time>2020-01-15T09:05:12.42Z</time>
		</trkpt>
		<trkpt lat="56.203820" lon="38.020200">
			<ele>197.65</ele>
			<time>2020-01-15T09:05:42.56Z</time>
		</trkpt>
		<trkpt lat="56.203790" lon="38.020740">
			<ele>195.28</ele>
			<time>2020-01-15T09:06:22.81Z</time>
		</trkpt>
		<trkpt lat="56.203570" lon="38.022130">
			<ele>192.93</ele>
			<time>2020-01-15T09:08:10Z</time>
		</trkpt>
		<trkpt lat="56.203560" lon="38.022530">
			<ele>189.92</ele>
			<time>2020-01-15T09:08:39.69Z</time>
		</trkpt>
		<trkpt lat="56.203730" lon="38.022820">
			<ele>187.23</ele>
			<time>2020-01-15T09:09:10.94Z</time>
		</trkpt>
		<trkpt lat="56.203840" lon="38.023200">
			<ele>183.52</ele>
			<time>2020-01-15T09:09:42.71Z</time>
		</trkpt>
		<trkpt lat="56.204860" lon="38.028890">
			<ele>179.52</ele>
			<time>2020-01-15T09:17:06.08Z</time>
		</trkpt>
		<trkpt lat="56.205160" lon="38.031290">
			<ele>174.60</ele>
			<time>2020-01-15T09:20:08.51Z</time>
		</trkpt>
		<trkpt lat="56.205220" lon="38.032230">
			<ele>170.62</ele>
			<time>2020-01-15T09:21:18.68Z</time>
		</trkpt>
		<trkpt lat="56.205940" lon="38.032415">
			<ele>168.07</ele>
			<time>2020-01-15T09:22:55.65Z</time>
		</trkpt>
		<trkpt lat="56.206083" lon="38.033187">
			<ele>168.39</ele>
			<time>2020-01-15T09:23:56Z</time>
		</trkpt>
		<trkpt lat="56.207539" lon="38.034132">
			<ele>169.62</ele>
			<time>2020-01-15T09:27:22.39Z</time>
		</trkpt>
		<trkpt lat="56.207590" lon="38.034050">
			<ele>171.46</ele>
			<time>2020-01-15T09:27:31.52Z</time>
		</trkpt>
		<trkpt lat="56.207950" lon="38.034930">
			<ele>171.26</ele>
			<time>2020-01-15T09:28:52.53Z</time>
		</trkpt>
		<trkpt lat="56.208090" lon="38.035470">
			<ele>170.42</ele>
			<time>2020-01-15T09:29:36.71Z</time>
		</trkpt>
		<trkpt lat="56.208390" lon="38.037000">
			<ele>169.39</ele>
			<time>2020-01-15T09:31:37.01Z</time>
		</trkpt>
		<trkpt lat="56.208650" lon="38.037480">
			<ele>169.49</ele>
			<time>2020-01-15T09:32:26.70Z</time>
		</trkpt>
		<trkpt lat="56.208660" lon="38.038350">
			<ele>170.82</ele>
			<time>2020-01-15T09:33:31.23Z</time>
		</trkpt>
		<trkpt lat="56.208940" lon="38.040110">
			<ele>171.96</ele>
			<time>2020-01-15T09:35:46.98Z</time>
		</trkpt>
		<trkpt lat="56.209190" lon="38.040570">
			<ele>172.10</ele>
			<time>2020-01-15T09:36:34.67Z</time>
		</trkpt>
		<trkpt lat="56.209230" lon="38.039990">
			<ele>171.07</ele>
			<time>2020-01-15T09:37:18.01Z</time>
		</trkpt>
		<trkpt lat="56.209330" lon="38.039430">
			<ele>168.80</ele>
			<time>2020-01-15T09:38:01.63Z</time>
		</trkpt>
		<trkpt lat="56.209500" lon="38.038900">
			<ele>167.00</ele>
			<time>2020-01-15T09:38:47Z</time>
		</trkpt>
		<trkpt lat="56.209720" lon="38.039010">
			<ele>165.00</ele>
			<time>2020-01-15T09:39:17.44Z</time>
		</trkpt>
		<trkpt lat="56.210100" lon="38.039060">
			<ele>164.31</ele>
			<time>2020-01-15T09:40:08.24Z</time>
		</trkpt>
		<trkpt lat="56.210370" lon="38.039020">
			<ele>163.61</ele>
			<time>2020-01-15T09:40:44.37Z</time>
		</trkpt>
		<trkpt lat="56.210670" lon="38.038860">
			<ele>163.85</ele>
			<time>2020-01-15T09:41:26.09Z</time>
		</trkpt>
		<trkpt lat="56.211130" lon="38.038400">
			<ele>163.60</ele>
			<time>2020-01-15T09:42:36.27Z</time>
		</trkpt>
		<trkpt lat="56.212610" lon="38.036440">
			<ele>163.72</ele>
			<time>2020-01-15T09:46:41.35Z</time>
		</trkpt>
		<trkpt lat="56.212820" lon="38.036230">
			<ele>163.61</ele>
			<time>2020-01-15T09:47:13.38Z</time>
		</trkpt>
		<trkpt lat="56.213030" lon="38.036170">
			<ele>164.76</ele>
			<time>2020-01-15T09:47:41.73Z</time>
		</trkpt>
		<trkpt lat="56.213060" lon="38.036630">
			<ele>166.98</ele>
			<time>2020-01-15T09:48:16.08Z</time>
		</trkpt>
		<trkpt lat="56.213230" lon="38.037420">
			<ele>170.96</ele>
			<time>2020-01-15T09:49:18.89Z</time>
		</trkpt>
		<trkpt lat="56.213940" lon="38.039080">
			<ele>174.80</ele>
			<time>2020-01-15T09:51:54.16Z</time>
		</trkpt>
		<trkpt lat="56.214260" lon="38.040160">
			<ele>178.30</ele>
			<time>2020-01-15T09:53:24.90Z</time>
		</trkpt>
		<trkpt lat="56.214450" lon="38.040270">
			<ele>180.55</ele>
			<time>2020-01-15T09:53:51.51Z</time>
		</trkpt>
		<trkpt lat="56.214820" lon="38.040150">
			<ele>182.14</ele>
			<time>2020-01-15T09:54:41.64Z</time>
		</trkpt>
		<trkpt lat="56.215600" lon="38.040120">
			<ele>184.34</ele>
			<time>2020-01-15T09:56:25.67Z</time>
		</trkpt>
		<trkpt lat="56.216750" lon="38.041790">
			<ele>186.13</ele>
			<time>2020-01-15T09:59:42.75Z</time>
		</trkpt>
		<trkpt lat="56.217380" lon="38.042290">
			<ele>188.64</ele>
			<time>2020-01-15T10:01:14.56Z</time>
		</trkpt>
		<trkpt lat="56.217730" lon="38.042270">
			<ele>190.20</ele>
			<time>2020-01-15T10:02:01.25Z</time>
		</trkpt>
		<trkpt lat="56.218400" lon="38.042670">
			<ele>192.02</ele>
			<time>2020-01-15T10:03:35.38Z</time>
		</trkpt>
		<trkpt lat="56.219170" lon="38.042410">
			<ele>193.50</ele>
			<time>2020-01-15T10:05:19.84Z</time>
		</trkpt>
		<trkpt lat="56.219550" lon="38.042450">
			<ele>195.11</ele>
			<time>2020-01-15T10:06:10.59Z</time>
		</trkpt>
		<trkpt lat="56.220030" lon="38.042630">
			<ele>196.61</ele>
			<time>2020-01-15T10:07:15.97Z</time>
		</trkpt>
		<trkpt lat="56.220290" lon="38.041870">
			<ele>197.80</ele>
			<time>2020-01-15T10:08:22.12Z</time>
		</trkpt>
		<trkpt lat="56.220740" lon="38.041440">
			<ele>198.92</ele>
			<time>2020-01-15T10:09:30.07Z</time>
		</trkpt>
		<trkpt lat="56.221290" lon="38.039760">
			<ele>199.57</ele>
			<time>2020-01-15T10:11:54.59Z</time>
		</trkpt>
		<trkpt lat="56.222370" lon="38.039320">
			<ele>200.24</ele>
			<time>2020-01-15T10:14:22.24Z</time>
		</trkpt>
		<trkpt lat="56.223110" lon="38.038300">
			<ele>200.22</ele>
			<time>2020-01-15T10:16:26.55Z</time>
		</trkpt>
		<trkpt lat="56.223630" lon="38.038220">
			<ele>200.30</ele>
			<time>2020-01-15T10:17:36.14Z</time>
		</trkpt>
		<trkpt lat="56.224470" lon="38.036720">
			<ele>199.58</ele>
			<time>2020-01-15T10:20:13.96Z</time>
		</trkpt>
		<trkpt lat="56.225430" lon="38.036620">
			<ele>198.96</ele>
			<time>2020-01-15T10:22:22.17Z</time>
		</trkpt>
		<trkpt lat="56.225860" lon="38.036110">
			<ele>197.60</ele>
			<time>2020-01-15T10:23:30.84Z</time>
		</trkpt>
		<trkpt lat="56.226320" lon="38.035970">
			<ele>195.42</ele>
			<time>2020-01-15T10:24:33.05Z</time>
		</trkpt>
		<trkpt lat="56.226690" lon="38.035510">
			<ele>192.27</ele>
			<time>2020-01-15T10:25:33.02Z</time>
		</trkpt>
		<trkpt lat="56.227220" lon="38.035660">
			<ele>188.30</ele>
			<time>2020-01-15T10:26:44.55Z</time>
		</trkpt>
		<trkpt lat="56.227650" lon="38.037730">
			<ele>183.36</ele>
			<time>2020-01-15T10:29:28.34Z</time>
		</trkpt>
		<trkpt lat="56.228510" lon="38.037650">
			<ele>179.64</ele>
			<time>2020-01-15T10:31:23.16Z</time>
		</trkpt>
		<trkpt lat="56.228320" lon="38.037310">
			<ele>174.94</ele>
			<time>2020-01-15T10:31:58.90Z</time>
		</trkpt>
		<trkpt lat="56.228500" lon="38.036870">
			<ele>173.32</ele>
			<time>2020-01-15T10:32:39.39Z</time>
		</trkpt>
		<trkpt lat="56.228450" lon="38.036860">
			<ele>171.08</ele>
			<time>2020-01-15T10:32:46.10Z</time>
		</trkpt>
		<trkpt lat="56.228360" lon="38.036760">
			<ele>171.80</ele>
			<time>2020-01-15T10:33:00.20Z</time>
		</trkpt>
		<trkpt lat="56.228330" lon="38.036650">
			<ele>171.60</ele>
			<time>2020-01-15T10:33:09.28Z</time>
		</trkpt>
		<trkpt lat="56.228420" lon="38.036560">
			<ele>172.48</ele>
			<time>2020-01-15T10:33:23.01Z</time>
		</trkpt>
		<trkpt lat="56.228400" lon="38.036230">
			<ele>172.51</ele>
			<time>2020-01-15T10:33:47.61Z</time>
		</trkpt>
		<trkpt lat="56.228540" lon="38.036180">
			<ele>173.06</ele>
			<time>2020-01-15T10:34:06.65Z</time>
		</trkpt>
		<trkpt lat="56.228720" lon="38.036050">
			<ele>174.00</ele>
			<time>2020-01-15T10:34:32.51Z</time>
		</trkpt>
		<trkpt lat="56.228790" lon="38.035730">
			<ele>175.00</ele>
			<time>2020-01-15T10:34:58Z</time>
		</trkpt>
		<trkpt lat="56.228760" lon="38.035430">
			<ele>175.94</ele>
			<time>2020-01-15T10:35:20.59Z</time>
		</trkpt>
		<trkpt lat="56.228880" lon="38.035240">
			<ele>176.23</ele>
			<time>2020-01-15T10:35:41.90Z</time>
		</trkpt>
		<trkpt lat="56.229090" lon="38.035120">
			<ele>176.26</ele>
			<time>2020-01-15T10:36:11.28Z</time>
		</trkpt>
		<trkpt lat="56.229390" lon="38.034320">
			<ele>176.89</ele>
			<time>2020-01-15T10:37:22.80Z</time>
		</trkpt>
		<trkpt lat="56.229620" lon="38.032820">
			<ele>178.22</ele>
			<time>2020-01-15T10:39:18.13Z</time>
		</trkpt>
		<trkpt lat="56.229820" lon="38.032420">
			<ele>180.72</ele>
			<time>2020-01-15T10:39:58Z</time>
		</trkpt>
		<trkpt lat="56.230940" lon="38.020180">
			<ele>183.41</ele>
			<time>2020-01-15T10:55:17.37Z</time>
		</trkpt>
		<trkpt lat="56.230880" lon="38.019590">
			<ele>186.23</ele>
			<time>2020-01-15T10:56:01.82Z</time>
		</trkpt>
		<trkpt lat="56.230950" lon="38.019070">
			<ele>188.22</ele>
			<time>2020-01-15T10:56:41.47Z</time>
		</trkpt>
		<trkpt lat="56.230910" lon="38.018570">
			<ele>189.74</ele>
			<time>2020-01-15T10:57:18.91Z</time>
		</trkpt>
		<trkpt lat="56.230520" lon="38.017720">
			<ele>190.29</ele>
			<time>2020-01-15T10:58:40.60Z</time>
		</trkpt>
		<trkpt lat="56.230470" lon="38.017380">
			<ele>190.12</ele>
			<time>2020-01-15T10:59:06.66Z</time>
		</trkpt>
		<trkpt lat="56.230240" lon="38.016800">
			<ele>189.30</ele>
			<time>2020-01-15T10:59:59.47Z</time>
		</trkpt>
		<trkpt lat="56.230160" lon="38.016280">
			<ele>187.74</ele>
			<time>2020-01-15T11:00:39.46Z</time>
		</trkpt>
		<trkpt lat="56.230500" lon="38.015260">
			<ele>186.32</ele>
			<time>2020-01-15T11:02:07.60Z</time>
		</trkpt>
		<trkpt lat="56.230640" lon="38.015060">
			<ele>185.12</ele>
			<time>2020-01-15T11:02:31.44Z</time>
		</trkpt>
		<trkpt lat="56.230750" lon="38.014660">
			<ele>184.80</ele>
			<time>2020-01-15T11:03:04.51Z</time>
		</trkpt>
		<trkpt lat="56.230710" lon="38.014240">
			<ele>184.82</ele>
			<time>2020-01-15T11:03:36.10Z</time>
		</trkpt>
		<trkpt lat="56.230460" lon="38.013300">
			<ele>184.84</ele>
			<time>2020-01-15T11:04:53.33Z</time>
		</trkpt>
		<trkpt lat="56.230130" lon="38.012910">
			<ele>184.12</ele>
			<time>2020-01-15T11:05:45.97Z</time>
		</trkpt>
		<trkpt lat="56.229730" lon="38.012850">
			<ele>183.21</ele>
			<time>2020-01-15T11:06:39.49Z</time>
		</trkpt>
		<trkpt lat="56.229760" lon="38.012930">
			<ele>182.02</ele>
			<time>2020-01-15T11:06:46.64Z</time>
		</trkpt>
		<trkpt lat="56.229510" lon="38.012200">
			<ele>181.80</ele>
			<time>2020-01-15T11:07:50.19Z</time>
		</trkpt>
		<trkpt lat="56.229540" lon="38.011690">
			<ele>182.55</ele>
			<time>2020-01-15T11:08:28.20Z</time>
		</trkpt>
		<trkpt lat="56.229450" lon="38.010980">
			<ele>184.42</ele>
			<time>2020-01-15T11:09:22.17Z</time>
		</trkpt>
		<trkpt lat="56.228240" lon="38.006750">
			<ele>187.15</ele>
			<time>2020-01-15T11:15:14.76Z</time>
		</trkpt>
		<trkpt lat="56.227780" lon="38.004730">
			<ele>189.18</ele>
			<time>2020-01-15T11:17:56.56Z</time>
		</trkpt>
		<trkpt lat="56.227750" lon="38.002590">
			<ele>190.52</ele>
			<time>2020-01-15T11:20:35.22Z</time>
		</trkpt>
		<trkpt lat="56.227580" lon="38.001300">
			<ele>190.09</ele>
			<time>2020-01-15T11:22:13.49Z</time>
		</trkpt>
		<trkpt lat="56.227700" lon="38.000640">
			<ele>188.67</ele>
			<time>2020-01-15T11:23:04.96Z</time>
		</trkpt>
		<trkpt lat="56.228350" lon="37.998190">
			<ele>186.73</ele>
			<time>2020-01-15T11:26:26.17Z</time>
		</trkpt>
		<trkpt lat="56.228360" lon="37.997870">
			<ele>184.34</ele>
			<time>2020-01-15T11:26:49.92Z</time>
		</trkpt>
		<trkpt lat="56.228100" lon="37.995730">
			<ele>182.74</ele>
			<time>2020-01-15T11:29:32.28Z</time>
		</trkpt>
		<trkpt lat="56.228160" lon="37.995580">
			<ele>181.48</ele>
			<time>2020-01-15T11:29:45.98Z</time>
		</trkpt>
		<trkpt lat="56.228730" lon="37.995150">
			<ele>181.38</ele>
			<time>2020-01-15T11:31:08.39Z</time>
		</trkpt>
		<trkpt lat="56.228900" lon="37.994970">
			<ele>181.68</ele>
			<time>2020-01-15T11:31:34.69Z</time>
		</trkpt>
		<trkpt lat="56.229010" lon="37.994590">
			<ele>182.21</ele>
			<time>2020-01-15T11:32:06.45Z</time>
		</trkpt>
		<trkpt lat="56.229870" lon="37.990740">
			<ele>182.73</ele>
			<time>2020-01-15T11:37:13.97Z</time>
		</trkpt>
		<trkpt lat="56.229940" lon="37.990690">
			<ele>183.16</ele>
			<time>2020-01-15T11:37:24.01Z</time>
		</trkpt>
		<trkpt lat="56.230000" lon="37.990560">
			<ele>183.74</ele>
			<time>2020-01-15T11:37:36.53Z</time>
		</trkpt>
		<trkpt lat="56.230010" lon="37.990410">
			<ele>184.20</ele>
			<time>2020-01-15T11:37:47.73Z</time>
		</trkpt>
		<trkpt lat="56.230100" lon="37.990230">
			<ele>184.62</ele>
			<time>2020-01-15T11:38:05.67Z</time>
		</trkpt>
		<trkpt lat="56.230250" lon="37.990070">
			<ele>184.97</ele>
			<time>2020-01-15T11:38:28.93Z</time>
		</trkpt>
		<trkpt lat="56.230810" lon="37.987600">
			<ele>185.24</ele>
			<time>2020-01-15T11:41:46.63Z</time>
		</trkpt>
		<trkpt lat="56.230990" lon="37.987330">
			<ele>186.13</ele>
			<time>2020-01-15T11:42:17.88Z</time>
		</trkpt>
		<trkpt lat="56.233120" lon="37.985130">
			<ele>187.01</ele>
			<time>2020-01-15T11:47:45.35Z</time>
		</trkpt>
		<trkpt lat="56.233220" lon="37.984650">
			<ele>188.54</ele>
			<time>2020-01-15T11:48:23.34Z</time>
		</trkpt>
		<trkpt lat="56.231723" lon="37.983996">
			<ele>190.00</ele>
			<time>2020-01-15T11:51:48.74Z</time>
		</trkpt>
		<extensions>
			<gte:name>ст. Калистово — ст. Абрамцево</gte:name>
			<gte:color>#00ce00</gte:color>
		</extensions>
	</trkseg>
	<trkseg>
		<trkpt lat="56.231723" lon="37.983996">
			<ele>190.00</ele>
			<time>2020-01-15T11:51:49.94Z</time>
		</trkpt>
		<trkpt lat="56.231997" lon="37.983760">
			<ele>191.36</ele>
			<time>2020-01-15T11:52:30.44Z</time>
		</trkpt>
		<trkpt lat="56.233894" lon="37.984553">
			<ele>193.45</ele>
			<time>2020-01-15T11:56:50.11Z</time>
		</trkpt>
		<trkpt lat="56.234263" lon="37.981464">
			<ele>194.62</ele>
			<time>2020-01-15T12:00:44.26Z</time>
		</trkpt>
		<trkpt lat="56.234310" lon="37.980140">
			<ele>195.86</ele>
			<time>2020-01-15T12:02:22.58Z</time>
		</trkpt>
		<trkpt lat="56.234540" lon="37.978630">
			<ele>194.86</ele>
			<time>2020-01-15T12:04:18.60Z</time>
		</trkpt>
		<trkpt lat="56.235210" lon="37.977050">
			<ele>193.66</ele>
			<time>2020-01-15T12:06:45.88Z</time>
		</trkpt>
		<trkpt lat="56.235080" lon="37.976800">
			<ele>190.86</ele>
			<time>2020-01-15T12:07:11.25Z</time>
		</trkpt>
		<trkpt lat="56.234910" lon="37.976590">
			<ele>188.34</ele>
			<time>2020-01-15T12:07:38.74Z</time>
		</trkpt>
		<trkpt lat="56.234210" lon="37.976030">
			<ele>184.65</ele>
			<time>2020-01-15T12:09:20.88Z</time>
		</trkpt>
		<trkpt lat="56.234030" lon="37.975760">
			<ele>181.59</ele>
			<time>2020-01-15T12:09:52.13Z</time>
		</trkpt>
		<trkpt lat="56.234150" lon="37.974870">
			<ele>179.12</ele>
			<time>2020-01-15T12:11:00Z</time>
		</trkpt>
		<trkpt lat="56.234270" lon="37.974520">
			<ele>177.06</ele>
			<time>2020-01-15T12:11:30.47Z</time>
		</trkpt>
		<trkpt lat="56.234280" lon="37.974160">
			<ele>175.92</ele>
			<time>2020-01-15T12:11:57.19Z</time>
		</trkpt>
		<trkpt lat="56.234220" lon="37.973780">
			<ele>173.66</ele>
			<time>2020-01-15T12:12:26.46Z</time>
		</trkpt>
		<trkpt lat="56.234190" lon="37.972990">
			<ele>173.34</ele>
			<time>2020-01-15T12:13:25.14Z</time>
		</trkpt>
		<trkpt lat="56.234060" lon="37.972530">
			<ele>173.72</ele>
			<time>2020-01-15T12:14:03.38Z</time>
		</trkpt>
		<trkpt lat="56.234180" lon="37.971820">
			<ele>178.00</ele>
			<time>2020-01-15T12:14:58.38Z</time>
		</trkpt>
		<trkpt lat="56.233660" lon="37.968920">
			<ele>182.09</ele>
			<time>2020-01-15T12:18:44.20Z</time>
		</trkpt>
		<trkpt lat="56.233540" lon="37.967950">
			<ele>186.76</ele>
			<time>2020-01-15T12:19:57.84Z</time>
		</trkpt>
		<trkpt lat="56.233310" lon="37.968160">
			<ele>188.27</ele>
			<time>2020-01-15T12:20:32.23Z</time>
		</trkpt>
		<trkpt lat="56.232630" lon="37.968640">
			<ele>188.09</ele>
			<time>2020-01-15T12:22:09.63Z</time>
		</trkpt>
		<trkpt lat="56.231450" lon="37.969750">
			<ele>185.96</ele>
			<time>2020-01-15T12:25:07.17Z</time>
		</trkpt>
		<trkpt lat="56.230300" lon="37.970730">
			<ele>182.62</ele>
			<time>2020-01-15T12:27:56.83Z</time>
		</trkpt>
		<trkpt lat="56.228680" lon="37.971400">
			<ele>178.83</ele>
			<time>2020-01-15T12:31:38.47Z</time>
		</trkpt>
		<trkpt lat="56.227820" lon="37.971950">
			<ele>175.10</ele>
			<time>2020-01-15T12:33:40.16Z</time>
		</trkpt>
		<trkpt lat="56.227550" lon="37.972060">
			<ele>172.13</ele>
			<time>2020-01-15T12:34:17.08Z</time>
		</trkpt>
		<trkpt lat="56.227140" lon="37.972050">
			<ele>170.69</ele>
			<time>2020-01-15T12:35:11.75Z</time>
		</trkpt>
		<trkpt lat="56.226800" lon="37.970590">
			<ele>170.34</ele>
			<time>2020-01-15T12:37:09.08Z</time>
		</trkpt>
		<trkpt lat="56.226580" lon="37.969170">
			<ele>171.28</ele>
			<time>2020-01-15T12:38:58.34Z</time>
		</trkpt>
		<trkpt lat="56.226370" lon="37.968640">
			<ele>172.78</ele>
			<time>2020-01-15T12:39:46.58Z</time>
		</trkpt>
		<trkpt lat="56.226190" lon="37.967240">
			<ele>175.22</ele>
			<time>2020-01-15T12:41:33.09Z</time>
		</trkpt>
		<trkpt lat="56.225670" lon="37.965390">
			<ele>177.97</ele>
			<time>2020-01-15T12:44:06.75Z</time>
		</trkpt>
		<trkpt lat="56.224520" lon="37.963440">
			<ele>181.18</ele>
			<time>2020-01-15T12:47:37.47Z</time>
		</trkpt>
		<trkpt lat="56.223590" lon="37.960520">
			<ele>184.23</ele>
			<time>2020-01-15T12:51:46.92Z</time>
		</trkpt>
		<trkpt lat="56.223380" lon="37.959440">
			<ele>186.70</ele>
			<time>2020-01-15T12:53:11.73Z</time>
		</trkpt>
		<trkpt lat="56.222600" lon="37.959860">
			<ele>188.93</ele>
			<time>2020-01-15T12:55:00.29Z</time>
		</trkpt>
		<trkpt lat="56.222470" lon="37.959760">
			<ele>190.21</ele>
			<time>2020-01-15T12:55:19.15Z</time>
		</trkpt>
		<trkpt lat="56.222260" lon="37.958990">
			<ele>191.36</ele>
			<time>2020-01-15T12:56:22.72Z</time>
		</trkpt>
		<trkpt lat="56.222180" lon="37.958120">
			<ele>191.87</ele>
			<time>2020-01-15T12:57:28.09Z</time>
		</trkpt>
		<trkpt lat="56.221860" lon="37.958150">
			<ele>192.32</ele>
			<time>2020-01-15T12:58:10.82Z</time>
		</trkpt>
		<trkpt lat="56.221880" lon="37.957930">
			<ele>192.74</ele>
			<time>2020-01-15T12:58:27.34Z</time>
		</trkpt>
		<trkpt lat="56.221470" lon="37.957470">
			<ele>192.85</ele>
			<time>2020-01-15T12:59:31.77Z</time>
		</trkpt>
		<trkpt lat="56.221220" lon="37.956750">
			<ele>193.06</ele>
			<time>2020-01-15T13:00:34.70Z</time>
		</trkpt>
		<trkpt lat="56.221100" lon="37.955960">
			<ele>193.86</ele>
			<time>2020-01-15T13:01:35.41Z</time>
		</trkpt>
		<trkpt lat="56.220860" lon="37.955260">
			<ele>196.67</ele>
			<time>2020-01-15T13:02:36.38Z</time>
		</trkpt>
		<trkpt lat="56.220640" lon="37.954750">
			<ele>202.22</ele>
			<time>2020-01-15T13:03:24.23Z</time>
		</trkpt>
		<trkpt lat="56.218780" lon="37.952292">
			<ele>209.68</ele>
			<time>2020-01-15T13:08:31.98Z</time>
		</trkpt>
		<trkpt lat="56.216418" lon="37.951434">
			<ele>216.92</ele>
			<time>2020-01-15T13:13:53.27Z</time>
		</trkpt>
		<trkpt lat="56.216030" lon="37.951260">
			<ele>222.98</ele>
			<time>2020-01-15T13:14:46.59Z</time>
		</trkpt>
		<trkpt lat="56.215910" lon="37.949410">
			<ele>226.22</ele>
			<time>2020-01-15T13:17:04.68Z</time>
		</trkpt>
		<trkpt lat="56.215350" lon="37.946880">
			<ele>229.20</ele>
			<time>2020-01-15T13:20:26.58Z</time>
		</trkpt>
		<trkpt lat="56.215750" lon="37.941110">
			<ele>229.91</ele>
			<time>2020-01-15T13:27:37.69Z</time>
		</trkpt>
		<trkpt lat="56.216760" lon="37.939660">
			<ele>231.02</ele>
			<time>2020-01-15T13:30:30.01Z</time>
		</trkpt>
		<trkpt lat="56.217150" lon="37.939520">
			<ele>229.84</ele>
			<time>2020-01-15T13:31:23.03Z</time>
		</trkpt>
		<trkpt lat="56.218030" lon="37.938610">
			<ele>229.10</ele>
			<time>2020-01-15T13:33:38.38Z</time>
		</trkpt>
		<trkpt lat="56.218220" lon="37.938190">
			<ele>227.30</ele>
			<time>2020-01-15T13:34:18.52Z</time>
		</trkpt>
		<trkpt lat="56.218710" lon="37.936710">
			<ele>226.10</ele>
			<time>2020-01-15T13:36:26.22Z</time>
		</trkpt>
		<trkpt lat="56.219180" lon="37.934820">
			<ele>224.39</ele>
			<time>2020-01-15T13:38:59.71Z</time>
		</trkpt>
		<trkpt lat="56.219100" lon="37.933280">
			<ele>222.97</ele>
			<time>2020-01-15T13:40:54.38Z</time>
		</trkpt>
		<trkpt lat="56.219240" lon="37.932420">
			<ele>221.88</ele>
			<time>2020-01-15T13:42:00.81Z</time>
		</trkpt>
		<trkpt lat="56.219480" lon="37.930100">
			<ele>221.65</ele>
			<time>2020-01-15T13:44:55.76Z</time>
		</trkpt>
		<trkpt lat="56.218750" lon="37.929590">
			<ele>221.71</ele>
			<time>2020-01-15T13:46:40.18Z</time>
		</trkpt>
		<trkpt lat="56.218630" lon="37.928910">
			<ele>221.33</ele>
			<time>2020-01-15T13:47:33.07Z</time>
		</trkpt>
		<trkpt lat="56.218580" lon="37.927830">
			<ele>219.94</ele>
			<time>2020-01-15T13:48:53.41Z</time>
		</trkpt>
		<trkpt lat="56.218640" lon="37.925870">
			<ele>217.30</ele>
			<time>2020-01-15T13:51:18.94Z</time>
		</trkpt>
		<trkpt lat="56.218750" lon="37.924090">
			<ele>214.67</ele>
			<time>2020-01-15T13:53:31.72Z</time>
		</trkpt>
		<trkpt lat="56.219030" lon="37.923190">
			<ele>213.14</ele>
			<time>2020-01-15T13:54:48.17Z</time>
		</trkpt>
		<trkpt lat="56.219350" lon="37.922960">
			<ele>213.38</ele>
			<time>2020-01-15T13:55:34.12Z</time>
		</trkpt>
		<trkpt lat="56.219580" lon="37.921590">
			<ele>216.02</ele>
			<time>2020-01-15T13:57:20.22Z</time>
		</trkpt>
		<trkpt lat="56.219690" lon="37.919920">
			<ele>219.46</ele>
			<time>2020-01-15T13:59:24.89Z</time>
		</trkpt>
		<trkpt lat="56.219900" lon="37.918760">
			<ele>223.48</ele>
			<time>2020-01-15T14:00:55.33Z</time>
		</trkpt>
		<trkpt lat="56.220040" lon="37.916060">
			<ele>227.07</ele>
			<time>2020-01-15T14:04:16.36Z</time>
		</trkpt>
		<trkpt lat="56.219950" lon="37.915380">
			<ele>229.74</ele>
			<time>2020-01-15T14:05:08.18Z</time>
		</trkpt>
		<trkpt lat="56.219970" lon="37.914010">
			<ele>231.53</ele>
			<time>2020-01-15T14:06:49.78Z</time>
		</trkpt>
		<trkpt lat="56.219860" lon="37.912980">
			<ele>230.46</ele>
			<time>2020-01-15T14:08:07.53Z</time>
		</trkpt>
		<trkpt lat="56.219880" lon="37.912800">
			<ele>226.98</ele>
			<time>2020-01-15T14:08:21.14Z</time>
		</trkpt>
		<trkpt lat="56.215893" lon="37.912638">
			<ele>219.74</ele>
			<time>2020-01-15T14:17:12.87Z</time>
		</trkpt>
		<trkpt lat="56.212830" lon="37.913810">
			<ele>212.32</ele>
			<time>2020-01-15T14:24:10.42Z</time>
		</trkpt>
		<trkpt lat="56.212800" lon="37.915960">
			<ele>205.77</ele>
			<time>2020-01-15T14:26:49.88Z</time>
		</trkpt>
		<trkpt lat="56.212690" lon="37.916340">
			<ele>202.87</ele>
			<time>2020-01-15T14:27:21.65Z</time>
		</trkpt>
		<trkpt lat="56.212580" lon="37.916420">
			<ele>203.32</ele>
			<time>2020-01-15T14:27:37.47Z</time>
		</trkpt>
		<trkpt lat="56.211530" lon="37.916400">
			<ele>205.06</ele>
			<time>2020-01-15T14:29:57.48Z</time>
		</trkpt>
		<trkpt lat="56.211380" lon="37.916430">
			<ele>207.56</ele>
			<time>2020-01-15T14:30:17.60Z</time>
		</trkpt>
		<trkpt lat="56.211260" lon="37.916650">
			<ele>209.14</ele>
			<time>2020-01-15T14:30:40.45Z</time>
		</trkpt>
		<trkpt lat="56.210940" lon="37.917530">
			<ele>210.56</ele>
			<time>2020-01-15T14:31:58.42Z</time>
		</trkpt>
		<trkpt lat="56.210840" lon="37.917660">
			<ele>212.43</ele>
			<time>2020-01-15T14:32:14.87Z</time>
		</trkpt>
		<trkpt lat="56.210750" lon="37.917670">
			<ele>214.27</ele>
			<time>2020-01-15T14:32:26.89Z</time>
		</trkpt>
		<trkpt lat="56.210640" lon="37.917600">
			<ele>217.07</ele>
			<time>2020-01-15T14:32:42.45Z</time>
		</trkpt>
		<trkpt lat="56.210200" lon="37.917110">
			<ele>219.56</ele>
			<time>2020-01-15T14:33:51.46Z</time>
		</trkpt>
		<trkpt lat="56.208630" lon="37.915540">
			<ele>222.28</ele>
			<time>2020-01-15T14:37:50.99Z</time>
		</trkpt>
		<trkpt lat="56.208090" lon="37.915410">
			<ele>224.37</ele>
			<time>2020-01-15T14:39:03.63Z</time>
		</trkpt>
		<trkpt lat="56.206670" lon="37.914440">
			<ele>225.86</ele>
			<time>2020-01-15T14:42:26.17Z</time>
		</trkpt>
		<trkpt lat="56.206120" lon="37.914420">
			<ele>226.78</ele>
			<time>2020-01-15T14:43:39.52Z</time>
		</trkpt>
		<trkpt lat="56.205350" lon="37.914270">
			<ele>227.26</ele>
			<time>2020-01-15T14:45:22.78Z</time>
		</trkpt>
		<trkpt lat="56.205050" lon="37.914090">
			<ele>227.29</ele>
			<time>2020-01-15T14:46:04.95Z</time>
		</trkpt>
		<trkpt lat="56.204680" lon="37.913280">
			<ele>226.98</ele>
			<time>2020-01-15T14:47:22.69Z</time>
		</trkpt>
		<trkpt lat="56.204540" lon="37.912660">
			<ele>225.64</ele>
			<time>2020-01-15T14:48:12.31Z</time>
		</trkpt>
		<trkpt lat="56.201357" lon="37.917659">
			<ele>224.47</ele>
			<time>2020-01-15T14:57:35.85Z</time>
		</trkpt>
		<trkpt lat="56.201120" lon="37.918340">
			<ele>223.20</ele>
			<time>2020-01-15T14:58:35.43Z</time>
		</trkpt>
		<trkpt lat="56.200900" lon="37.918570">
			<ele>223.34</ele>
			<time>2020-01-15T14:59:09.37Z</time>
		</trkpt>
		<trkpt lat="56.200860" lon="37.918810">
			<ele>224.42</ele>
			<time>2020-01-15T14:59:27.95Z</time>
		</trkpt>
		<trkpt lat="56.200660" lon="37.919030">
			<ele>226.46</ele>
			<time>2020-01-15T14:59:59.21Z</time>
		</trkpt>
		<trkpt lat="56.200270" lon="37.919840">
			<ele>228.58</ele>
			<time>2020-01-15T15:01:18.67Z</time>
		</trkpt>
		<trkpt lat="56.200160" lon="37.919870">
			<ele>230.64</ele>
			<time>2020-01-15T15:01:33.50Z</time>
		</trkpt>
		<trkpt lat="56.199790" lon="37.920500">
			<ele>231.94</ele>
			<time>2020-01-15T15:02:41.46Z</time>
		</trkpt>
		<trkpt lat="56.199280" lon="37.921570">
			<ele>233.08</ele>
			<time>2020-01-15T15:04:25.97Z</time>
		</trkpt>
		<trkpt lat="56.198870" lon="37.921950">
			<ele>233.70</ele>
			<time>2020-01-15T15:05:27.47Z</time>
		</trkpt>
		<trkpt lat="56.198330" lon="37.923060">
			<ele>234.26</ele>
			<time>2020-01-15T15:07:16.85Z</time>
		</trkpt>
		<trkpt lat="56.198170" lon="37.923070">
			<ele>234.68</ele>
			<time>2020-01-15T15:07:38.20Z</time>
		</trkpt>
		<trkpt lat="56.198110" lon="37.923280">
			<ele>235.06</ele>
			<time>2020-01-15T15:07:55.71Z</time>
		</trkpt>
		<trkpt lat="56.197800" lon="37.923620">
			<ele>235.48</ele>
			<time>2020-01-15T15:08:44.13Z</time>
		</trkpt>
		<trkpt lat="56.197610" lon="37.924050">
			<ele>236.20</ele>
			<time>2020-01-15T15:09:24.86Z</time>
		</trkpt>
		<trkpt lat="56.197350" lon="37.924340">
			<ele>236.80</ele>
			<time>2020-01-15T15:10:05.66Z</time>
		</trkpt>
		<trkpt lat="56.197080" lon="37.925000">
			<ele>237.52</ele>
			<time>2020-01-15T15:11:06.43Z</time>
		</trkpt>
		<trkpt lat="56.196960" lon="37.925110">
			<ele>237.81</ele>
			<time>2020-01-15T15:11:24.39Z</time>
		</trkpt>
		<trkpt lat="56.196680" lon="37.925680">
			<ele>238.00</ele>
			<time>2020-01-15T15:12:20.79Z</time>
		</trkpt>
		<trkpt lat="56.196420" lon="37.925910">
			<ele>237.87</ele>
			<time>2020-01-15T15:12:59.43Z</time>
		</trkpt>
		<trkpt lat="56.195970" lon="37.926510">
			<ele>237.68</ele>
			<time>2020-01-15T15:14:14.14Z</time>
		</trkpt>
		<trkpt lat="56.195950" lon="37.926660">
			<ele>237.14</ele>
			<time>2020-01-15T15:14:25.58Z</time>
		</trkpt>
		<trkpt lat="56.195600" lon="37.926920">
			<ele>236.64</ele>
			<time>2020-01-15T15:15:16.07Z</time>
		</trkpt>
		<trkpt lat="56.195350" lon="37.927210">
			<ele>236.05</ele>
			<time>2020-01-15T15:15:55.75Z</time>
		</trkpt>
		<trkpt lat="56.195160" lon="37.927790">
			<ele>235.85</ele>
			<time>2020-01-15T15:16:45.68Z</time>
		</trkpt>
		<trkpt lat="56.195100" lon="37.928230">
			<ele>235.96</ele>
			<time>2020-01-15T15:17:19.28Z</time>
		</trkpt>
		<trkpt lat="56.194140" lon="37.929360">
			<ele>236.14</ele>
			<time>2020-01-15T15:19:52.29Z</time>
		</trkpt>
		<trkpt lat="56.194000" lon="37.929380">
			<ele>236.36</ele>
			<time>2020-01-15T15:20:11.01Z</time>
		</trkpt>
		<trkpt lat="56.193780" lon="37.929950">
			<ele>235.88</ele>
			<time>2020-01-15T15:21:02.48Z</time>
		</trkpt>
		<trkpt lat="56.193780" lon="37.930130">
			<ele>234.74</ele>
			<time>2020-01-15T15:21:15.83Z</time>
		</trkpt>
		<trkpt lat="56.193580" lon="37.930520">
			<ele>232.68</ele>
			<time>2020-01-15T15:21:55.18Z</time>
		</trkpt>
		<trkpt lat="56.193370" lon="37.931530">
			<ele>229.47</ele>
			<time>2020-01-15T15:23:15.17Z</time>
		</trkpt>
		<trkpt lat="56.193030" lon="37.932180">
			<ele>226.44</ele>
			<time>2020-01-15T15:24:21.35Z</time>
		</trkpt>
		<trkpt lat="56.192760" lon="37.932390">
			<ele>222.65</ele>
			<time>2020-01-15T15:25:00.58Z</time>
		</trkpt>
		<trkpt lat="56.192460" lon="37.933510">
			<ele>219.45</ele>
			<time>2020-01-15T15:26:32.79Z</time>
		</trkpt>
		<trkpt lat="56.192390" lon="37.934200">
			<ele>215.32</ele>
			<time>2020-01-15T15:27:24.83Z</time>
		</trkpt>
		<trkpt lat="56.192170" lon="37.939740">
			<ele>211.30</ele>
			<time>2020-01-15T15:34:16.87Z</time>
		</trkpt>
		<trkpt lat="56.192210" lon="37.943930">
			<ele>206.92</ele>
			<time>2020-01-15T15:39:27.76Z</time>
		</trkpt>
		<trkpt lat="56.191760" lon="37.946130">
			<ele>203.70</ele>
			<time>2020-01-15T15:42:21.66Z</time>
		</trkpt>
		<trkpt lat="56.190980" lon="37.948300">
			<ele>199.90</ele>
			<time>2020-01-15T15:45:33.32Z</time>
		</trkpt>
		<trkpt lat="56.190200" lon="37.956990">
			<ele>197.72</ele>
			<time>2020-01-15T15:56:26.37Z</time>
		</trkpt>
		<trkpt lat="56.190100" lon="37.956850">
			<ele>194.55</ele>
			<time>2020-01-15T15:56:43.27Z</time>
		</trkpt>
		<trkpt lat="56.189990" lon="37.958360">
			<ele>193.30</ele>
			<time>2020-01-15T15:58:36.26Z</time>
		</trkpt>
		<trkpt lat="56.189490" lon="37.962850">
			<ele>192.00</ele>
			<time>2020-01-15T16:04:15.99Z</time>
		</trkpt>
		<trkpt lat="56.189380" lon="37.964130">
			<ele>191.66</ele>
			<time>2020-01-15T16:05:52.08Z</time>
		</trkpt>
		<trkpt lat="56.189400" lon="37.964390">
			<ele>191.40</ele>
			<time>2020-01-15T16:06:11.56Z</time>
		</trkpt>
		<trkpt lat="56.189490" lon="37.964680">
			<ele>191.16</ele>
			<time>2020-01-15T16:06:36.19Z</time>
		</trkpt>
		<trkpt lat="56.189450" lon="37.964940">
			<ele>191.06</ele>
			<time>2020-01-15T16:06:56.21Z</time>
		</trkpt>
		<trkpt lat="56.189560" lon="37.965140">
			<ele>191.00</ele>
			<time>2020-01-15T16:07:17.07Z</time>
		</trkpt>
		<trkpt lat="56.189750" lon="37.965010">
			<ele>191.00</ele>
			<time>2020-01-15T16:07:44.18Z</time>
		</trkpt>
		<extensions>
			<gte:name>ст. Абрамцево — ст. Калистово</gte:name>
			<gte:color>#ffb0ff</gte:color>
		</extensions>
	</trkseg>
</trk>
</gpx>