<?xml version="1.0" encoding="UTF-8"?>
<gpx xmlns="http://www.topografix.com/GPX/1/1" version="1.1" creator="http://nakarte.tk">
	<metadata>
		<author></author>
	</metadata>
	<wpt lat="55.756716" lon="37.619537">
		<name>метро Театральная,  метро Площадь революции</name>
	</wpt>
	<wpt lat="55.75617" lon="37.617439">
		<name>Иверские ворота,  Нулевой километр Москвы</name>
	</wpt>
	<wpt lat="55.756103" lon="37.617229">
		<name>Манежная пл.,     Памятник маршалу Жукову,   Исторический музей.</name>
	</wpt>
	<wpt lat="55.755703" lon="37.616262">
		<name>Вид на Красную  площадь.</name>
	</wpt>
	<wpt lat="55.754996" lon="37.615842">
		<name>Вечный огонь</name>
	</wpt>
	<wpt lat="55.754768" lon="37.615726">
		<name>Аллея Гордов  Героев.</name>
	</wpt>
	<wpt lat="55.754006" lon="37.615234">
		<name>Обелиск в память 300-летия царствования Дома Романовых</name>
	</wpt>
	<wpt lat="55.753592" lon="37.614351">
		<name>Александровский  сад</name>
	</wpt>
	<wpt lat="55.752265" lon="37.613504">
		<name>Александровский сад</name>
	</wpt>
	<wpt lat="55.750319" lon="37.612333">
		<name>Боровицкая башня</name>
	</wpt>
	<wpt lat="55.749327" lon="37.611087">
		<name>Памятник  князю Владимиру Святославичу</name>
	</wpt>
	<wpt lat="55.747897" lon="37.612006">
		<name>Проходим под Большим каменным  мостом.</name>
	</wpt>
	<wpt lat="55.747167" lon="37.61066">
		<name>Пречистенская наб.</name>
	</wpt>
	<wpt lat="55.744489" lon="37.607867">
		<name>Храм Христа Спасителя.</name>
	</wpt>
	<wpt lat="55.74277" lon="37.610154">
		<name>Патриарший мост</name>
	</wpt>
	<wpt lat="55.742133" lon="37.611269">
		<name>Патриарший мост</name>
	</wpt>
	<wpt lat="55.741367" lon="37.613126">
		<name>Водоотводный  канал</name>
	</wpt>
	<wpt lat="55.741139" lon="37.612979">
		<name>Якиманская  наб.</name>
	</wpt>
	<wpt lat="55.740182" lon="37.611999">
		<name>Якиманская  наб.</name>
	</wpt>
	<wpt lat="55.739507" lon="37.611142">
		<name>Якиманская  наб.</name>
	</wpt>
	<wpt lat="55.738706" lon="37.609955">
		<name>Памятник Петру Первому</name>
	</wpt>
	<wpt lat="55.738445" lon="37.609239">
		<name>Крымская набережная</name>
	</wpt>
	<wpt lat="55.736037" lon="37.604957">
		<name>Крымская набережная, Центральный дом художника</name>
	</wpt>
	<wpt lat="55.734004" lon="37.600912">
		<name>Крымская набережная , Крымский мост</name>
	</wpt>
	<wpt lat="55.732013" lon="37.598769">
		<name>Пушкинская наб.</name>
	</wpt>
	<wpt lat="55.730312" lon="37.597589">
		<name>Яхта-ресторан</name>
	</wpt>
	<wpt lat="55.729682" lon="37.5972">
		<name>Пушкинская наб.</name>
	</wpt>
	<wpt lat="55.728437" lon="37.596731">
		<name>Национальный центр управления обороной Российской Федерации</name>
	</wpt>
	<wpt lat="55.727011" lon="37.595468">
		<name>Пушкинская наб.</name>
	</wpt>
	<wpt lat="55.72532" lon="37.59417">
		<name>Пушкинский (Андреевский) мост.</name>
	</wpt>
	<wpt lat="55.721529" lon="37.589794">
		<name>Спуск на  набережную.</name>
	</wpt>
	<wpt lat="55.713629" lon="37.578607">
		<name>Андреевский ж.д. и авто  мост.</name>
	</wpt>
	<wpt lat="55.712402" lon="37.57498">
		<name>Андреевская набережная</name>
	</wpt>
	<wpt lat="55.709434" lon="37.557535">
		<name>Лужнецкий  метромост - станция метро «Воробьёвы горы»</name>
	</wpt>
	<wpt lat="55.707879" lon="37.554005">
		<name>Дорожка в гору</name>
	</wpt>
	<wpt lat="55.707894" lon="37.548777">
		<name>Памятный знак на месте клятвы А.И. Герцена и Н.П. Огарёва</name>
	</wpt>
	<wpt lat="55.707949" lon="37.547238">
		<name>Тропинка</name>
	</wpt>
	<wpt lat="55.708822" lon="37.543235">
		<name>Смотровая площадка</name>
	</wpt>
	<trk>
		<name>Прогулка по Москве</name>
		<trkseg>
			<trkpt lat="55.756691" lon="37.619572">
				<ele>138</ele>
			</trkpt>
			<trkpt lat="55.756842" lon="37.619314">
				<ele>140.32</ele>
			</trkpt>
			<trkpt lat="55.756885" lon="37.619014">
				<ele>142.60000000000002</ele>
			</trkpt>
			<trkpt lat="55.75682" lon="37.618756">
				<ele>145.752</ele>
			</trkpt>
			<trkpt lat="55.756134" lon="37.617361">
				<ele>147.56000000000003</ele>
			</trkpt>
			<trkpt lat="55.756005" lon="37.616761">
				<ele>148.47200000000004</ele>
			</trkpt>
			<trkpt lat="55.755769" lon="37.61631">
				<ele>147.52000000000004</ele>
			</trkpt>
			<trkpt lat="55.75534" lon="37.615924">
				<ele>145.32800000000003</ele>
			</trkpt>
			<trkpt lat="55.754975" lon="37.615838">
				<ele>142.64000000000004</ele>
			</trkpt>
			<trkpt lat="55.753927" lon="37.615254">
				<ele>139.67200000000003</ele>
			</trkpt>
			<trkpt lat="55.7537" lon="37.614438">
				<ele>137.008</ele>
			</trkpt>
			<trkpt lat="55.752207" lon="37.61352">
				<ele>134.92800000000003</ele>
			</trkpt>
			<trkpt lat="55.751499" lon="37.613134">
				<ele>133.632</ele>
			</trkpt>
			<trkpt lat="55.749567" lon="37.611911">
				<ele>132.73600000000002</ele>
			</trkpt>
			<trkpt lat="55.74931" lon="37.611289">
				<ele>132.048</ele>
			</trkpt>
			<trkpt lat="55.749289" lon="37.611031">
				<ele>130.48000000000002</ele>
			</trkpt>
			<trkpt lat="55.74916" lon="37.611117">
				<ele>129.13600000000002</ele>
			</trkpt>
			<trkpt lat="55.748774" lon="37.611289">
				<ele>127.37600000000002</ele>
			</trkpt>
			<trkpt lat="55.748623" lon="37.611096">
				<ele>126.75200000000002</ele>
			</trkpt>
			<trkpt lat="55.748167" lon="37.611533">
				<ele>126.39200000000002</ele>
			</trkpt>
			<trkpt lat="55.748116" lon="37.611877">
				<ele>126.72000000000003</ele>
			</trkpt>
			<trkpt lat="55.74786" lon="37.612132">
				<ele>127.36000000000001</ele>
			</trkpt>
			<trkpt lat="55.747199" lon="37.610727">
				<ele>127.70400000000001</ele>
			</trkpt>
			<trkpt lat="55.746898" lon="37.610266">
				<ele>128.18400000000003</ele>
			</trkpt>
			<trkpt lat="55.746479" lon="37.609745">
				<ele>128.01600000000002</ele>
			</trkpt>
			<trkpt lat="55.745596" lon="37.608687">
				<ele>128.168</ele>
			</trkpt>
			<trkpt lat="55.744629" lon="37.607965">
				<ele>128.27200000000002</ele>
			</trkpt>
			<trkpt lat="55.743996" lon="37.607417">
				<ele>128.20000000000002</ele>
			</trkpt>
			<trkpt lat="55.74418" lon="37.606935">
				<ele>127.61600000000001</ele>
			</trkpt>
			<trkpt lat="55.743611" lon="37.608271">
				<ele>126.75200000000001</ele>
			</trkpt>
			<trkpt lat="55.74287" lon="37.610109">
				<ele>125.69600000000001</ele>
			</trkpt>
			<trkpt lat="55.742449" lon="37.610806">
				<ele>125.74400000000001</ele>
			</trkpt>
			<trkpt lat="55.741809" lon="37.612157">
				<ele>125.40000000000002</ele>
			</trkpt>
			<trkpt lat="55.741589" lon="37.612763">
				<ele>125.80000000000001</ele>
			</trkpt>
			<trkpt lat="55.741389" lon="37.613199">
				<ele>125.12800000000001</ele>
			</trkpt>
			<trkpt lat="55.741257" lon="37.613369">
				<ele>124.968</ele>
			</trkpt>
			<trkpt lat="55.741223" lon="37.613148">
				<ele>123.96000000000002</ele>
			</trkpt>
			<trkpt lat="55.738839" lon="37.610516">
				<ele>123.66400000000002</ele>
			</trkpt>
			<trkpt lat="55.738088" lon="37.608392">
				<ele>122.37600000000002</ele>
			</trkpt>
			<trkpt lat="55.73386" lon="37.600624">
				<ele>121.95200000000003</ele>
			</trkpt>
			<trkpt lat="55.731629" lon="37.598436">
				<ele>120.80800000000004</ele>
			</trkpt>
			<trkpt lat="55.731157" lon="37.598071">
				<ele>120.56</ele>
			</trkpt>
			<trkpt lat="55.728796" lon="37.596762">
				<ele>120.096</ele>
			</trkpt>
			<trkpt lat="55.72811" lon="37.596569">
				<ele>120.064</ele>
			</trkpt>
			<trkpt lat="55.725878" lon="37.594724">
				<ele>120.12800000000001</ele>
			</trkpt>
			<trkpt lat="55.724913" lon="37.593973">
				<ele>120.25600000000001</ele>
			</trkpt>
			<trkpt lat="55.724333" lon="37.593586">
				<ele>120.57600000000002</ele>
			</trkpt>
			<trkpt lat="55.723711" lon="37.5929">
				<ele>120.64000000000001</ele>
			</trkpt>
			<trkpt lat="55.723175" lon="37.592406">
				<ele>120.68000000000002</ele>
			</trkpt>
			<trkpt lat="55.72266" lon="37.591591">
				<ele>120.43200000000002</ele>
			</trkpt>
			<trkpt lat="55.721715" lon="37.590217">
				<ele>120.224</ele>
			</trkpt>
			<trkpt lat="55.721308" lon="37.589874">
				<ele>120.064</ele>
			</trkpt>
			<trkpt lat="55.72002" lon="37.588222">
				<ele>120.064</ele>
			</trkpt>
			<trkpt lat="55.719548" lon="37.587514">
				<ele>120.16</ele>
			</trkpt>
			<trkpt lat="55.719334" lon="37.587342">
				<ele>120.33600000000001</ele>
			</trkpt>
			<trkpt lat="55.719055" lon="37.587256">
				<ele>120.44000000000003</ele>
			</trkpt>
			<trkpt lat="55.718883" lon="37.587063">
				<ele>120.44000000000003</ele>
			</trkpt>
			<trkpt lat="55.718583" lon="37.586548">
				<ele>120.4</ele>
			</trkpt>
			<trkpt lat="55.717982" lon="37.585647">
				<ele>120.51200000000001</ele>
			</trkpt>
			<trkpt lat="55.716051" lon="37.583072">
				<ele>120.68800000000002</ele>
			</trkpt>
			<trkpt lat="55.715214" lon="37.582042">
				<ele>121.35200000000002</ele>
			</trkpt>
			<trkpt lat="55.714828" lon="37.581034">
				<ele>121.39200000000001</ele>
			</trkpt>
			<trkpt lat="55.713819" lon="37.579145">
				<ele>121.936</ele>
			</trkpt>
			<trkpt lat="55.713325" lon="37.577772">
				<ele>121.38400000000001</ele>
			</trkpt>
			<trkpt lat="55.713347" lon="37.577472">
				<ele>121.41600000000003</ele>
			</trkpt>
			<trkpt lat="55.71251" lon="37.575304">
				<ele>120.79200000000002</ele>
			</trkpt>
			<trkpt lat="55.711952" lon="37.57348">
				<ele>120.68800000000002</ele>
			</trkpt>
			<trkpt lat="55.711695" lon="37.572772">
				<ele>120.49600000000001</ele>
			</trkpt>
			<trkpt lat="55.711437" lon="37.572064">
				<ele>120.50400000000002</ele>
			</trkpt>
			<trkpt lat="55.711459" lon="37.571828">
				<ele>120.56800000000001</ele>
			</trkpt>
			<trkpt lat="55.710386" lon="37.56788">
				<ele>120.52800000000002</ele>
			</trkpt>
			<trkpt lat="55.710064" lon="37.566228">
				<ele>120.64000000000001</ele>
			</trkpt>
			<trkpt lat="55.709613" lon="37.56361">
				<ele>122.32000000000002</ele>
			</trkpt>
			<trkpt lat="55.709527" lon="37.560778">
				<ele>125.12000000000003</ele>
			</trkpt>
			<trkpt lat="55.709506" lon="37.557816">
				<ele>131.79200000000003</ele>
			</trkpt>
			<trkpt lat="55.707976" lon="37.555733">
				<ele>137.78400000000002</ele>
			</trkpt>
			<trkpt lat="55.708069" lon="37.554543">
				<ele>145.25600000000003</ele>
			</trkpt>
			<trkpt lat="55.708033" lon="37.554323">
				<ele>149.64000000000001</ele>
			</trkpt>
			<trkpt lat="55.707801" lon="37.553867">
				<ele>154.92000000000002</ele>
			</trkpt>
			<trkpt lat="55.707669" lon="37.552872">
				<ele>159.496</ele>
			</trkpt>
			<trkpt lat="55.707532" lon="37.550864">
				<ele>166.40800000000002</ele>
			</trkpt>
			<trkpt lat="55.707403" lon="37.550671">
				<ele>171.16000000000003</ele>
			</trkpt>
			<trkpt lat="55.707253" lon="37.550864">
				<ele>175.584</ele>
			</trkpt>
			<trkpt lat="55.707124" lon="37.550821">
				<ele>176.104</ele>
			</trkpt>
			<trkpt lat="55.707553" lon="37.547495">
				<ele>176.864</ele>
			</trkpt>
			<trkpt lat="55.707682" lon="37.54683">
				<ele>178.09600000000003</ele>
			</trkpt>
			<trkpt lat="55.708047" lon="37.545585">
				<ele>180.24000000000004</ele>
			</trkpt>
			<trkpt lat="55.708047" lon="37.545307">
				<ele>183.08800000000002</ele>
			</trkpt>
			<trkpt lat="55.708111" lon="37.545028">
				<ele>184.096</ele>
			</trkpt>
			<trkpt lat="55.708981" lon="37.542835">
				<ele>184.392</ele>
			</trkpt>
			<trkpt lat="55.709294" lon="37.54234">
				<ele>183.904</ele>
			</trkpt>
			<trkpt lat="55.709462" lon="37.542254">
				<ele>183.904</ele>
			</trkpt>
			<trkpt lat="55.708961" lon="37.543087">
				<ele>184.072</ele>
			</trkpt>
			<trkpt lat="55.708317" lon="37.544785">
				<ele>184.32000000000005</ele>
			</trkpt>
			<trkpt lat="55.708262" lon="37.545401">
				<ele>182.56</ele>
			</trkpt>
			<trkpt lat="55.708084" lon="37.546311">
				<ele>180.15200000000004</ele>
			</trkpt>
			<trkpt lat="55.707998" lon="37.546542">
				<ele>174.84000000000003</ele>
			</trkpt>
			<trkpt lat="55.70787" lon="37.547867">
				<ele>170.72000000000003</ele>
			</trkpt>
			<trkpt lat="55.707936" lon="37.548616">
				<ele>165.92800000000003</ele>
			</trkpt>
			<trkpt lat="55.708084" lon="37.548812">
				<ele>163</ele>
			</trkpt>
			<trkpt lat="55.708219" lon="37.54908">
				<ele>159.816</ele>
			</trkpt>
			<trkpt lat="55.708318" lon="37.550314">
				<ele>156.08</ele>
			</trkpt>
			<trkpt lat="55.708442" lon="37.550629">
				<ele>153.18400000000003</ele>
			</trkpt>
			<trkpt lat="55.708458" lon="37.551074">
				<ele>150.41600000000003</ele>
			</trkpt>
			<trkpt lat="55.70835" lon="37.551271">
				<ele>149.76000000000002</ele>
			</trkpt>
			<trkpt lat="55.708216" lon="37.55257">
				<ele>148.28000000000003</ele>
			</trkpt>
			<trkpt lat="55.708177" lon="37.553906">
				<ele>145.72000000000003</ele>
			</trkpt>
			<trkpt lat="55.708414" lon="37.554042">
				<ele>141.93600000000004</ele>
			</trkpt>
			<trkpt lat="55.70854" lon="37.554241">
				<ele>137.776</ele>
			</trkpt>
			<trkpt lat="55.708648" lon="37.554619">
				<ele>135.60000000000002</ele>
			</trkpt>
			<trkpt lat="55.708669" lon="37.554855">
				<ele>134.60800000000003</ele>
			</trkpt>
			<trkpt lat="55.708798" lon="37.554812">
				<ele>135.20000000000005</ele>
			</trkpt>
			<trkpt lat="55.708841" lon="37.555048">
				<ele>135.60800000000003</ele>
			</trkpt>
			<trkpt lat="55.708798" lon="37.555563">
				<ele>135.848</ele>
			</trkpt>
			<trkpt lat="55.708841" lon="37.555799">
				<ele>134.42400000000004</ele>
			</trkpt>
			<trkpt lat="55.709077" lon="37.556035">
				<ele>131.536</ele>
			</trkpt>
			<trkpt lat="55.709055" lon="37.556894">
				<ele>126.328</ele>
			</trkpt>
			<trkpt lat="55.70942" lon="37.55758">
				<ele>120</ele>
			</trkpt>
		</trkseg>
	</trk>
</gpx>